<?xml version="1.0" encoding="UTF-8"?>
<kml xmlns="http://www.opengis.net/kml/2.2"><Document><name>KPC Kentucky SOTA (W4K) Summits</name>
<description>Kentucky Portable Club • W4K summits from the SOTLAS export. Get landowner permission where needed; confirm park boundaries before claiming combos.</description>
<Style id="p10"><IconStyle><color>ff2b45b5</color><scale>1.1</scale><Icon><href>http://maps.google.com/mapfiles/kml/shapes/triangle.png</href></Icon></IconStyle></Style>
<Style id="p8"><IconStyle><color>ff2b5a8b</color><scale>1.1</scale><Icon><href>http://maps.google.com/mapfiles/kml/shapes/triangle.png</href></Icon></IconStyle></Style>
<Style id="p6"><IconStyle><color>ff20a8e9</color><scale>1.1</scale><Icon><href>http://maps.google.com/mapfiles/kml/shapes/triangle.png</href></Icon></IconStyle></Style>
<Style id="p4"><IconStyle><color>ff4f6a2d</color><scale>1.1</scale><Icon><href>http://maps.google.com/mapfiles/kml/shapes/triangle.png</href></Icon></IconStyle></Style>
<Style id="p2"><IconStyle><color>ff69b07f</color><scale>1.1</scale><Icon><href>http://maps.google.com/mapfiles/kml/shapes/triangle.png</href></Icon></IconStyle></Style>
<Style id="p1"><IconStyle><color>ff9a9a9a</color><scale>1.1</scale><Icon><href>http://maps.google.com/mapfiles/kml/shapes/triangle.png</href></Icon></IconStyle></Style>
<Folder><name>10 point summits</name>
<Placemark><name>W4K/EC-001 Black Mountain</name><styleUrl>#p10</styleUrl><description><![CDATA[Black Mountain<br>Harlan County • Region EC • 1,262 m / 4,140 ft • 10 points<br>SOTLAS: <a href="https://sotl.as/summits/W4K/EC-001">https://sotl.as/summits/W4K/EC-001</a>]]></description><Point><coordinates>-82.8938,36.9142,0</coordinates></Point></Placemark>
<Placemark><name>W4K/EC-002 Little Black Mountain</name><styleUrl>#p10</styleUrl><description><![CDATA[Little Black Mountain<br>Harlan County • Region EC • 1,116 m / 3,661 ft • 10 points<br>SOTLAS: <a href="https://sotl.as/summits/W4K/EC-002">https://sotl.as/summits/W4K/EC-002</a>]]></description><Point><coordinates>-83.0768,36.8507,0</coordinates></Point></Placemark>
<Placemark><name>W4K/EC-003 Unnamed summit (3660)</name><styleUrl>#p10</styleUrl><description><![CDATA[Unnamed summit (3660)<br>Harlan County • Region EC • 1,116 m / 3,661 ft • 10 points<br>SOTLAS: <a href="https://sotl.as/summits/W4K/EC-003">https://sotl.as/summits/W4K/EC-003</a>]]></description><Point><coordinates>-83.0371,36.8633,0</coordinates></Point></Placemark>
<Placemark><name>W4K/EC-004 Dominion Benchmark</name><styleUrl>#p10</styleUrl><description><![CDATA[Dominion Benchmark<br>Harlan County • Region EC • 1,116 m / 3,661 ft • 10 points<br>SOTLAS: <a href="https://sotl.as/summits/W4K/EC-004">https://sotl.as/summits/W4K/EC-004</a>]]></description><Point><coordinates>-83.1076,36.8279,0</coordinates></Point></Placemark>
<Placemark><name>W4K/EC-005 Little Black Lookout</name><styleUrl>#p10</styleUrl><description><![CDATA[Little Black Lookout<br>Harlan County • Region EC • 1,042 m / 3,419 ft • 10 points<br>SOTLAS: <a href="https://sotl.as/summits/W4K/EC-005">https://sotl.as/summits/W4K/EC-005</a>]]></description><Point><coordinates>-83.1487,36.8226,0</coordinates></Point></Placemark>
<Placemark><name>W4K/EC-006 Chunklick Benchmark</name><styleUrl>#p10</styleUrl><description><![CDATA[Chunklick Benchmark<br>Harlan County • Region EC • 1,039 m / 3,409 ft • 10 points<br>SOTLAS: <a href="https://sotl.as/summits/W4K/EC-006">https://sotl.as/summits/W4K/EC-006</a>]]></description><Point><coordinates>-83.3834,36.7345,0</coordinates></Point></Placemark>
<Placemark><name>W4K/EC-007 Unnamed summit (3380A)</name><styleUrl>#p10</styleUrl><description><![CDATA[Unnamed summit (3380A)<br>Harlan County • Region EC • 1,030 m / 3,379 ft • 10 points<br>SOTLAS: <a href="https://sotl.as/summits/W4K/EC-007">https://sotl.as/summits/W4K/EC-007</a>]]></description><Point><coordinates>-83.1609,36.8959,0</coordinates></Point></Placemark>
<Placemark><name>W4K/EC-008 Unnamed summit (3380B)</name><styleUrl>#p10</styleUrl><description><![CDATA[Unnamed summit (3380B)<br>Harlan County • Region EC • 1,030 m / 3,379 ft • 10 points<br>SOTLAS: <a href="https://sotl.as/summits/W4K/EC-008">https://sotl.as/summits/W4K/EC-008</a>]]></description><Point><coordinates>-83.217,36.8208,0</coordinates></Point></Placemark>
<Placemark><name>W4K/EC-009 Unnamed summit (3380C)</name><styleUrl>#p10</styleUrl><description><![CDATA[Unnamed summit (3380C)<br>Harlan County • Region EC • 1,030 m / 3,379 ft • 10 points<br>SOTLAS: <a href="https://sotl.as/summits/W4K/EC-009">https://sotl.as/summits/W4K/EC-009</a>]]></description><Point><coordinates>-83.2569,36.8366,0</coordinates></Point></Placemark>
<Placemark><name>W4K/EC-010 Unnamed summit (3355)</name><styleUrl>#p10</styleUrl><description><![CDATA[Unnamed summit (3355)<br>Harlan County • Region EC • 1,023 m / 3,356 ft • 10 points<br>SOTLAS: <a href="https://sotl.as/summits/W4K/EC-010">https://sotl.as/summits/W4K/EC-010</a><br>POTA / KFF WITHIN 3 MI  KFF-6865 Kentenia 2.4 mi  •  US-4688 Kentenia State Forest 2.9 mi  (to the park’s reference point — check boundaries)]]></description><Point><coordinates>-83.2216,36.8832,0</coordinates></Point></Placemark>
<Placemark><name>W4K/EC-011 Fox Knob</name><styleUrl>#p10</styleUrl><description><![CDATA[Fox Knob<br>Harlan County • Region EC • 1,018 m / 3,340 ft • 10 points<br>SOTLAS: <a href="https://sotl.as/summits/W4K/EC-011">https://sotl.as/summits/W4K/EC-011</a>]]></description><Point><coordinates>-83.3766,36.8002,0</coordinates></Point></Placemark>
<Placemark><name>W4K/EC-012 Unnamed summit (3340A)</name><styleUrl>#p10</styleUrl><description><![CDATA[Unnamed summit (3340A)<br>Harlan County • Region EC • 1,018 m / 3,340 ft • 10 points<br>SOTLAS: <a href="https://sotl.as/summits/W4K/EC-012">https://sotl.as/summits/W4K/EC-012</a>]]></description><Point><coordinates>-83.1233,36.9211,0</coordinates></Point></Placemark>
<Placemark><name>W4K/EC-013 Unnamed summit (3340B)</name><styleUrl>#p10</styleUrl><description><![CDATA[Unnamed summit (3340B)<br>Harlan County • Region EC • 1,018 m / 3,340 ft • 10 points<br>SOTLAS: <a href="https://sotl.as/summits/W4K/EC-013">https://sotl.as/summits/W4K/EC-013</a><br>POTA / KFF WITHIN 3 MI  KFF-6879 E. Lucy Braun 2.6 mi  •  US-7968 E. Lucy Braun State Nature Preserve 2.6 mi  (to the park’s reference point — check boundaries)]]></description><Point><coordinates>-83.111,36.9273,0</coordinates></Point></Placemark>
<Placemark><name>W4K/EC-014 Pine Mountain</name><styleUrl>#p10</styleUrl><description><![CDATA[Pine Mountain<br>Letcher County • Region EC • 1,006 m / 3,301 ft • 10 points<br>SOTLAS: <a href="https://sotl.as/summits/W4K/EC-014">https://sotl.as/summits/W4K/EC-014</a><br>POTA / KFF WITHIN 3 MI  KFF-6295 Jefferson (KY) 1.8 mi  •  US-10139 Jefferson National Forest Wildlife Management Area 1.8 mi  (to the park’s reference point — check boundaries)]]></description><Point><coordinates>-82.7318,37.1126,0</coordinates></Point></Placemark>
<Placemark><name>W4K/EC-015 Grays Ridge</name><styleUrl>#p10</styleUrl><description><![CDATA[Grays Ridge<br>Harlan County • Region EC • 981 m / 3,219 ft • 10 points<br>SOTLAS: <a href="https://sotl.as/summits/W4K/EC-015">https://sotl.as/summits/W4K/EC-015</a>]]></description><Point><coordinates>-83.3011,36.7746,0</coordinates></Point></Placemark>
</Folder>
<Folder><name>8 point summits</name>
<Placemark><name>W4K/EC-016 Unnamed summit (3070)</name><styleUrl>#p8</styleUrl><description><![CDATA[Unnamed summit (3070)<br>Bell County • Region EC • 936 m / 3,071 ft • 8 points<br>SOTLAS: <a href="https://sotl.as/summits/W4K/EC-016">https://sotl.as/summits/W4K/EC-016</a><br>POTA / KFF WITHIN 3 MI  KFF-6866 Kentucky Ridge 1.6 mi  •  US-4689 Kentucky Ridge State Forest 1.7 mi  (to the park’s reference point — check boundaries)]]></description><Point><coordinates>-83.802,36.6616,0</coordinates></Point></Placemark>
<Placemark><name>W4K/EC-017 Double Spur</name><styleUrl>#p8</styleUrl><description><![CDATA[Double Spur<br>Harlan County • Region EC • 930 m / 3,051 ft • 8 points<br>SOTLAS: <a href="https://sotl.as/summits/W4K/EC-017">https://sotl.as/summits/W4K/EC-017</a>]]></description><Point><coordinates>-83.3209,36.7481,0</coordinates></Point></Placemark>
<Placemark><name>W4K/EC-019 Unnamed summit (2961)</name><styleUrl>#p8</styleUrl><description><![CDATA[Unnamed summit (2961)<br>Bell County • Region EC • 903 m / 2,963 ft • 8 points<br>SOTLAS: <a href="https://sotl.as/summits/W4K/EC-019">https://sotl.as/summits/W4K/EC-019</a>]]></description><Point><coordinates>-83.5234,36.7422,0</coordinates></Point></Placemark>
<Placemark><name>W4K/EC-020 Unnamed summit (2940)</name><styleUrl>#p8</styleUrl><description><![CDATA[Unnamed summit (2940)<br>Harlan County • Region EC • 896 m / 2,940 ft • 8 points<br>SOTLAS: <a href="https://sotl.as/summits/W4K/EC-020">https://sotl.as/summits/W4K/EC-020</a><br>POTA / KFF WITHIN 3 MI  KFF-6883 James E Bickford 1.2 mi  •  KFF-6879 E. Lucy Braun 3.0 mi  •  US-7968 E. Lucy Braun State Nature Preserve 3.0 mi  (to the park’s reference point — check boundaries)]]></description><Point><coordinates>-83.1602,36.95,0</coordinates></Point></Placemark>
<Placemark><name>W4K/EC-021 Flatwoods</name><styleUrl>#p8</styleUrl><description><![CDATA[Flatwoods<br>Pike County • Region EC • 872 m / 2,861 ft • 8 points<br>SOTLAS: <a href="https://sotl.as/summits/W4K/EC-021">https://sotl.as/summits/W4K/EC-021</a>]]></description><Point><coordinates>-82.5246,37.285,0</coordinates></Point></Placemark>
<Placemark><name>W4K/EC-022 Unnamed summit (2710)</name><styleUrl>#p8</styleUrl><description><![CDATA[Unnamed summit (2710)<br>Bell County • Region EC • 826 m / 2,710 ft • 8 points<br>SOTLAS: <a href="https://sotl.as/summits/W4K/EC-022">https://sotl.as/summits/W4K/EC-022</a><br>POTA / KFF WITHIN 3 MI  KFF-6866 Kentucky Ridge 1.4 mi  •  US-4689 Kentucky Ridge State Forest 2.2 mi  (to the park’s reference point — check boundaries)]]></description><Point><coordinates>-83.7831,36.6894,0</coordinates></Point></Placemark>
<Placemark><name>W4K/EC-023 Unnamed summit (2660)</name><styleUrl>#p8</styleUrl><description><![CDATA[Unnamed summit (2660)<br>Letcher County • Region EC • 811 m / 2,661 ft • 8 points<br>SOTLAS: <a href="https://sotl.as/summits/W4K/EC-023">https://sotl.as/summits/W4K/EC-023</a><br>POTA / KFF WITHIN 3 MI  KFF-6879 E. Lucy Braun 2.3 mi  •  US-7968 E. Lucy Braun State Nature Preserve 2.3 mi  •  KFF-6883 James E Bickford 2.8 mi  (to the park’s reference point — check boundaries)]]></description><Point><coordinates>-83.1474,36.9779,0</coordinates></Point></Placemark>
<Placemark><name>W4K/EC-024 Peters Knob</name><styleUrl>#p8</styleUrl><description><![CDATA[Peters Knob<br>Harlan County • Region EC • 799 m / 2,621 ft • 8 points<br>SOTLAS: <a href="https://sotl.as/summits/W4K/EC-024">https://sotl.as/summits/W4K/EC-024</a>]]></description><Point><coordinates>-83.4497,36.8915,0</coordinates></Point></Placemark>
<Placemark><name>W4K/EC-025 Unnamed summit (2556)</name><styleUrl>#p8</styleUrl><description><![CDATA[Unnamed summit (2556)<br>Harlan County • Region EC • 779 m / 2,556 ft • 8 points<br>SOTLAS: <a href="https://sotl.as/summits/W4K/EC-025">https://sotl.as/summits/W4K/EC-025</a>]]></description><Point><coordinates>-83.3165,36.9188,0</coordinates></Point></Placemark>
<Placemark><name>W4K/EC-026 Unnamed summit (2540)</name><styleUrl>#p8</styleUrl><description><![CDATA[Unnamed summit (2540)<br>Harlan County • Region EC • 774 m / 2,539 ft • 8 points<br>SOTLAS: <a href="https://sotl.as/summits/W4K/EC-026">https://sotl.as/summits/W4K/EC-026</a><br>POTA / KFF WITHIN 3 MI  KFF-6883 James E Bickford 1.6 mi  •  US-4688 Kentenia State Forest 2.0 mi  •  KFF-6865 Kentenia 2.5 mi  (to the park’s reference point — check boundaries)]]></description><Point><coordinates>-83.2112,36.9534,0</coordinates></Point></Placemark>
<Placemark><name>W4K/EC-027 Dicks Knob</name><styleUrl>#p8</styleUrl><description><![CDATA[Dicks Knob<br>Pike County • Region EC • 762 m / 2,500 ft • 8 points<br>SOTLAS: <a href="https://sotl.as/summits/W4K/EC-027">https://sotl.as/summits/W4K/EC-027</a>]]></description><Point><coordinates>-82.2275,37.5013,0</coordinates></Point></Placemark>
<Placemark><name>W4K/EC-028 Unnamed summit (2500)</name><styleUrl>#p8</styleUrl><description><![CDATA[Unnamed summit (2500)<br>Pike County • Region EC • 762 m / 2,500 ft • 8 points<br>SOTLAS: <a href="https://sotl.as/summits/W4K/EC-028">https://sotl.as/summits/W4K/EC-028</a>]]></description><Point><coordinates>-82.5849,37.2344,0</coordinates></Point></Placemark>
<Placemark><name>W4K/EC-029 Hylton Knob</name><styleUrl>#p8</styleUrl><description><![CDATA[Hylton Knob<br>Pike County • Region EC • 761 m / 2,497 ft • 8 points<br>SOTLAS: <a href="https://sotl.as/summits/W4K/EC-029">https://sotl.as/summits/W4K/EC-029</a>]]></description><Point><coordinates>-82.1634,37.4216,0</coordinates></Point></Placemark>
<Placemark><name>W4K/EC-030 Unnamed summit (2452)</name><styleUrl>#p8</styleUrl><description><![CDATA[Unnamed summit (2452)<br>Bell County • Region EC • 747 m / 2,451 ft • 8 points<br>SOTLAS: <a href="https://sotl.as/summits/W4K/EC-030">https://sotl.as/summits/W4K/EC-030</a><br>POTA / KFF WITHIN 3 MI  US-1288 Pine Mountain State Park 3.0 mi  •  KFF-1288 Pine Mountain 3.0 mi  (to the park’s reference point — check boundaries)]]></description><Point><coordinates>-83.7144,36.7041,0</coordinates></Point></Placemark>
<Placemark><name>W4K/EC-031 Unnamed summit (2420)</name><styleUrl>#p8</styleUrl><description><![CDATA[Unnamed summit (2420)<br>Pike County • Region EC • 738 m / 2,421 ft • 8 points<br>SOTLAS: <a href="https://sotl.as/summits/W4K/EC-031">https://sotl.as/summits/W4K/EC-031</a>]]></description><Point><coordinates>-82.206,37.5086,0</coordinates></Point></Placemark>
<Placemark><name>W4K/EC-032 Cranks Ridge</name><styleUrl>#p8</styleUrl><description><![CDATA[Cranks Ridge<br>Harlan County • Region EC • 738 m / 2,421 ft • 8 points<br>SOTLAS: <a href="https://sotl.as/summits/W4K/EC-032">https://sotl.as/summits/W4K/EC-032</a><br>POTA / KFF WITHIN 3 MI  KFF-3804 Cranks Creek 1.5 mi  •  US-3804 Cranks Creek Wildlife Management Area 1.5 mi  •  KFF-6871 Martin's Fork 2.9 mi  (to the park’s reference point — check boundaries)]]></description><Point><coordinates>-83.2207,36.7665,0</coordinates></Point></Placemark>
<Placemark><name>W4K/EC-197 Unnamed summit (2950)</name><styleUrl>#p8</styleUrl><description><![CDATA[Unnamed summit (2950)<br>Harlan County • Region EC • 899 m / 2,949 ft • 8 points<br>SOTLAS: <a href="https://sotl.as/summits/W4K/EC-197">https://sotl.as/summits/W4K/EC-197</a><br>POTA / KFF WITHIN 3 MI  US-10164 Shillalah Creek Wildlife Management Area 2.1 mi  (to the park’s reference point — check boundaries)]]></description><Point><coordinates>-83.48,36.7122,0</coordinates></Point></Placemark>
<Placemark><name>W4K/EC-198 Unnamed summit (2500)</name><styleUrl>#p8</styleUrl><description><![CDATA[Unnamed summit (2500)<br>Letcher County • Region EC • 762 m / 2,500 ft • 8 points<br>SOTLAS: <a href="https://sotl.as/summits/W4K/EC-198">https://sotl.as/summits/W4K/EC-198</a>]]></description><Point><coordinates>-83.0478,37.0301,0</coordinates></Point></Placemark>
</Folder>
<Folder><name>6 point summits</name>
<Placemark><name>W4K/EC-033 High Knob</name><styleUrl>#p6</styleUrl><description><![CDATA[High Knob<br>Pike County • Region EC • 725 m / 2,379 ft • 6 points<br>SOTLAS: <a href="https://sotl.as/summits/W4K/EC-033">https://sotl.as/summits/W4K/EC-033</a>]]></description><Point><coordinates>-82.1108,37.4547,0</coordinates></Point></Placemark>
<Placemark><name>W4K/EC-034 Unnamed summit (2380A)</name><styleUrl>#p6</styleUrl><description><![CDATA[Unnamed summit (2380A)<br>Pike County • Region EC • 725 m / 2,379 ft • 6 points<br>SOTLAS: <a href="https://sotl.as/summits/W4K/EC-034">https://sotl.as/summits/W4K/EC-034</a><br>POTA / KFF WITHIN 3 MI  US-10102 Pine Mountain State Trail 2.3 mi  (to the park’s reference point — check boundaries)]]></description><Point><coordinates>-82.4746,37.27,0</coordinates></Point></Placemark>
<Placemark><name>W4K/EC-035 Unnamed summit (2380B)</name><styleUrl>#p6</styleUrl><description><![CDATA[Unnamed summit (2380B)<br>Pike County • Region EC • 725 m / 2,379 ft • 6 points<br>SOTLAS: <a href="https://sotl.as/summits/W4K/EC-035">https://sotl.as/summits/W4K/EC-035</a>]]></description><Point><coordinates>-82.5109,37.3354,0</coordinates></Point></Placemark>
<Placemark><name>W4K/EC-037 Unnamed summit (2340A)</name><styleUrl>#p6</styleUrl><description><![CDATA[Unnamed summit (2340A)<br>Letcher County • Region EC • 713 m / 2,339 ft • 6 points<br>SOTLAS: <a href="https://sotl.as/summits/W4K/EC-037">https://sotl.as/summits/W4K/EC-037</a>]]></description><Point><coordinates>-82.7779,37.2637,0</coordinates></Point></Placemark>
<Placemark><name>W4K/EC-038 Unnamed summit (2340B)</name><styleUrl>#p6</styleUrl><description><![CDATA[Unnamed summit (2340B)<br>Pike County • Region EC • 713 m / 2,339 ft • 6 points<br>SOTLAS: <a href="https://sotl.as/summits/W4K/EC-038">https://sotl.as/summits/W4K/EC-038</a>]]></description><Point><coordinates>-82.4557,37.3013,0</coordinates></Point></Placemark>
<Placemark><name>W4K/EC-039 Unnamed summit (2340C)</name><styleUrl>#p6</styleUrl><description><![CDATA[Unnamed summit (2340C)<br>Pike County • Region EC • 713 m / 2,339 ft • 6 points<br>SOTLAS: <a href="https://sotl.as/summits/W4K/EC-039">https://sotl.as/summits/W4K/EC-039</a>]]></description><Point><coordinates>-82.6354,37.2895,0</coordinates></Point></Placemark>
<Placemark><name>W4K/EC-040 Floyd County HP</name><styleUrl>#p6</styleUrl><description><![CDATA[Floyd County HP<br>Floyd County • Region EC • 713 m / 2,339 ft • 6 points<br>SOTLAS: <a href="https://sotl.as/summits/W4K/EC-040">https://sotl.as/summits/W4K/EC-040</a>]]></description><Point><coordinates>-82.7011,37.2937,0</coordinates></Point></Placemark>
<Placemark><name>W4K/EC-041 Unnamed summit (2325)</name><styleUrl>#p6</styleUrl><description><![CDATA[Unnamed summit (2325)<br>Letcher County • Region EC • 709 m / 2,326 ft • 6 points<br>SOTLAS: <a href="https://sotl.as/summits/W4K/EC-041">https://sotl.as/summits/W4K/EC-041</a><br>POTA / KFF WITHIN 3 MI  KFF-3814 Hensley-Pine Mountain 2.3 mi  •  US-3814 Hensley-Pine Mountain Wildlife Management Area 2.3 mi  (to the park’s reference point — check boundaries)]]></description><Point><coordinates>-82.9533,37.0361,0</coordinates></Point></Placemark>
<Placemark><name>W4K/EC-042 Knox County HP</name><styleUrl>#p6</styleUrl><description><![CDATA[Knox County HP<br>Knox County • Region EC • 708 m / 2,323 ft • 6 points<br>SOTLAS: <a href="https://sotl.as/summits/W4K/EC-042">https://sotl.as/summits/W4K/EC-042</a>]]></description><Point><coordinates>-83.8651,36.7182,0</coordinates></Point></Placemark>
<Placemark><name>W4K/EC-043 Unnamed summit (2300A)</name><styleUrl>#p6</styleUrl><description><![CDATA[Unnamed summit (2300A)<br>Bell County • Region EC • 701 m / 2,300 ft • 6 points<br>SOTLAS: <a href="https://sotl.as/summits/W4K/EC-043">https://sotl.as/summits/W4K/EC-043</a><br>POTA / KFF WITHIN 3 MI  US-1288 Pine Mountain State Park 1.6 mi  •  KFF-1288 Pine Mountain 1.6 mi  •  US-10141 Kentucky Ridge Wildlife Management Area 2.4 mi  •  KFF-7370 Kentucky Ridge 2.8 mi  (to the park’s reference point — check boundaries)]]></description><Point><coordinates>-83.7405,36.7477,0</coordinates></Point></Placemark>
<Placemark><name>W4K/EC-044 Hances Ridge</name><styleUrl>#p6</styleUrl><description><![CDATA[Hances Ridge<br>Bell County • Region EC • 701 m / 2,300 ft • 6 points<br>SOTLAS: <a href="https://sotl.as/summits/W4K/EC-044">https://sotl.as/summits/W4K/EC-044</a>]]></description><Point><coordinates>-83.5728,36.6811,0</coordinates></Point></Placemark>
<Placemark><name>W4K/EC-045 Unnamed summit (2300B)</name><styleUrl>#p6</styleUrl><description><![CDATA[Unnamed summit (2300B)<br>Pike County • Region EC • 701 m / 2,300 ft • 6 points<br>SOTLAS: <a href="https://sotl.as/summits/W4K/EC-045">https://sotl.as/summits/W4K/EC-045</a>]]></description><Point><coordinates>-82.6643,37.325,0</coordinates></Point></Placemark>
<Placemark><name>W4K/EC-046 Unnamed summit (2300C)</name><styleUrl>#p6</styleUrl><description><![CDATA[Unnamed summit (2300C)<br>Perry County • Region EC • 701 m / 2,300 ft • 6 points<br>SOTLAS: <a href="https://sotl.as/summits/W4K/EC-046">https://sotl.as/summits/W4K/EC-046</a>]]></description><Point><coordinates>-83.1858,37.0353,0</coordinates></Point></Placemark>
<Placemark><name>W4K/EC-047 Unnamed summit (2300D)</name><styleUrl>#p6</styleUrl><description><![CDATA[Unnamed summit (2300D)<br>Letcher County • Region EC • 701 m / 2,300 ft • 6 points<br>SOTLAS: <a href="https://sotl.as/summits/W4K/EC-047">https://sotl.as/summits/W4K/EC-047</a>]]></description><Point><coordinates>-82.7357,37.2083,0</coordinates></Point></Placemark>
<Placemark><name>W4K/EC-048 Flag Top</name><styleUrl>#p6</styleUrl><description><![CDATA[Flag Top<br>Bell County • Region EC • 700 m / 2,297 ft • 6 points<br>SOTLAS: <a href="https://sotl.as/summits/W4K/EC-048">https://sotl.as/summits/W4K/EC-048</a><br>POTA / KFF WITHIN 3 MI  US-1288 Pine Mountain State Park 2.8 mi  •  KFF-1288 Pine Mountain 2.8 mi  (to the park’s reference point — check boundaries)]]></description><Point><coordinates>-83.682,36.7155,0</coordinates></Point></Placemark>
<Placemark><name>W4K/EC-049 Unnamed summit (2260A)</name><styleUrl>#p6</styleUrl><description><![CDATA[Unnamed summit (2260A)<br>Letcher County • Region EC • 689 m / 2,260 ft • 6 points<br>SOTLAS: <a href="https://sotl.as/summits/W4K/EC-049">https://sotl.as/summits/W4K/EC-049</a>]]></description><Point><coordinates>-82.816,37.1706,0</coordinates></Point></Placemark>
<Placemark><name>W4K/EC-050 Unnamed summit (2260B)</name><styleUrl>#p6</styleUrl><description><![CDATA[Unnamed summit (2260B)<br>Pike County • Region EC • 689 m / 2,260 ft • 6 points<br>SOTLAS: <a href="https://sotl.as/summits/W4K/EC-050">https://sotl.as/summits/W4K/EC-050</a>]]></description><Point><coordinates>-82.5594,37.2924,0</coordinates></Point></Placemark>
<Placemark><name>W4K/EC-052 Unnamed summit (2260D)</name><styleUrl>#p6</styleUrl><description><![CDATA[Unnamed summit (2260D)<br>Letcher County • Region EC • 689 m / 2,260 ft • 6 points<br>SOTLAS: <a href="https://sotl.as/summits/W4K/EC-052">https://sotl.as/summits/W4K/EC-052</a>]]></description><Point><coordinates>-82.7743,37.2184,0</coordinates></Point></Placemark>
<Placemark><name>W4K/EC-053 Turkey Benchmark</name><styleUrl>#p6</styleUrl><description><![CDATA[Turkey Benchmark<br>Pike County • Region EC • 686 m / 2,251 ft • 6 points<br>SOTLAS: <a href="https://sotl.as/summits/W4K/EC-053">https://sotl.as/summits/W4K/EC-053</a>]]></description><Point><coordinates>-82.2259,37.4189,0</coordinates></Point></Placemark>
<Placemark><name>W4K/EC-054 Clay County HP</name><styleUrl>#p6</styleUrl><description><![CDATA[Clay County HP<br>Clay County • Region EC • 681 m / 2,234 ft • 6 points<br>SOTLAS: <a href="https://sotl.as/summits/W4K/EC-054">https://sotl.as/summits/W4K/EC-054</a>]]></description><Point><coordinates>-83.5849,36.9592,0</coordinates></Point></Placemark>
<Placemark><name>W4K/EC-055 Unnamed summit (2220A)</name><styleUrl>#p6</styleUrl><description><![CDATA[Unnamed summit (2220A)<br>Pike County • Region EC • 677 m / 2,221 ft • 6 points<br>SOTLAS: <a href="https://sotl.as/summits/W4K/EC-055">https://sotl.as/summits/W4K/EC-055</a><br>POTA / KFF WITHIN 3 MI  US-1255 Fishtrap Lake Wildlife Management Area 2.3 mi  (to the park’s reference point — check boundaries)]]></description><Point><coordinates>-82.3654,37.4657,0</coordinates></Point></Placemark>
<Placemark><name>W4K/EC-056 Unnamed summit (2220B)</name><styleUrl>#p6</styleUrl><description><![CDATA[Unnamed summit (2220B)<br>Knox County • Region EC • 677 m / 2,221 ft • 6 points<br>SOTLAS: <a href="https://sotl.as/summits/W4K/EC-056">https://sotl.as/summits/W4K/EC-056</a>]]></description><Point><coordinates>-83.6827,36.8548,0</coordinates></Point></Placemark>
<Placemark><name>W4K/EC-057 Bear Wallow Mountain</name><styleUrl>#p6</styleUrl><description><![CDATA[Bear Wallow Mountain<br>Whitley County • Region EC • 667 m / 2,188 ft • 6 points<br>SOTLAS: <a href="https://sotl.as/summits/W4K/EC-057">https://sotl.as/summits/W4K/EC-057</a>]]></description><Point><coordinates>-83.9907,36.657,0</coordinates></Point></Placemark>
<Placemark><name>W4K/EC-058 Point Gap 2 Benchmark</name><styleUrl>#p6</styleUrl><description><![CDATA[Point Gap 2 Benchmark<br>Clay County • Region EC • 667 m / 2,188 ft • 6 points<br>SOTLAS: <a href="https://sotl.as/summits/W4K/EC-058">https://sotl.as/summits/W4K/EC-058</a>]]></description><Point><coordinates>-83.6091,36.9544,0</coordinates></Point></Placemark>
<Placemark><name>W4K/EC-059 Unnamed summit (2187)</name><styleUrl>#p6</styleUrl><description><![CDATA[Unnamed summit (2187)<br>Bell County • Region EC • 667 m / 2,188 ft • 6 points<br>SOTLAS: <a href="https://sotl.as/summits/W4K/EC-059">https://sotl.as/summits/W4K/EC-059</a><br>POTA / KFF WITHIN 3 MI  KFF-1288 Pine Mountain 2.4 mi  •  US-1288 Pine Mountain State Park 2.4 mi  (to the park’s reference point — check boundaries)]]></description><Point><coordinates>-83.7085,36.7812,0</coordinates></Point></Placemark>
<Placemark><name>W4K/EC-060 Fourmile Benchmark</name><styleUrl>#p6</styleUrl><description><![CDATA[Fourmile Benchmark<br>Knox County • Region EC • 664 m / 2,178 ft • 6 points<br>SOTLAS: <a href="https://sotl.as/summits/W4K/EC-060">https://sotl.as/summits/W4K/EC-060</a>]]></description><Point><coordinates>-83.7335,36.8121,0</coordinates></Point></Placemark>
<Placemark><name>W4K/EC-061 Dixon Knob</name><styleUrl>#p6</styleUrl><description><![CDATA[Dixon Knob<br>Perry County • Region EC • 664 m / 2,178 ft • 6 points<br>SOTLAS: <a href="https://sotl.as/summits/W4K/EC-061">https://sotl.as/summits/W4K/EC-061</a>]]></description><Point><coordinates>-83.0529,37.1584,0</coordinates></Point></Placemark>
<Placemark><name>W4K/EC-062 Brasher Benchmark</name><styleUrl>#p6</styleUrl><description><![CDATA[Brasher Benchmark<br>Perry County • Region EC • 664 m / 2,178 ft • 6 points<br>SOTLAS: <a href="https://sotl.as/summits/W4K/EC-062">https://sotl.as/summits/W4K/EC-062</a>]]></description><Point><coordinates>-83.1445,37.1039,0</coordinates></Point></Placemark>
<Placemark><name>W4K/EC-063 Unnamed summit (2180)</name><styleUrl>#p6</styleUrl><description><![CDATA[Unnamed summit (2180)<br>Pike County • Region EC • 664 m / 2,178 ft • 6 points<br>SOTLAS: <a href="https://sotl.as/summits/W4K/EC-063">https://sotl.as/summits/W4K/EC-063</a>]]></description><Point><coordinates>-82.5342,37.3568,0</coordinates></Point></Placemark>
<Placemark><name>W4K/EC-064 Unnamed summit (2175)</name><styleUrl>#p6</styleUrl><description><![CDATA[Unnamed summit (2175)<br>Letcher County • Region EC • 663 m / 2,175 ft • 6 points<br>SOTLAS: <a href="https://sotl.as/summits/W4K/EC-064">https://sotl.as/summits/W4K/EC-064</a>]]></description><Point><coordinates>-82.8729,37.0922,0</coordinates></Point></Placemark>
<Placemark><name>W4K/EC-065 Unnamed summit (2170)</name><styleUrl>#p6</styleUrl><description><![CDATA[Unnamed summit (2170)<br>Whitley County • Region EC • 661 m / 2,169 ft • 6 points<br>SOTLAS: <a href="https://sotl.as/summits/W4K/EC-065">https://sotl.as/summits/W4K/EC-065</a>]]></description><Point><coordinates>-84.2101,36.6452,0</coordinates></Point></Placemark>
<Placemark><name>W4K/EC-066 Ryans Creek Mountain</name><styleUrl>#p6</styleUrl><description><![CDATA[Ryans Creek Mountain<br>McCreary County • Region EC • 660 m / 2,165 ft • 6 points<br>SOTLAS: <a href="https://sotl.as/summits/W4K/EC-066">https://sotl.as/summits/W4K/EC-066</a>]]></description><Point><coordinates>-84.306,36.6549,0</coordinates></Point></Placemark>
<Placemark><name>W4K/EC-067 Dark Ridge</name><styleUrl>#p6</styleUrl><description><![CDATA[Dark Ridge<br>Bell County • Region EC • 659 m / 2,162 ft • 6 points<br>SOTLAS: <a href="https://sotl.as/summits/W4K/EC-067">https://sotl.as/summits/W4K/EC-067</a>]]></description><Point><coordinates>-83.6905,36.6481,0</coordinates></Point></Placemark>
<Placemark><name>W4K/EC-068 Unnamed summit (2156)</name><styleUrl>#p6</styleUrl><description><![CDATA[Unnamed summit (2156)<br>Bell County • Region EC • 657 m / 2,156 ft • 6 points<br>SOTLAS: <a href="https://sotl.as/summits/W4K/EC-068">https://sotl.as/summits/W4K/EC-068</a>]]></description><Point><coordinates>-83.6637,36.8055,0</coordinates></Point></Placemark>
<Placemark><name>W4K/EC-069 Signal Knob</name><styleUrl>#p6</styleUrl><description><![CDATA[Signal Knob<br>Floyd County • Region EC • 652 m / 2,139 ft • 6 points<br>SOTLAS: <a href="https://sotl.as/summits/W4K/EC-069">https://sotl.as/summits/W4K/EC-069</a>]]></description><Point><coordinates>-82.6728,37.4005,0</coordinates></Point></Placemark>
<Placemark><name>W4K/EC-070 Unnamed summit (2140A)</name><styleUrl>#p6</styleUrl><description><![CDATA[Unnamed summit (2140A)<br>Letcher County • Region EC • 652 m / 2,139 ft • 6 points<br>SOTLAS: <a href="https://sotl.as/summits/W4K/EC-070">https://sotl.as/summits/W4K/EC-070</a>]]></description><Point><coordinates>-82.973,37.0513,0</coordinates></Point></Placemark>
<Placemark><name>W4K/EC-071 Unnamed summit (2140B)</name><styleUrl>#p6</styleUrl><description><![CDATA[Unnamed summit (2140B)<br>Pike County • Region EC • 652 m / 2,139 ft • 6 points<br>SOTLAS: <a href="https://sotl.as/summits/W4K/EC-071">https://sotl.as/summits/W4K/EC-071</a>]]></description><Point><coordinates>-82.2775,37.4499,0</coordinates></Point></Placemark>
<Placemark><name>W4K/EC-072 Unnamed summit (2140C)</name><styleUrl>#p6</styleUrl><description><![CDATA[Unnamed summit (2140C)<br>Pike County • Region EC • 652 m / 2,139 ft • 6 points<br>SOTLAS: <a href="https://sotl.as/summits/W4K/EC-072">https://sotl.as/summits/W4K/EC-072</a>]]></description><Point><coordinates>-82.3776,37.4733,0</coordinates></Point></Placemark>
<Placemark><name>W4K/EC-073 Rocky Face</name><styleUrl>#p6</styleUrl><description><![CDATA[Rocky Face<br>Bell County • Region EC • 649 m / 2,129 ft • 6 points<br>SOTLAS: <a href="https://sotl.as/summits/W4K/EC-073">https://sotl.as/summits/W4K/EC-073</a>]]></description><Point><coordinates>-83.6757,36.6939,0</coordinates></Point></Placemark>
<Placemark><name>W4K/EC-074 Stephens Knob</name><styleUrl>#p6</styleUrl><description><![CDATA[Stephens Knob<br>McCreary County • Region EC • 648 m / 2,126 ft • 6 points<br>SOTLAS: <a href="https://sotl.as/summits/W4K/EC-074">https://sotl.as/summits/W4K/EC-074</a>]]></description><Point><coordinates>-84.3362,36.6166,0</coordinates></Point></Placemark>
<Placemark><name>W4K/EC-075 Unnamed summit (2100A)</name><styleUrl>#p6</styleUrl><description><![CDATA[Unnamed summit (2100A)<br>Letcher County • Region EC • 640 m / 2,100 ft • 6 points<br>SOTLAS: <a href="https://sotl.as/summits/W4K/EC-075">https://sotl.as/summits/W4K/EC-075</a>]]></description><Point><coordinates>-82.8878,37.1685,0</coordinates></Point></Placemark>
<Placemark><name>W4K/EC-077 Unnamed summit (2100C)</name><styleUrl>#p6</styleUrl><description><![CDATA[Unnamed summit (2100C)<br>Letcher County • Region EC • 640 m / 2,100 ft • 6 points<br>SOTLAS: <a href="https://sotl.as/summits/W4K/EC-077">https://sotl.as/summits/W4K/EC-077</a>]]></description><Point><coordinates>-82.9091,37.2059,0</coordinates></Point></Placemark>
<Placemark><name>W4K/EC-078 Unnamed summit (2100D)</name><styleUrl>#p6</styleUrl><description><![CDATA[Unnamed summit (2100D)<br>Pike County • Region EC • 640 m / 2,100 ft • 6 points<br>SOTLAS: <a href="https://sotl.as/summits/W4K/EC-078">https://sotl.as/summits/W4K/EC-078</a>]]></description><Point><coordinates>-82.6117,37.4006,0</coordinates></Point></Placemark>
<Placemark><name>W4K/EC-199 Unnamed summit (2380)</name><styleUrl>#p6</styleUrl><description><![CDATA[Unnamed summit (2380)<br>Pike County • Region EC • 725 m / 2,379 ft • 6 points<br>SOTLAS: <a href="https://sotl.as/summits/W4K/EC-199">https://sotl.as/summits/W4K/EC-199</a>]]></description><Point><coordinates>-82.2405,37.4821,0</coordinates></Point></Placemark>
</Folder>
<Folder><name>4 point summits</name>
<Placemark><name>W4K/EC-079 Unnamed summit (2090)</name><styleUrl>#p4</styleUrl><description><![CDATA[Unnamed summit (2090)<br>Knox County • Region EC • 637 m / 2,090 ft • 4 points<br>SOTLAS: <a href="https://sotl.as/summits/W4K/EC-079">https://sotl.as/summits/W4K/EC-079</a>]]></description><Point><coordinates>-83.8292,36.7433,0</coordinates></Point></Placemark>
<Placemark><name>W4K/EC-080 Unnamed summit (2082)</name><styleUrl>#p4</styleUrl><description><![CDATA[Unnamed summit (2082)<br>Pike County • Region EC • 635 m / 2,083 ft • 4 points<br>SOTLAS: <a href="https://sotl.as/summits/W4K/EC-080">https://sotl.as/summits/W4K/EC-080</a>]]></description><Point><coordinates>-82.113,37.4988,0</coordinates></Point></Placemark>
<Placemark><name>W4K/EC-081 Unnamed summit (2068)</name><styleUrl>#p4</styleUrl><description><![CDATA[Unnamed summit (2068)<br>Pike County • Region EC • 630 m / 2,067 ft • 4 points<br>SOTLAS: <a href="https://sotl.as/summits/W4K/EC-081">https://sotl.as/summits/W4K/EC-081</a>]]></description><Point><coordinates>-82.3194,37.3715,0</coordinates></Point></Placemark>
<Placemark><name>W4K/EC-082 Unnamed summit (2065)</name><styleUrl>#p4</styleUrl><description><![CDATA[Unnamed summit (2065)<br>Pike County • Region EC • 629 m / 2,064 ft • 4 points<br>SOTLAS: <a href="https://sotl.as/summits/W4K/EC-082">https://sotl.as/summits/W4K/EC-082</a><br>POTA / KFF WITHIN 3 MI  KFF-1255 Fishtrap Lake 1.6 mi  (to the park’s reference point — check boundaries)]]></description><Point><coordinates>-82.4322,37.4611,0</coordinates></Point></Placemark>
<Placemark><name>W4K/EC-084 Unnamed summit (2060B)</name><styleUrl>#p4</styleUrl><description><![CDATA[Unnamed summit (2060B)<br>Knott County • Region EC • 628 m / 2,060 ft • 4 points<br>SOTLAS: <a href="https://sotl.as/summits/W4K/EC-084">https://sotl.as/summits/W4K/EC-084</a>]]></description><Point><coordinates>-83.016,37.2768,0</coordinates></Point></Placemark>
<Placemark><name>W4K/EC-085 Unnamed summit (2060C)</name><styleUrl>#p4</styleUrl><description><![CDATA[Unnamed summit (2060C)<br>Letcher County • Region EC • 628 m / 2,060 ft • 4 points<br>SOTLAS: <a href="https://sotl.as/summits/W4K/EC-085">https://sotl.as/summits/W4K/EC-085</a>]]></description><Point><coordinates>-82.8793,37.1342,0</coordinates></Point></Placemark>
<Placemark><name>W4K/EC-086 Unnamed summit (2060D)</name><styleUrl>#p4</styleUrl><description><![CDATA[Unnamed summit (2060D)<br>Pike County • Region EC • 628 m / 2,060 ft • 4 points<br>SOTLAS: <a href="https://sotl.as/summits/W4K/EC-086">https://sotl.as/summits/W4K/EC-086</a>]]></description><Point><coordinates>-82.5726,37.3417,0</coordinates></Point></Placemark>
<Placemark><name>W4K/EC-087 Unnamed summit (2060E)</name><styleUrl>#p4</styleUrl><description><![CDATA[Unnamed summit (2060E)<br>Pike County • Region EC • 628 m / 2,060 ft • 4 points<br>SOTLAS: <a href="https://sotl.as/summits/W4K/EC-087">https://sotl.as/summits/W4K/EC-087</a>]]></description><Point><coordinates>-82.2102,37.5373,0</coordinates></Point></Placemark>
<Placemark><name>W4K/EC-088 Unnamed summit (2060F)</name><styleUrl>#p4</styleUrl><description><![CDATA[Unnamed summit (2060F)<br>Perry County • Region EC • 628 m / 2,060 ft • 4 points<br>SOTLAS: <a href="https://sotl.as/summits/W4K/EC-088">https://sotl.as/summits/W4K/EC-088</a>]]></description><Point><coordinates>-83.0915,37.0837,0</coordinates></Point></Placemark>
<Placemark><name>W4K/EC-089 Unnamed summit (2060G)</name><styleUrl>#p4</styleUrl><description><![CDATA[Unnamed summit (2060G)<br>Pike County • Region EC • 628 m / 2,060 ft • 4 points<br>SOTLAS: <a href="https://sotl.as/summits/W4K/EC-089">https://sotl.as/summits/W4K/EC-089</a>]]></description><Point><coordinates>-82.1164,37.5179,0</coordinates></Point></Placemark>
<Placemark><name>W4K/EC-090 Unnamed summit (2041)</name><styleUrl>#p4</styleUrl><description><![CDATA[Unnamed summit (2041)<br>Letcher County • Region EC • 622 m / 2,041 ft • 4 points<br>SOTLAS: <a href="https://sotl.as/summits/W4K/EC-090">https://sotl.as/summits/W4K/EC-090</a>]]></description><Point><coordinates>-82.9019,37.1271,0</coordinates></Point></Placemark>
<Placemark><name>W4K/EC-091 Unnamed summit (2030)</name><styleUrl>#p4</styleUrl><description><![CDATA[Unnamed summit (2030)<br>Bell County • Region EC • 619 m / 2,031 ft • 4 points<br>SOTLAS: <a href="https://sotl.as/summits/W4K/EC-091">https://sotl.as/summits/W4K/EC-091</a><br>POTA / KFF WITHIN 3 MI  US-10141 Kentucky Ridge Wildlife Management Area 1.1 mi  •  KFF-7370 Kentucky Ridge 1.6 mi  •  US-1288 Pine Mountain State Park 2.5 mi  •  KFF-1288 Pine Mountain 2.5 mi  (to the park’s reference point — check boundaries)]]></description><Point><coordinates>-83.7524,36.7653,0</coordinates></Point></Placemark>
<Placemark><name>W4K/EC-092 Unnamed summit (2020A)</name><styleUrl>#p4</styleUrl><description><![CDATA[Unnamed summit (2020A)<br>Pike County • Region EC • 616 m / 2,021 ft • 4 points<br>SOTLAS: <a href="https://sotl.as/summits/W4K/EC-092">https://sotl.as/summits/W4K/EC-092</a>]]></description><Point><coordinates>-82.1907,37.5995,0</coordinates></Point></Placemark>
<Placemark><name>W4K/EC-093 Unnamed summit (2020B)</name><styleUrl>#p4</styleUrl><description><![CDATA[Unnamed summit (2020B)<br>Letcher County • Region EC • 616 m / 2,021 ft • 4 points<br>SOTLAS: <a href="https://sotl.as/summits/W4K/EC-093">https://sotl.as/summits/W4K/EC-093</a>]]></description><Point><coordinates>-82.8601,37.1913,0</coordinates></Point></Placemark>
<Placemark><name>W4K/EC-094 Unnamed summit (2020C)</name><styleUrl>#p4</styleUrl><description><![CDATA[Unnamed summit (2020C)<br>Pike County • Region EC • 616 m / 2,021 ft • 4 points<br>SOTLAS: <a href="https://sotl.as/summits/W4K/EC-094">https://sotl.as/summits/W4K/EC-094</a>]]></description><Point><coordinates>-82.1703,37.5575,0</coordinates></Point></Placemark>
<Placemark><name>W4K/EC-095 Blackberry Mountain</name><styleUrl>#p4</styleUrl><description><![CDATA[Blackberry Mountain<br>Pike County • Region EC • 616 m / 2,021 ft • 4 points<br>SOTLAS: <a href="https://sotl.as/summits/W4K/EC-095">https://sotl.as/summits/W4K/EC-095</a>]]></description><Point><coordinates>-82.2057,37.583,0</coordinates></Point></Placemark>
<Placemark><name>W4K/EC-096 Unnamed summit (2020D)</name><styleUrl>#p4</styleUrl><description><![CDATA[Unnamed summit (2020D)<br>Knott County • Region EC • 616 m / 2,021 ft • 4 points<br>SOTLAS: <a href="https://sotl.as/summits/W4K/EC-096">https://sotl.as/summits/W4K/EC-096</a>]]></description><Point><coordinates>-82.7519,37.3136,0</coordinates></Point></Placemark>
<Placemark><name>W4K/EC-097 Unnamed summit (2020E)</name><styleUrl>#p4</styleUrl><description><![CDATA[Unnamed summit (2020E)<br>Letcher County • Region EC • 616 m / 2,021 ft • 4 points<br>SOTLAS: <a href="https://sotl.as/summits/W4K/EC-097">https://sotl.as/summits/W4K/EC-097</a>]]></description><Point><coordinates>-82.8716,37.1683,0</coordinates></Point></Placemark>
<Placemark><name>W4K/EC-098 Patterson Mountain</name><styleUrl>#p4</styleUrl><description><![CDATA[Patterson Mountain<br>Whitley County • Region EC • 613 m / 2,011 ft • 4 points<br>SOTLAS: <a href="https://sotl.as/summits/W4K/EC-098">https://sotl.as/summits/W4K/EC-098</a>]]></description><Point><coordinates>-84.088,36.6607,0</coordinates></Point></Placemark>
<Placemark><name>W4K/EC-099 Unnamed summit (2008)</name><styleUrl>#p4</styleUrl><description><![CDATA[Unnamed summit (2008)<br>Harlan County • Region EC • 612 m / 2,008 ft • 4 points<br>SOTLAS: <a href="https://sotl.as/summits/W4K/EC-099">https://sotl.as/summits/W4K/EC-099</a><br>POTA / KFF WITHIN 3 MI  KFF-6871 Martin's Fork 1.7 mi  •  KFF-3804 Cranks Creek 2.2 mi  •  US-3804 Cranks Creek Wildlife Management Area 2.2 mi  (to the park’s reference point — check boundaries)]]></description><Point><coordinates>-83.2355,36.7528,0</coordinates></Point></Placemark>
<Placemark><name>W4K/EC-100 Unnamed summit (1980A)</name><styleUrl>#p4</styleUrl><description><![CDATA[Unnamed summit (1980A)<br>Knott County • Region EC • 604 m / 1,982 ft • 4 points<br>SOTLAS: <a href="https://sotl.as/summits/W4K/EC-100">https://sotl.as/summits/W4K/EC-100</a>]]></description><Point><coordinates>-82.9094,37.3184,0</coordinates></Point></Placemark>
<Placemark><name>W4K/EC-101 Canada Knob</name><styleUrl>#p4</styleUrl><description><![CDATA[Canada Knob<br>Pike County • Region EC • 604 m / 1,982 ft • 4 points<br>SOTLAS: <a href="https://sotl.as/summits/W4K/EC-101">https://sotl.as/summits/W4K/EC-101</a>]]></description><Point><coordinates>-82.3607,37.5961,0</coordinates></Point></Placemark>
<Placemark><name>W4K/EC-102 Unnamed summit (1980B)</name><styleUrl>#p4</styleUrl><description><![CDATA[Unnamed summit (1980B)<br>Leslie County • Region EC • 604 m / 1,982 ft • 4 points<br>SOTLAS: <a href="https://sotl.as/summits/W4K/EC-102">https://sotl.as/summits/W4K/EC-102</a>]]></description><Point><coordinates>-83.2374,37.1123,0</coordinates></Point></Placemark>
<Placemark><name>W4K/EC-103 Unnamed summit (1980C)</name><styleUrl>#p4</styleUrl><description><![CDATA[Unnamed summit (1980C)<br>Knott County • Region EC • 604 m / 1,982 ft • 4 points<br>SOTLAS: <a href="https://sotl.as/summits/W4K/EC-103">https://sotl.as/summits/W4K/EC-103</a>]]></description><Point><coordinates>-82.8973,37.312,0</coordinates></Point></Placemark>
<Placemark><name>W4K/EC-104 Lawson Mountain</name><styleUrl>#p4</styleUrl><description><![CDATA[Lawson Mountain<br>Whitley County • Region EC • 594 m / 1,949 ft • 4 points<br>SOTLAS: <a href="https://sotl.as/summits/W4K/EC-104">https://sotl.as/summits/W4K/EC-104</a>]]></description><Point><coordinates>-83.9432,36.688,0</coordinates></Point></Placemark>
<Placemark><name>W4K/EC-105 Unnamed summit (1940A)</name><styleUrl>#p4</styleUrl><description><![CDATA[Unnamed summit (1940A)<br>Pike County • Region EC • 591 m / 1,939 ft • 4 points<br>SOTLAS: <a href="https://sotl.as/summits/W4K/EC-105">https://sotl.as/summits/W4K/EC-105</a>]]></description><Point><coordinates>-82.3194,37.6271,0</coordinates></Point></Placemark>
<Placemark><name>W4K/EC-106 Unnamed summit (1940B)</name><styleUrl>#p4</styleUrl><description><![CDATA[Unnamed summit (1940B)<br>Pike County • Region EC • 591 m / 1,939 ft • 4 points<br>SOTLAS: <a href="https://sotl.as/summits/W4K/EC-106">https://sotl.as/summits/W4K/EC-106</a>]]></description><Point><coordinates>-82.3899,37.5692,0</coordinates></Point></Placemark>
<Placemark><name>W4K/EC-107 Unnamed summit (1940C)</name><styleUrl>#p4</styleUrl><description><![CDATA[Unnamed summit (1940C)<br>Knott County • Region EC • 591 m / 1,939 ft • 4 points<br>SOTLAS: <a href="https://sotl.as/summits/W4K/EC-107">https://sotl.as/summits/W4K/EC-107</a>]]></description><Point><coordinates>-82.933,37.2685,0</coordinates></Point></Placemark>
<Placemark><name>W4K/EC-108 Unnamed summit (1940D)</name><styleUrl>#p4</styleUrl><description><![CDATA[Unnamed summit (1940D)<br>Pike County • Region EC • 591 m / 1,939 ft • 4 points<br>SOTLAS: <a href="https://sotl.as/summits/W4K/EC-108">https://sotl.as/summits/W4K/EC-108</a>]]></description><Point><coordinates>-82.2359,37.6437,0</coordinates></Point></Placemark>
<Placemark><name>W4K/EC-109 Unnamed summit (1930)</name><styleUrl>#p4</styleUrl><description><![CDATA[Unnamed summit (1930)<br>Knox County • Region EC • 588 m / 1,929 ft • 4 points<br>SOTLAS: <a href="https://sotl.as/summits/W4K/EC-109">https://sotl.as/summits/W4K/EC-109</a><br>POTA / KFF WITHIN 3 MI  KFF-7370 Kentucky Ridge 2.4 mi  •  US-10141 Kentucky Ridge Wildlife Management Area 2.8 mi  (to the park’s reference point — check boundaries)]]></description><Point><coordinates>-83.814,36.7941,0</coordinates></Point></Placemark>
<Placemark><name>W4K/EC-110 Unnamed summit (1903)</name><styleUrl>#p4</styleUrl><description><![CDATA[Unnamed summit (1903)<br>Knott County • Region EC • 580 m / 1,903 ft • 4 points<br>SOTLAS: <a href="https://sotl.as/summits/W4K/EC-110">https://sotl.as/summits/W4K/EC-110</a>]]></description><Point><coordinates>-82.8976,37.2518,0</coordinates></Point></Placemark>
<Placemark><name>W4K/EC-111 Unnamed summit (1900A)</name><styleUrl>#p4</styleUrl><description><![CDATA[Unnamed summit (1900A)<br>Floyd County • Region EC • 579 m / 1,900 ft • 4 points<br>SOTLAS: <a href="https://sotl.as/summits/W4K/EC-111">https://sotl.as/summits/W4K/EC-111</a>]]></description><Point><coordinates>-82.7271,37.3718,0</coordinates></Point></Placemark>
<Placemark><name>W4K/EC-112 Unnamed summit (1900B)</name><styleUrl>#p4</styleUrl><description><![CDATA[Unnamed summit (1900B)<br>Leslie County • Region EC • 579 m / 1,900 ft • 4 points<br>SOTLAS: <a href="https://sotl.as/summits/W4K/EC-112">https://sotl.as/summits/W4K/EC-112</a>]]></description><Point><coordinates>-83.4201,37.0813,0</coordinates></Point></Placemark>
<Placemark><name>W4K/EC-113 Stratton Knob</name><styleUrl>#p4</styleUrl><description><![CDATA[Stratton Knob<br>Pike County • Region EC • 579 m / 1,900 ft • 4 points<br>SOTLAS: <a href="https://sotl.as/summits/W4K/EC-113">https://sotl.as/summits/W4K/EC-113</a>]]></description><Point><coordinates>-82.457,37.4844,0</coordinates></Point></Placemark>
<Placemark><name>W4K/EC-114 Unnamed summit (1890)</name><styleUrl>#p4</styleUrl><description><![CDATA[Unnamed summit (1890)<br>Knox County • Region EC • 576 m / 1,890 ft • 4 points<br>SOTLAS: <a href="https://sotl.as/summits/W4K/EC-114">https://sotl.as/summits/W4K/EC-114</a>]]></description><Point><coordinates>-83.7657,36.8643,0</coordinates></Point></Placemark>
<Placemark><name>W4K/EC-115 Unnamed summit (1878)</name><styleUrl>#p4</styleUrl><description><![CDATA[Unnamed summit (1878)<br>Pike County • Region EC • 572 m / 1,877 ft • 4 points<br>SOTLAS: <a href="https://sotl.as/summits/W4K/EC-115">https://sotl.as/summits/W4K/EC-115</a>]]></description><Point><coordinates>-82.4724,37.4673,0</coordinates></Point></Placemark>
<Placemark><name>W4K/EC-116 Bald Knob</name><styleUrl>#p4</styleUrl><description><![CDATA[Bald Knob<br>Whitley County • Region EC • 570 m / 1,870 ft • 4 points<br>SOTLAS: <a href="https://sotl.as/summits/W4K/EC-116">https://sotl.as/summits/W4K/EC-116</a>]]></description><Point><coordinates>-84.0931,36.8497,0</coordinates></Point></Placemark>
<Placemark><name>W4K/EC-117 Unnamed summit (1860A)</name><styleUrl>#p4</styleUrl><description><![CDATA[Unnamed summit (1860A)<br>Floyd County • Region EC • 567 m / 1,860 ft • 4 points<br>SOTLAS: <a href="https://sotl.as/summits/W4K/EC-117">https://sotl.as/summits/W4K/EC-117</a>]]></description><Point><coordinates>-82.7475,37.4357,0</coordinates></Point></Placemark>
<Placemark><name>W4K/EC-118 McDowell Benchmark</name><styleUrl>#p4</styleUrl><description><![CDATA[McDowell Benchmark<br>Floyd County • Region EC • 567 m / 1,860 ft • 4 points<br>SOTLAS: <a href="https://sotl.as/summits/W4K/EC-118">https://sotl.as/summits/W4K/EC-118</a>]]></description><Point><coordinates>-82.7097,37.4595,0</coordinates></Point></Placemark>
<Placemark><name>W4K/EC-119 Unnamed summit (1860B)</name><styleUrl>#p4</styleUrl><description><![CDATA[Unnamed summit (1860B)<br>Knott County • Region EC • 567 m / 1,860 ft • 4 points<br>SOTLAS: <a href="https://sotl.as/summits/W4K/EC-119">https://sotl.as/summits/W4K/EC-119</a>]]></description><Point><coordinates>-82.9095,37.2795,0</coordinates></Point></Placemark>
<Placemark><name>W4K/EC-120 Unnamed summit (1860C)</name><styleUrl>#p4</styleUrl><description><![CDATA[Unnamed summit (1860C)<br>Knott County • Region EC • 567 m / 1,860 ft • 4 points<br>SOTLAS: <a href="https://sotl.as/summits/W4K/EC-120">https://sotl.as/summits/W4K/EC-120</a>]]></description><Point><coordinates>-82.9008,37.3935,0</coordinates></Point></Placemark>
<Placemark><name>W4K/EC-121 Unnamed summit (1860D)</name><styleUrl>#p4</styleUrl><description><![CDATA[Unnamed summit (1860D)<br>Pike County • Region EC • 567 m / 1,860 ft • 4 points<br>SOTLAS: <a href="https://sotl.as/summits/W4K/EC-121">https://sotl.as/summits/W4K/EC-121</a>]]></description><Point><coordinates>-82.2966,37.609,0</coordinates></Point></Placemark>
<Placemark><name>W4K/EC-122 Unnamed summit (1850A)</name><styleUrl>#p4</styleUrl><description><![CDATA[Unnamed summit (1850A)<br>Knox County • Region EC • 564 m / 1,850 ft • 4 points<br>SOTLAS: <a href="https://sotl.as/summits/W4K/EC-122">https://sotl.as/summits/W4K/EC-122</a>]]></description><Point><coordinates>-83.8856,36.7893,0</coordinates></Point></Placemark>
<Placemark><name>W4K/EC-123 Unnamed summit (1850B)</name><styleUrl>#p4</styleUrl><description><![CDATA[Unnamed summit (1850B)<br>Perry County • Region EC • 564 m / 1,850 ft • 4 points<br>SOTLAS: <a href="https://sotl.as/summits/W4K/EC-123">https://sotl.as/summits/W4K/EC-123</a>]]></description><Point><coordinates>-83.1169,37.2016,0</coordinates></Point></Placemark>
<Placemark><name>W4K/EC-124 Lost Mountain</name><styleUrl>#p4</styleUrl><description><![CDATA[Lost Mountain<br>Perry County • Region EC • 563 m / 1,847 ft • 4 points<br>SOTLAS: <a href="https://sotl.as/summits/W4K/EC-124">https://sotl.as/summits/W4K/EC-124</a>]]></description><Point><coordinates>-83.1843,37.3177,0</coordinates></Point></Placemark>
<Placemark><name>W4K/EC-125 Unnamed summit (1843)</name><styleUrl>#p4</styleUrl><description><![CDATA[Unnamed summit (1843)<br>Knox County • Region EC • 562 m / 1,844 ft • 4 points<br>SOTLAS: <a href="https://sotl.as/summits/W4K/EC-125">https://sotl.as/summits/W4K/EC-125</a>]]></description><Point><coordinates>-83.714,36.902,0</coordinates></Point></Placemark>
<Placemark><name>W4K/EC-126 Joes Knob Benchmark</name><styleUrl>#p4</styleUrl><description><![CDATA[Joes Knob Benchmark<br>Pike County • Region EC • 558 m / 1,831 ft • 4 points<br>SOTLAS: <a href="https://sotl.as/summits/W4K/EC-126">https://sotl.as/summits/W4K/EC-126</a>]]></description><Point><coordinates>-82.4948,37.533,0</coordinates></Point></Placemark>
<Placemark><name>W4K/EC-127 Peak Mountain</name><styleUrl>#p4</styleUrl><description><![CDATA[Peak Mountain<br>Whitley County • Region EC • 558 m / 1,831 ft • 4 points<br>SOTLAS: <a href="https://sotl.as/summits/W4K/EC-127">https://sotl.as/summits/W4K/EC-127</a>]]></description><Point><coordinates>-84.2958,36.6817,0</coordinates></Point></Placemark>
<Placemark><name>W4K/EC-128 Little Round Mountain</name><styleUrl>#p4</styleUrl><description><![CDATA[Little Round Mountain<br>Whitley County • Region EC • 557 m / 1,827 ft • 4 points<br>SOTLAS: <a href="https://sotl.as/summits/W4K/EC-128">https://sotl.as/summits/W4K/EC-128</a>]]></description><Point><coordinates>-83.918,36.6754,0</coordinates></Point></Placemark>
<Placemark><name>W4K/EC-129 Unnamed summit (1820A)</name><styleUrl>#p4</styleUrl><description><![CDATA[Unnamed summit (1820A)<br>Pike County • Region EC • 555 m / 1,821 ft • 4 points<br>SOTLAS: <a href="https://sotl.as/summits/W4K/EC-129">https://sotl.as/summits/W4K/EC-129</a>]]></description><Point><coordinates>-82.324,37.6536,0</coordinates></Point></Placemark>
<Placemark><name>W4K/EC-130 Unnamed summit (1820B)</name><styleUrl>#p4</styleUrl><description><![CDATA[Unnamed summit (1820B)<br>Pike County • Region EC • 555 m / 1,821 ft • 4 points<br>SOTLAS: <a href="https://sotl.as/summits/W4K/EC-130">https://sotl.as/summits/W4K/EC-130</a>]]></description><Point><coordinates>-82.5336,37.4192,0</coordinates></Point></Placemark>
<Placemark><name>W4K/EC-131 Unnamed summit (1820C)</name><styleUrl>#p4</styleUrl><description><![CDATA[Unnamed summit (1820C)<br>Pike County • Region EC • 555 m / 1,821 ft • 4 points<br>SOTLAS: <a href="https://sotl.as/summits/W4K/EC-131">https://sotl.as/summits/W4K/EC-131</a>]]></description><Point><coordinates>-82.2725,37.4136,0</coordinates></Point></Placemark>
<Placemark><name>W4K/EC-132 Unnamed summit (1820D)</name><styleUrl>#p4</styleUrl><description><![CDATA[Unnamed summit (1820D)<br>Pike County • Region EC • 555 m / 1,821 ft • 4 points<br>SOTLAS: <a href="https://sotl.as/summits/W4K/EC-132">https://sotl.as/summits/W4K/EC-132</a>]]></description><Point><coordinates>-82.5086,37.3989,0</coordinates></Point></Placemark>
<Placemark><name>W4K/EC-133 Wood Mountain</name><styleUrl>#p4</styleUrl><description><![CDATA[Wood Mountain<br>Whitley County • Region EC • 552 m / 1,811 ft • 4 points<br>SOTLAS: <a href="https://sotl.as/summits/W4K/EC-133">https://sotl.as/summits/W4K/EC-133</a>]]></description><Point><coordinates>-84.1074,36.7712,0</coordinates></Point></Placemark>
<Placemark><name>W4K/EC-201 Unnamed summit (1980)</name><styleUrl>#p4</styleUrl><description><![CDATA[Unnamed summit (1980)<br>Perry County • Region EC • 603 m / 1,978 ft • 4 points<br>SOTLAS: <a href="https://sotl.as/summits/W4K/EC-201">https://sotl.as/summits/W4K/EC-201</a>]]></description><Point><coordinates>-83.1284,37.1717,0</coordinates></Point></Placemark>
</Folder>
<Folder><name>2 point summits</name>
<Placemark><name>W4K/EC-134 Chestnut Oak Mountain</name><styleUrl>#p2</styleUrl><description><![CDATA[Chestnut Oak Mountain<br>Whitley County • Region EC • 546 m / 1,791 ft • 2 points<br>SOTLAS: <a href="https://sotl.as/summits/W4K/EC-134">https://sotl.as/summits/W4K/EC-134</a>]]></description><Point><coordinates>-84.096,36.8004,0</coordinates></Point></Placemark>
<Placemark><name>W4K/EC-135 Unnamed summit (1780A)</name><styleUrl>#p2</styleUrl><description><![CDATA[Unnamed summit (1780A)<br>Floyd County • Region EC • 543 m / 1,781 ft • 2 points<br>SOTLAS: <a href="https://sotl.as/summits/W4K/EC-135">https://sotl.as/summits/W4K/EC-135</a>]]></description><Point><coordinates>-82.7013,37.5125,0</coordinates></Point></Placemark>
<Placemark><name>W4K/EC-136 Unnamed summit (1780B)</name><styleUrl>#p2</styleUrl><description><![CDATA[Unnamed summit (1780B)<br>Floyd County • Region EC • 543 m / 1,781 ft • 2 points<br>SOTLAS: <a href="https://sotl.as/summits/W4K/EC-136">https://sotl.as/summits/W4K/EC-136</a>]]></description><Point><coordinates>-82.5905,37.4572,0</coordinates></Point></Placemark>
<Placemark><name>W4K/EC-137 Unnamed summit (1780C)</name><styleUrl>#p2</styleUrl><description><![CDATA[Unnamed summit (1780C)<br>Pike County • Region EC • 543 m / 1,781 ft • 2 points<br>SOTLAS: <a href="https://sotl.as/summits/W4K/EC-137">https://sotl.as/summits/W4K/EC-137</a>]]></description><Point><coordinates>-82.2575,37.6125,0</coordinates></Point></Placemark>
<Placemark><name>W4K/EC-138 Unnamed summit (1780D)</name><styleUrl>#p2</styleUrl><description><![CDATA[Unnamed summit (1780D)<br>Pike County • Region EC • 543 m / 1,781 ft • 2 points<br>SOTLAS: <a href="https://sotl.as/summits/W4K/EC-138">https://sotl.as/summits/W4K/EC-138</a>]]></description><Point><coordinates>-82.2951,37.4235,0</coordinates></Point></Placemark>
<Placemark><name>W4K/EC-139 Unnamed summit (1775)</name><styleUrl>#p2</styleUrl><description><![CDATA[Unnamed summit (1775)<br>Pike County • Region EC • 541 m / 1,775 ft • 2 points<br>SOTLAS: <a href="https://sotl.as/summits/W4K/EC-139">https://sotl.as/summits/W4K/EC-139</a>]]></description><Point><coordinates>-82.4854,37.4606,0</coordinates></Point></Placemark>
<Placemark><name>W4K/EC-140 Laurel County HP</name><styleUrl>#p2</styleUrl><description><![CDATA[Laurel County HP<br>Knox County • Region EC • 539 m / 1,768 ft • 2 points<br>SOTLAS: <a href="https://sotl.as/summits/W4K/EC-140">https://sotl.as/summits/W4K/EC-140</a>]]></description><Point><coordinates>-83.8774,37.0467,0</coordinates></Point></Placemark>
<Placemark><name>W4K/EC-141 Unnamed summit (1770)</name><styleUrl>#p2</styleUrl><description><![CDATA[Unnamed summit (1770)<br>Knox County • Region EC • 539 m / 1,768 ft • 2 points<br>SOTLAS: <a href="https://sotl.as/summits/W4K/EC-141">https://sotl.as/summits/W4K/EC-141</a>]]></description><Point><coordinates>-83.9427,36.7513,0</coordinates></Point></Placemark>
<Placemark><name>W4K/EC-142 Unnamed summit (1750A)</name><styleUrl>#p2</styleUrl><description><![CDATA[Unnamed summit (1750A)<br>Pike County • Region EC • 533 m / 1,749 ft • 2 points<br>SOTLAS: <a href="https://sotl.as/summits/W4K/EC-142">https://sotl.as/summits/W4K/EC-142</a>]]></description><Point><coordinates>-82.5395,37.5583,0</coordinates></Point></Placemark>
<Placemark><name>W4K/EC-143 Unnamed summit (1750B)</name><styleUrl>#p2</styleUrl><description><![CDATA[Unnamed summit (1750B)<br>Whitley County • Region EC • 533 m / 1,749 ft • 2 points<br>SOTLAS: <a href="https://sotl.as/summits/W4K/EC-143">https://sotl.as/summits/W4K/EC-143</a>]]></description><Point><coordinates>-84.0566,36.8262,0</coordinates></Point></Placemark>
<Placemark><name>W4K/EC-144 Unnamed summit (1749)</name><styleUrl>#p2</styleUrl><description><![CDATA[Unnamed summit (1749)<br>Pike County • Region EC • 533 m / 1,749 ft • 2 points<br>SOTLAS: <a href="https://sotl.as/summits/W4K/EC-144">https://sotl.as/summits/W4K/EC-144</a>]]></description><Point><coordinates>-82.5469,37.5352,0</coordinates></Point></Placemark>
<Placemark><name>W4K/EC-145 Unnamed summit (1740A)</name><styleUrl>#p2</styleUrl><description><![CDATA[Unnamed summit (1740A)<br>Floyd County • Region EC • 530 m / 1,739 ft • 2 points<br>SOTLAS: <a href="https://sotl.as/summits/W4K/EC-145">https://sotl.as/summits/W4K/EC-145</a>]]></description><Point><coordinates>-82.7234,37.4658,0</coordinates></Point></Placemark>
<Placemark><name>W4K/EC-146 Unnamed summit (1740B)</name><styleUrl>#p2</styleUrl><description><![CDATA[Unnamed summit (1740B)<br>Pike County • Region EC • 530 m / 1,739 ft • 2 points<br>SOTLAS: <a href="https://sotl.as/summits/W4K/EC-146">https://sotl.as/summits/W4K/EC-146</a>]]></description><Point><coordinates>-82.5862,37.5725,0</coordinates></Point></Placemark>
<Placemark><name>W4K/EC-147 Unnamed summit (1740C)</name><styleUrl>#p2</styleUrl><description><![CDATA[Unnamed summit (1740C)<br>Pike County • Region EC • 530 m / 1,739 ft • 2 points<br>SOTLAS: <a href="https://sotl.as/summits/W4K/EC-147">https://sotl.as/summits/W4K/EC-147</a>]]></description><Point><coordinates>-82.0675,37.5168,0</coordinates></Point></Placemark>
<Placemark><name>W4K/EC-148 Unnamed summit (1710A)</name><styleUrl>#p2</styleUrl><description><![CDATA[Unnamed summit (1710A)<br>Knox County • Region EC • 521 m / 1,709 ft • 2 points<br>SOTLAS: <a href="https://sotl.as/summits/W4K/EC-148">https://sotl.as/summits/W4K/EC-148</a>]]></description><Point><coordinates>-84.0064,36.9149,0</coordinates></Point></Placemark>
<Placemark><name>W4K/EC-149 Unnamed summit (1710B)</name><styleUrl>#p2</styleUrl><description><![CDATA[Unnamed summit (1710B)<br>Whitley County • Region EC • 521 m / 1,709 ft • 2 points<br>SOTLAS: <a href="https://sotl.as/summits/W4K/EC-149">https://sotl.as/summits/W4K/EC-149</a>]]></description><Point><coordinates>-84.1042,36.9099,0</coordinates></Point></Placemark>
<Placemark><name>W4K/EC-150 Unnamed summit (1710C)</name><styleUrl>#p2</styleUrl><description><![CDATA[Unnamed summit (1710C)<br>Knox County • Region EC • 521 m / 1,709 ft • 2 points<br>SOTLAS: <a href="https://sotl.as/summits/W4K/EC-150">https://sotl.as/summits/W4K/EC-150</a>]]></description><Point><coordinates>-84.0157,36.8812,0</coordinates></Point></Placemark>
<Placemark><name>W4K/EC-151 Unnamed summit (1700A)</name><styleUrl>#p2</styleUrl><description><![CDATA[Unnamed summit (1700A)<br>Pike County • Region EC • 518 m / 1,699 ft • 2 points<br>SOTLAS: <a href="https://sotl.as/summits/W4K/EC-151">https://sotl.as/summits/W4K/EC-151</a>]]></description><Point><coordinates>-82.5151,37.5671,0</coordinates></Point></Placemark>
<Placemark><name>W4K/EC-152 Border Benchmark</name><styleUrl>#p2</styleUrl><description><![CDATA[Border Benchmark<br>Pike County • Region EC • 518 m / 1,699 ft • 2 points<br>SOTLAS: <a href="https://sotl.as/summits/W4K/EC-152">https://sotl.as/summits/W4K/EC-152</a>]]></description><Point><coordinates>-82.3278,37.7096,0</coordinates></Point></Placemark>
<Placemark><name>W4K/EC-153 Unnamed summit (1700B)</name><styleUrl>#p2</styleUrl><description><![CDATA[Unnamed summit (1700B)<br>Pike County • Region EC • 518 m / 1,699 ft • 2 points<br>SOTLAS: <a href="https://sotl.as/summits/W4K/EC-153">https://sotl.as/summits/W4K/EC-153</a>]]></description><Point><coordinates>-82.4263,37.657,0</coordinates></Point></Placemark>
<Placemark><name>W4K/EC-154 Unnamed summit (1700C)</name><styleUrl>#p2</styleUrl><description><![CDATA[Unnamed summit (1700C)<br>Floyd County • Region EC • 518 m / 1,699 ft • 2 points<br>SOTLAS: <a href="https://sotl.as/summits/W4K/EC-154">https://sotl.as/summits/W4K/EC-154</a>]]></description><Point><coordinates>-82.7698,37.4752,0</coordinates></Point></Placemark>
<Placemark><name>W4K/EC-155 Hector Benchmark</name><styleUrl>#p2</styleUrl><description><![CDATA[Hector Benchmark<br>Clay County • Region EC • 518 m / 1,699 ft • 2 points<br>SOTLAS: <a href="https://sotl.as/summits/W4K/EC-155">https://sotl.as/summits/W4K/EC-155</a><br>POTA / KFF WITHIN 3 MI  US-3799 Burchell-Beech Wildlife Management Area 1.3 mi  •  KFF-3799 Burchell-Beech 1.3 mi  (to the park’s reference point — check boundaries)]]></description><Point><coordinates>-83.691,37.1545,0</coordinates></Point></Placemark>
<Placemark><name>W4K/EC-156 Kirby Mountain</name><styleUrl>#p2</styleUrl><description><![CDATA[Kirby Mountain<br>Laurel County • Region EC • 518 m / 1,699 ft • 2 points<br>SOTLAS: <a href="https://sotl.as/summits/W4K/EC-156">https://sotl.as/summits/W4K/EC-156</a>]]></description><Point><coordinates>-83.9481,36.9882,0</coordinates></Point></Placemark>
<Placemark><name>W4K/EC-157 Unnamed summit (1690A)</name><styleUrl>#p2</styleUrl><description><![CDATA[Unnamed summit (1690A)<br>Knox County • Region EC • 515 m / 1,690 ft • 2 points<br>SOTLAS: <a href="https://sotl.as/summits/W4K/EC-157">https://sotl.as/summits/W4K/EC-157</a>]]></description><Point><coordinates>-84.0274,36.9056,0</coordinates></Point></Placemark>
<Placemark><name>W4K/EC-158 Unnamed summit (1690B)</name><styleUrl>#p2</styleUrl><description><![CDATA[Unnamed summit (1690B)<br>Knox County • Region EC • 515 m / 1,690 ft • 2 points<br>SOTLAS: <a href="https://sotl.as/summits/W4K/EC-158">https://sotl.as/summits/W4K/EC-158</a>]]></description><Point><coordinates>-83.8078,36.8988,0</coordinates></Point></Placemark>
<Placemark><name>W4K/EC-159 Unnamed summit (1690C)</name><styleUrl>#p2</styleUrl><description><![CDATA[Unnamed summit (1690C)<br>Knox County • Region EC • 515 m / 1,690 ft • 2 points<br>SOTLAS: <a href="https://sotl.as/summits/W4K/EC-159">https://sotl.as/summits/W4K/EC-159</a>]]></description><Point><coordinates>-83.9503,36.928,0</coordinates></Point></Placemark>
<Placemark><name>W4K/EC-160 Unnamed summit (1690D)</name><styleUrl>#p2</styleUrl><description><![CDATA[Unnamed summit (1690D)<br>Whitley County • Region EC • 515 m / 1,690 ft • 2 points<br>SOTLAS: <a href="https://sotl.as/summits/W4K/EC-160">https://sotl.as/summits/W4K/EC-160</a>]]></description><Point><coordinates>-84.0656,36.8552,0</coordinates></Point></Placemark>
<Placemark><name>W4K/EC-161 Cutoff Mountain</name><styleUrl>#p2</styleUrl><description><![CDATA[Cutoff Mountain<br>Clay County • Region EC • 514 m / 1,686 ft • 2 points<br>SOTLAS: <a href="https://sotl.as/summits/W4K/EC-161">https://sotl.as/summits/W4K/EC-161</a>]]></description><Point><coordinates>-83.8906,37.1312,0</coordinates></Point></Placemark>
<Placemark><name>W4K/EC-162 Unnamed summit (1660A)</name><styleUrl>#p2</styleUrl><description><![CDATA[Unnamed summit (1660A)<br>Floyd County • Region EC • 506 m / 1,660 ft • 2 points<br>SOTLAS: <a href="https://sotl.as/summits/W4K/EC-162">https://sotl.as/summits/W4K/EC-162</a>]]></description><Point><coordinates>-82.6621,37.5552,0</coordinates></Point></Placemark>
<Placemark><name>W4K/EC-163 Unnamed summit (1660B)</name><styleUrl>#p2</styleUrl><description><![CDATA[Unnamed summit (1660B)<br>Pike County • Region EC • 506 m / 1,660 ft • 2 points<br>SOTLAS: <a href="https://sotl.as/summits/W4K/EC-163">https://sotl.as/summits/W4K/EC-163</a>]]></description><Point><coordinates>-82.2928,37.6516,0</coordinates></Point></Placemark>
<Placemark><name>W4K/EC-164 Unnamed summit (1660C)</name><styleUrl>#p2</styleUrl><description><![CDATA[Unnamed summit (1660C)<br>Floyd County • Region EC • 506 m / 1,660 ft • 2 points<br>SOTLAS: <a href="https://sotl.as/summits/W4K/EC-164">https://sotl.as/summits/W4K/EC-164</a>]]></description><Point><coordinates>-82.7117,37.4973,0</coordinates></Point></Placemark>
<Placemark><name>W4K/EC-165 Unnamed summit (1650A)</name><styleUrl>#p2</styleUrl><description><![CDATA[Unnamed summit (1650A)<br>Knox County • Region EC • 503 m / 1,650 ft • 2 points<br>SOTLAS: <a href="https://sotl.as/summits/W4K/EC-165">https://sotl.as/summits/W4K/EC-165</a>]]></description><Point><coordinates>-83.8393,36.8517,0</coordinates></Point></Placemark>
<Placemark><name>W4K/EC-166 Unnamed summit (1650B)</name><styleUrl>#p2</styleUrl><description><![CDATA[Unnamed summit (1650B)<br>Clay County • Region EC • 503 m / 1,650 ft • 2 points<br>SOTLAS: <a href="https://sotl.as/summits/W4K/EC-166">https://sotl.as/summits/W4K/EC-166</a>]]></description><Point><coordinates>-83.8384,37.0695,0</coordinates></Point></Placemark>
<Placemark><name>W4K/EC-167 Unnamed summit (1630A)</name><styleUrl>#p2</styleUrl><description><![CDATA[Unnamed summit (1630A)<br>Knox County • Region EC • 497 m / 1,631 ft • 2 points<br>SOTLAS: <a href="https://sotl.as/summits/W4K/EC-167">https://sotl.as/summits/W4K/EC-167</a>]]></description><Point><coordinates>-83.8863,36.9427,0</coordinates></Point></Placemark>
<Placemark><name>W4K/EC-168 Unnamed summit (1630B)</name><styleUrl>#p2</styleUrl><description><![CDATA[Unnamed summit (1630B)<br>Knox County • Region EC • 497 m / 1,631 ft • 2 points<br>SOTLAS: <a href="https://sotl.as/summits/W4K/EC-168">https://sotl.as/summits/W4K/EC-168</a>]]></description><Point><coordinates>-83.9095,36.9355,0</coordinates></Point></Placemark>
<Placemark><name>W4K/EC-169 Unnamed summit (1620A)</name><styleUrl>#p2</styleUrl><description><![CDATA[Unnamed summit (1620A)<br>Floyd County • Region EC • 494 m / 1,621 ft • 2 points<br>SOTLAS: <a href="https://sotl.as/summits/W4K/EC-169">https://sotl.as/summits/W4K/EC-169</a>]]></description><Point><coordinates>-82.8133,37.5543,0</coordinates></Point></Placemark>
<Placemark><name>W4K/EC-170 Unnamed summit (1620B)</name><styleUrl>#p2</styleUrl><description><![CDATA[Unnamed summit (1620B)<br>Floyd County • Region EC • 494 m / 1,621 ft • 2 points<br>SOTLAS: <a href="https://sotl.as/summits/W4K/EC-170">https://sotl.as/summits/W4K/EC-170</a>]]></description><Point><coordinates>-82.6752,37.4944,0</coordinates></Point></Placemark>
<Placemark><name>W4K/EC-171 Unnamed summit (1610)</name><styleUrl>#p2</styleUrl><description><![CDATA[Unnamed summit (1610)<br>Knox County • Region EC • 491 m / 1,611 ft • 2 points<br>SOTLAS: <a href="https://sotl.as/summits/W4K/EC-171">https://sotl.as/summits/W4K/EC-171</a>]]></description><Point><coordinates>-83.8673,36.885,0</coordinates></Point></Placemark>
<Placemark><name>W4K/EC-172 Unnamed summit (1582)</name><styleUrl>#p2</styleUrl><description><![CDATA[Unnamed summit (1582)<br>Pike County • Region EC • 482 m / 1,581 ft • 2 points<br>SOTLAS: <a href="https://sotl.as/summits/W4K/EC-172">https://sotl.as/summits/W4K/EC-172</a>]]></description><Point><coordinates>-82.5768,37.5049,0</coordinates></Point></Placemark>
<Placemark><name>W4K/EC-173 Duty Knob</name><styleUrl>#p2</styleUrl><description><![CDATA[Duty Knob<br>Pike County • Region EC • 482 m / 1,581 ft • 2 points<br>SOTLAS: <a href="https://sotl.as/summits/W4K/EC-173">https://sotl.as/summits/W4K/EC-173</a>]]></description><Point><coordinates>-82.5198,37.492,0</coordinates></Point></Placemark>
<Placemark><name>W4K/EC-174 Unnamed summit (1580)</name><styleUrl>#p2</styleUrl><description><![CDATA[Unnamed summit (1580)<br>Floyd County • Region EC • 482 m / 1,581 ft • 2 points<br>SOTLAS: <a href="https://sotl.as/summits/W4K/EC-174">https://sotl.as/summits/W4K/EC-174</a>]]></description><Point><coordinates>-82.8206,37.5813,0</coordinates></Point></Placemark>
<Placemark><name>W4K/EC-175 Unnamed summit (1561)</name><styleUrl>#p2</styleUrl><description><![CDATA[Unnamed summit (1561)<br>Clay County • Region EC • 476 m / 1,562 ft • 2 points<br>SOTLAS: <a href="https://sotl.as/summits/W4K/EC-175">https://sotl.as/summits/W4K/EC-175</a><br>POTA / KFF WITHIN 3 MI  KFF-3799 Burchell-Beech 1.8 mi  •  US-3799 Burchell-Beech Wildlife Management Area 1.8 mi  (to the park’s reference point — check boundaries)]]></description><Point><coordinates>-83.7287,37.1881,0</coordinates></Point></Placemark>
<Placemark><name>W4K/EC-176 Unnamed summit (1540A)</name><styleUrl>#p2</styleUrl><description><![CDATA[Unnamed summit (1540A)<br>Floyd County • Region EC • 469 m / 1,539 ft • 2 points<br>SOTLAS: <a href="https://sotl.as/summits/W4K/EC-176">https://sotl.as/summits/W4K/EC-176</a><br>POTA / KFF WITHIN 3 MI  US-1281 Jenny Wiley State Park 1.5 mi  •  KFF-1281 Jenny Wiley 1.6 mi  •  US-4687 Dewey Lake Wildlife Management Area 2.4 mi  •  KFF-7272 Dewey Lake 2.4 mi  (to the park’s reference point — check boundaries)]]></description><Point><coordinates>-82.7501,37.7051,0</coordinates></Point></Placemark>
<Placemark><name>W4K/EC-177 Unnamed summit (1540B)</name><styleUrl>#p2</styleUrl><description><![CDATA[Unnamed summit (1540B)<br>Pike County • Region EC • 469 m / 1,539 ft • 2 points<br>SOTLAS: <a href="https://sotl.as/summits/W4K/EC-177">https://sotl.as/summits/W4K/EC-177</a>]]></description><Point><coordinates>-82.5504,37.4663,0</coordinates></Point></Placemark>
<Placemark><name>W4K/EC-178 Unnamed summit (1540C)</name><styleUrl>#p2</styleUrl><description><![CDATA[Unnamed summit (1540C)<br>Martin County • Region EC • 469 m / 1,539 ft • 2 points<br>SOTLAS: <a href="https://sotl.as/summits/W4K/EC-178">https://sotl.as/summits/W4K/EC-178</a>]]></description><Point><coordinates>-82.5797,37.7172,0</coordinates></Point></Placemark>
<Placemark><name>W4K/EC-179 Unnamed summit (1540D)</name><styleUrl>#p2</styleUrl><description><![CDATA[Unnamed summit (1540D)<br>Floyd County • Region EC • 469 m / 1,539 ft • 2 points<br>SOTLAS: <a href="https://sotl.as/summits/W4K/EC-179">https://sotl.as/summits/W4K/EC-179</a>]]></description><Point><coordinates>-82.7006,37.6154,0</coordinates></Point></Placemark>
<Placemark><name>W4K/EC-180 Unnamed summit (1529)</name><styleUrl>#p2</styleUrl><description><![CDATA[Unnamed summit (1529)<br>Leslie County • Region EC • 466 m / 1,529 ft • 2 points<br>SOTLAS: <a href="https://sotl.as/summits/W4K/EC-180">https://sotl.as/summits/W4K/EC-180</a><br>POTA / KFF WITHIN 3 MI  KFF-1275 Buckhorn Lake 1.3 mi  •  US-1275 Buckhorn Lake State Park 1.3 mi  (to the park’s reference point — check boundaries)]]></description><Point><coordinates>-83.4424,37.2874,0</coordinates></Point></Placemark>
<Placemark><name>W4K/EC-181 Stuffley Knob</name><styleUrl>#p2</styleUrl><description><![CDATA[Stuffley Knob<br>Johnson County • Region EC • 460 m / 1,509 ft • 2 points<br>SOTLAS: <a href="https://sotl.as/summits/W4K/EC-181">https://sotl.as/summits/W4K/EC-181</a>]]></description><Point><coordinates>-82.9202,37.7832,0</coordinates></Point></Placemark>
<Placemark><name>W4K/EC-182 Unnamed summit (1500)</name><styleUrl>#p2</styleUrl><description><![CDATA[Unnamed summit (1500)<br>Floyd County • Region EC • 457 m / 1,499 ft • 2 points<br>SOTLAS: <a href="https://sotl.as/summits/W4K/EC-182">https://sotl.as/summits/W4K/EC-182</a>]]></description><Point><coordinates>-82.9045,37.6886,0</coordinates></Point></Placemark>
<Placemark><name>W4K/EC-200 Unnamed summit (1780)</name><styleUrl>#p2</styleUrl><description><![CDATA[Unnamed summit (1780)<br>Pike County • Region EC • 542 m / 1,778 ft • 2 points<br>SOTLAS: <a href="https://sotl.as/summits/W4K/EC-200">https://sotl.as/summits/W4K/EC-200</a>]]></description><Point><coordinates>-82.5736,37.3674,0</coordinates></Point></Placemark>
<Placemark><name>W4K/EC-202 Unnamed summit (1620)</name><styleUrl>#p2</styleUrl><description><![CDATA[Unnamed summit (1620)<br>Clay County • Region EC • 493 m / 1,617 ft • 2 points<br>SOTLAS: <a href="https://sotl.as/summits/W4K/EC-202">https://sotl.as/summits/W4K/EC-202</a>]]></description><Point><coordinates>-83.7139,37.0768,0</coordinates></Point></Placemark>
<Placemark><name>W4K/KA-001 Madison County High Point</name><styleUrl>#p2</styleUrl><description><![CDATA[Madison County High Point<br>Madison County • Region KA • 509 m / 1,670 ft • 2 points<br>SOTLAS: <a href="https://sotl.as/summits/W4K/KA-001">https://sotl.as/summits/W4K/KA-001</a>]]></description><Point><coordinates>-84.2511,37.5274,0</coordinates></Point></Placemark>
<Placemark><name>W4K/KA-002 Indian Fort Mountain</name><styleUrl>#p2</styleUrl><description><![CDATA[Indian Fort Mountain<br>Madison County • Region KA • 473 m / 1,552 ft • 2 points<br>SOTLAS: <a href="https://sotl.as/summits/W4K/KA-002">https://sotl.as/summits/W4K/KA-002</a>]]></description><Point><coordinates>-84.233,37.5637,0</coordinates></Point></Placemark>
<Placemark><name>W4K/KA-003 Zion Mountain</name><styleUrl>#p2</styleUrl><description><![CDATA[Zion Mountain<br>Estill County • Region KA • 461 m / 1,512 ft • 2 points<br>SOTLAS: <a href="https://sotl.as/summits/W4K/KA-003">https://sotl.as/summits/W4K/KA-003</a>]]></description><Point><coordinates>-84.0668,37.6266,0</coordinates></Point></Placemark>
<Placemark><name>W4K/KA-014 Wolf Gap Mountain</name><styleUrl>#p2</styleUrl><description><![CDATA[Wolf Gap Mountain<br>Madison County • Region KA • 470 m / 1,542 ft • 2 points<br>SOTLAS: <a href="https://sotl.as/summits/W4K/KA-014">https://sotl.as/summits/W4K/KA-014</a>]]></description><Point><coordinates>-84.1289,37.6136,0</coordinates></Point></Placemark>
<Placemark><name>W4K/PR-001 Green River Knob</name><styleUrl>#p2</styleUrl><description><![CDATA[Green River Knob<br>Casey County • Region PR • 545 m / 1,788 ft • 2 points<br>SOTLAS: <a href="https://sotl.as/summits/W4K/PR-001">https://sotl.as/summits/W4K/PR-001</a>]]></description><Point><coordinates>-84.8453,37.1534,0</coordinates></Point></Placemark>
<Placemark><name>W4K/PR-002 Sewell Mountain</name><styleUrl>#p2</styleUrl><description><![CDATA[Sewell Mountain<br>Clinton County • Region PR • 539 m / 1,768 ft • 2 points<br>SOTLAS: <a href="https://sotl.as/summits/W4K/PR-002">https://sotl.as/summits/W4K/PR-002</a>]]></description><Point><coordinates>-85.1061,36.7201,0</coordinates></Point></Placemark>
<Placemark><name>W4K/PR-003 Short Mountain</name><styleUrl>#p2</styleUrl><description><![CDATA[Short Mountain<br>Clinton County • Region PR • 497 m / 1,631 ft • 2 points<br>SOTLAS: <a href="https://sotl.as/summits/W4K/PR-003">https://sotl.as/summits/W4K/PR-003</a>]]></description><Point><coordinates>-85.0708,36.7753,0</coordinates></Point></Placemark>
<Placemark><name>W4K/PR-004 Elk Ridge</name><styleUrl>#p2</styleUrl><description><![CDATA[Elk Ridge<br>Wayne County • Region PR • 466 m / 1,529 ft • 2 points<br>SOTLAS: <a href="https://sotl.as/summits/W4K/PR-004">https://sotl.as/summits/W4K/PR-004</a>]]></description><Point><coordinates>-84.7739,36.8448,0</coordinates></Point></Placemark>
</Folder>
<Folder><name>1 point summits</name>
<Placemark><name>W4K/EC-183 Unnamed summit (1460)</name><styleUrl>#p1</styleUrl><description><![CDATA[Unnamed summit (1460)<br>Floyd County • Region EC • 445 m / 1,460 ft • 1 point<br>SOTLAS: <a href="https://sotl.as/summits/W4K/EC-183">https://sotl.as/summits/W4K/EC-183</a><br>POTA / KFF WITHIN 3 MI  KFF-1281 Jenny Wiley 2.9 mi  (to the park’s reference point — check boundaries)]]></description><Point><coordinates>-82.7217,37.6517,0</coordinates></Point></Placemark>
<Placemark><name>W4K/EC-184 Pilot Knob</name><styleUrl>#p1</styleUrl><description><![CDATA[Pilot Knob<br>Powell County • Region EC • 442 m / 1,450 ft • 1 point<br>SOTLAS: <a href="https://sotl.as/summits/W4K/EC-184">https://sotl.as/summits/W4K/EC-184</a><br>POTA / KFF WITHIN 3 MI  KFF-6886 Pilot Knob 0.5 mi  •  US-7963 Pilot Knob State Nature Preserve 0.5 mi  (to the park’s reference point — check boundaries)]]></description><Point><coordinates>-83.9357,37.9114,0</coordinates></Point></Placemark>
<Placemark><name>W4K/EC-185 Limestone Knob</name><styleUrl>#p1</styleUrl><description><![CDATA[Limestone Knob<br>Rowan County • Region EC • 437 m / 1,434 ft • 1 point<br>SOTLAS: <a href="https://sotl.as/summits/W4K/EC-185">https://sotl.as/summits/W4K/EC-185</a>]]></description><Point><coordinates>-83.4766,38.1379,0</coordinates></Point></Placemark>
<Placemark><name>W4K/EC-186 Unnamed summit (1420)</name><styleUrl>#p1</styleUrl><description><![CDATA[Unnamed summit (1420)<br>Floyd County • Region EC • 433 m / 1,421 ft • 1 point<br>SOTLAS: <a href="https://sotl.as/summits/W4K/EC-186">https://sotl.as/summits/W4K/EC-186</a>]]></description><Point><coordinates>-82.8181,37.7291,0</coordinates></Point></Placemark>
<Placemark><name>W4K/EC-187 Unnamed summit (1380A)</name><styleUrl>#p1</styleUrl><description><![CDATA[Unnamed summit (1380A)<br>Johnson County • Region EC • 421 m / 1,381 ft • 1 point<br>SOTLAS: <a href="https://sotl.as/summits/W4K/EC-187">https://sotl.as/summits/W4K/EC-187</a>]]></description><Point><coordinates>-82.8012,37.7961,0</coordinates></Point></Placemark>
<Placemark><name>W4K/EC-188 Unnamed summit (1380B)</name><styleUrl>#p1</styleUrl><description><![CDATA[Unnamed summit (1380B)<br>Johnson County • Region EC • 421 m / 1,381 ft • 1 point<br>SOTLAS: <a href="https://sotl.as/summits/W4K/EC-188">https://sotl.as/summits/W4K/EC-188</a>]]></description><Point><coordinates>-82.8428,37.7461,0</coordinates></Point></Placemark>
<Placemark><name>W4K/EC-189 Unnamed summit (1380C)</name><styleUrl>#p1</styleUrl><description><![CDATA[Unnamed summit (1380C)<br>Floyd County • Region EC • 421 m / 1,381 ft • 1 point<br>SOTLAS: <a href="https://sotl.as/summits/W4K/EC-189">https://sotl.as/summits/W4K/EC-189</a>]]></description><Point><coordinates>-82.752,37.6454,0</coordinates></Point></Placemark>
<Placemark><name>W4K/EC-190 Unnamed summit (1355)</name><styleUrl>#p1</styleUrl><description><![CDATA[Unnamed summit (1355)<br>Floyd County • Region EC • 413 m / 1,355 ft • 1 point<br>SOTLAS: <a href="https://sotl.as/summits/W4K/EC-190">https://sotl.as/summits/W4K/EC-190</a><br>POTA / KFF WITHIN 3 MI  US-4687 Dewey Lake Wildlife Management Area 1.0 mi  •  KFF-7272 Dewey Lake 1.0 mi  •  US-1281 Jenny Wiley State Park 2.7 mi  •  KFF-1281 Jenny Wiley 2.9 mi  (to the park’s reference point — check boundaries)]]></description><Point><coordinates>-82.7457,37.7314,0</coordinates></Point></Placemark>
<Placemark><name>W4K/EC-191 Unnamed summit (1340)</name><styleUrl>#p1</styleUrl><description><![CDATA[Unnamed summit (1340)<br>Johnson County • Region EC • 408 m / 1,339 ft • 1 point<br>SOTLAS: <a href="https://sotl.as/summits/W4K/EC-191">https://sotl.as/summits/W4K/EC-191</a>]]></description><Point><coordinates>-82.819,37.7875,0</coordinates></Point></Placemark>
<Placemark><name>W4K/EC-192 Unnamed summit (1283)</name><styleUrl>#p1</styleUrl><description><![CDATA[Unnamed summit (1283)<br>Johnson County • Region EC • 391 m / 1,283 ft • 1 point<br>SOTLAS: <a href="https://sotl.as/summits/W4K/EC-192">https://sotl.as/summits/W4K/EC-192</a>]]></description><Point><coordinates>-82.7913,37.7564,0</coordinates></Point></Placemark>
<Placemark><name>W4K/EC-193 Unnamed summit (1260)</name><styleUrl>#p1</styleUrl><description><![CDATA[Unnamed summit (1260)<br>Pike County • Region EC • 384 m / 1,260 ft • 1 point<br>SOTLAS: <a href="https://sotl.as/summits/W4K/EC-193">https://sotl.as/summits/W4K/EC-193</a>]]></description><Point><coordinates>-82.5274,37.4007,0</coordinates></Point></Placemark>
<Placemark><name>W4K/EC-194 Unnamed summit (1250)</name><styleUrl>#p1</styleUrl><description><![CDATA[Unnamed summit (1250)<br>Floyd County • Region EC • 381 m / 1,250 ft • 1 point<br>SOTLAS: <a href="https://sotl.as/summits/W4K/EC-194">https://sotl.as/summits/W4K/EC-194</a><br>POTA / KFF WITHIN 3 MI  US-4687 Dewey Lake Wildlife Management Area 1.5 mi  •  KFF-7272 Dewey Lake 1.5 mi  (to the park’s reference point — check boundaries)]]></description><Point><coordinates>-82.7532,37.7475,0</coordinates></Point></Placemark>
<Placemark><name>W4K/EC-195 Unnamed summit (1220)</name><styleUrl>#p1</styleUrl><description><![CDATA[Unnamed summit (1220)<br>Pike County • Region EC • 372 m / 1,220 ft • 1 point<br>SOTLAS: <a href="https://sotl.as/summits/W4K/EC-195">https://sotl.as/summits/W4K/EC-195</a>]]></description><Point><coordinates>-82.5349,37.4761,0</coordinates></Point></Placemark>
<Placemark><name>W4K/EC-196 Unnamed summit (1197)</name><styleUrl>#p1</styleUrl><description><![CDATA[Unnamed summit (1197)<br>Johnson County • Region EC • 365 m / 1,198 ft • 1 point<br>SOTLAS: <a href="https://sotl.as/summits/W4K/EC-196">https://sotl.as/summits/W4K/EC-196</a>]]></description><Point><coordinates>-82.7862,37.8008,0</coordinates></Point></Placemark>
<Placemark><name>W4K/KA-004 Joe Lick Knob</name><styleUrl>#p1</styleUrl><description><![CDATA[Joe Lick Knob<br>Madison County • Region KA • 452 m / 1,483 ft • 1 point<br>SOTLAS: <a href="https://sotl.as/summits/W4K/KA-004">https://sotl.as/summits/W4K/KA-004</a><br>POTA / KFF WITHIN 3 MI  US-3825 Miller Welch Wildlife Management Area 2.5 mi  •  KFF-3825 Miller Welch 2.5 mi  (to the park’s reference point — check boundaries)]]></description><Point><coordinates>-84.2291,37.6065,0</coordinates></Point></Placemark>
<Placemark><name>W4K/KA-005 Low Knob</name><styleUrl>#p1</styleUrl><description><![CDATA[Low Knob<br>Estill County • Region KA • 442 m / 1,450 ft • 1 point<br>SOTLAS: <a href="https://sotl.as/summits/W4K/KA-005">https://sotl.as/summits/W4K/KA-005</a>]]></description><Point><coordinates>-83.9636,37.7486,0</coordinates></Point></Placemark>
<Placemark><name>W4K/KA-006 Unnamed summit (1450)</name><styleUrl>#p1</styleUrl><description><![CDATA[Unnamed summit (1450)<br>Estill County • Region KA • 442 m / 1,450 ft • 1 point<br>SOTLAS: <a href="https://sotl.as/summits/W4K/KA-006">https://sotl.as/summits/W4K/KA-006</a>]]></description><Point><coordinates>-84.1014,37.6031,0</coordinates></Point></Placemark>
<Placemark><name>W4K/KA-007 Sugarloaf Mountain</name><styleUrl>#p1</styleUrl><description><![CDATA[Sugarloaf Mountain<br>Estill County • Region KA • 440 m / 1,444 ft • 1 point<br>SOTLAS: <a href="https://sotl.as/summits/W4K/KA-007">https://sotl.as/summits/W4K/KA-007</a>]]></description><Point><coordinates>-83.989,37.7861,0</coordinates></Point></Placemark>
<Placemark><name>W4K/KA-008 Big Round Mountain</name><styleUrl>#p1</styleUrl><description><![CDATA[Big Round Mountain<br>Estill County • Region KA • 433 m / 1,421 ft • 1 point<br>SOTLAS: <a href="https://sotl.as/summits/W4K/KA-008">https://sotl.as/summits/W4K/KA-008</a>]]></description><Point><coordinates>-84.0652,37.6492,0</coordinates></Point></Placemark>
<Placemark><name>W4K/KA-009 Pilot Knob</name><styleUrl>#p1</styleUrl><description><![CDATA[Pilot Knob<br>Madison County • Region KA • 430 m / 1,411 ft • 1 point<br>SOTLAS: <a href="https://sotl.as/summits/W4K/KA-009">https://sotl.as/summits/W4K/KA-009</a>]]></description><Point><coordinates>-84.199,37.5639,0</coordinates></Point></Placemark>
<Placemark><name>W4K/KA-010 Unnamed summit (1410)</name><styleUrl>#p1</styleUrl><description><![CDATA[Unnamed summit (1410)<br>Estill County • Region KA • 430 m / 1,411 ft • 1 point<br>SOTLAS: <a href="https://sotl.as/summits/W4K/KA-010">https://sotl.as/summits/W4K/KA-010</a>]]></description><Point><coordinates>-84.1124,37.6102,0</coordinates></Point></Placemark>
<Placemark><name>W4K/KA-011 Unnamed summit (1383)</name><styleUrl>#p1</styleUrl><description><![CDATA[Unnamed summit (1383)<br>Madison County • Region KA • 422 m / 1,385 ft • 1 point<br>SOTLAS: <a href="https://sotl.as/summits/W4K/KA-011">https://sotl.as/summits/W4K/KA-011</a>]]></description><Point><coordinates>-84.1258,37.5932,0</coordinates></Point></Placemark>
<Placemark><name>W4K/KA-012 Unnamed summit (1370)</name><styleUrl>#p1</styleUrl><description><![CDATA[Unnamed summit (1370)<br>Madison County • Region KA • 418 m / 1,371 ft • 1 point<br>SOTLAS: <a href="https://sotl.as/summits/W4K/KA-012">https://sotl.as/summits/W4K/KA-012</a>]]></description><Point><coordinates>-84.1034,37.5812,0</coordinates></Point></Placemark>
<Placemark><name>W4K/KA-013 Dawson Knob</name><styleUrl>#p1</styleUrl><description><![CDATA[Dawson Knob<br>Bullitt County • Region KA • 302 m / 991 ft • 1 point<br>SOTLAS: <a href="https://sotl.as/summits/W4K/KA-013">https://sotl.as/summits/W4K/KA-013</a>]]></description><Point><coordinates>-85.7869,37.9215,0</coordinates></Point></Placemark>
<Placemark><name>W4K/PR-005 Furnace Mountain</name><styleUrl>#p1</styleUrl><description><![CDATA[Furnace Mountain<br>Wayne County • Region PR • 454 m / 1,490 ft • 1 point<br>SOTLAS: <a href="https://sotl.as/summits/W4K/PR-005">https://sotl.as/summits/W4K/PR-005</a>]]></description><Point><coordinates>-84.8978,36.8078,0</coordinates></Point></Placemark>
</Folder>
</Document></kml>