{"type":"FeatureCollection","features":[{"type":"Feature","properties":{"NAME":"Dawkins Line Rail Trail","MANAGER":"Kentucky State Parks","URL":"https://parks.ky.gov/explore/dawkins-line-rail-trail-7831"},"geometry":{"type":"LineString","coordinates":[[-82.80209,37.77782],[-82.80323,37.77729],[-82.80383,37.7771],[-82.80447,37.77701],[-82.80524,37.77704],[-82.80571,37.77711],[-82.80632,37.7773],[-82.80673,37.7775],[-82.80831,37.77845],[-82.80881,37.77866],[-82.80952,37.77885],[-82.81488,37.77971],[-82.81575,37.77976],[-82.81819,37.77968],[-82.81911,37.7798],[-82.82012,37.78016],[-82.82787,37.78404],[-82.82823,37.78416],[-82.82874,37.78425],[-82.83051,37.78417],[-82.83435,37.78366],[-82.83637,37.78351],[-82.83716,37.78337],[-82.83773,37.7832],[-82.83828,37.78297],[-82.84052,37.78169],[-82.84101,37.78147],[-82.84141,37.78136],[-82.84326,37.78107],[-82.84392,37.78087],[-82.84438,37.78066],[-82.8448,37.7804],[-82.84605,37.77941],[-82.84668,37.77908],[-82.8493,37.77825],[-82.85014,37.77788],[-82.85089,37.77742],[-82.85404,37.77521],[-82.85461,37.7747],[-82.85497,37.77427],[-82.85631,37.77185],[-82.85653,37.77159],[-82.85749,37.77082],[-82.85779,37.77052],[-82.85803,37.77019],[-82.85859,37.76911],[-82.85893,37.76875],[-82.85947,37.76841],[-82.86073,37.76789],[-82.86132,37.76759],[-82.86421,37.76558],[-82.8646,37.76527],[-82.86551,37.76435],[-82.86653,37.76301],[-82.86671,37.76285],[-82.86725,37.76252],[-82.86885,37.7618],[-82.86967,37.76119],[-82.8701,37.76069],[-82.8718,37.75833],[-82.87215,37.75772],[-82.87241,37.75691],[-82.87245,37.75641],[-82.87244,37.75532],[-82.87263,37.75471],[-82.87285,37.75434],[-82.87323,37.75392],[-82.87432,37.75307],[-82.87485,37.75281],[-82.87749,37.75174],[-82.87828,37.75123],[-82.87881,37.75074],[-82.87933,37.75004],[-82.88029,37.74819],[-82.88138,37.74675],[-82.88161,37.74638],[-82.88181,37.74584],[-82.88215,37.74419],[-82.88231,37.74375],[-82.88243,37.74354],[-82.88277,37.74317],[-82.88321,37.74287],[-82.88373,37.74266],[-82.88415,37.74257],[-82.88678,37.74219],[-82.8873,37.74207],[-82.89191,37.74065],[-82.89266,37.7403],[-82.89498,37.73886],[-82.89533,37.73857],[-82.89635,37.73755],[-82.8972,37.73692],[-82.89783,37.73665],[-82.89838,37.73654],[-82.89909,37.73655],[-82.89959,37.73664],[-82.90023,37.73685],[-82.9008,37.73715],[-82.90237,37.73822],[-82.90274,37.73835],[-82.90312,37.73842],[-82.90365,37.73842],[-82.90841,37.73761],[-82.90922,37.73755],[-82.91208,37.73772],[-82.91319,37.73788],[-82.91469,37.73831],[-82.91578,37.73873],[-82.91648,37.7389],[-82.91708,37.73892],[-82.91752,37.73887],[-82.91909,37.73843],[-82.91979,37.7381],[-82.92202,37.73687],[-82.92363,37.73541],[-82.92463,37.73401],[-82.9249,37.73373],[-82.92523,37.73349],[-82.9256,37.7333],[-82.92668,37.73291],[-82.92725,37.73265],[-82.92794,37.73222],[-82.92867,37.73157],[-82.92989,37.73002],[-82.9301,37.72965],[-82.93019,37.72926],[-82.93001,37.72659],[-82.93005,37.7263],[-82.93027,37.72586],[-82.93091,37.72522],[-82.93115,37.72476],[-82.93157,37.72166],[-82.9317,37.72138],[-82.93189,37.72114],[-82.93235,37.72082],[-82.93268,37.72069],[-82.93316,37.72062],[-82.93368,37.72066],[-82.93429,37.72081],[-82.93824,37.72269],[-82.93891,37.72295],[-82.93944,37.72309],[-82.94037,37.72319],[-82.94355,37.72317],[-82.94401,37.72312],[-82.94445,37.72302],[-82.94537,37.72269],[-82.94641,37.72243],[-82.94676,37.72229],[-82.94707,37.7221],[-82.94746,37.72169],[-82.94839,37.72007],[-82.94863,37.71981],[-82.94904,37.71952],[-82.94939,37.71936],[-82.95296,37.71826],[-82.9535,37.71805],[-82.95416,37.71768],[-82.95653,37.71597],[-82.95726,37.71561],[-82.95782,37.71549],[-82.9584,37.71547],[-82.9614,37.71567],[-82.96412,37.71624],[-82.96485,37.71631],[-82.96528,37.71627],[-82.9657,37.71617],[-82.96764,37.71534],[-82.96886,37.71492],[-82.9719,37.71289],[-82.97449,37.71182],[-82.97529,37.71137],[-82.97597,37.7108],[-82.97898,37.70767],[-82.97919,37.70723],[-82.97926,37.70676],[-82.97922,37.70641],[-82.97874,37.70432],[-82.97871,37.70376],[-82.97879,37.70343],[-82.97973,37.70084],[-82.97991,37.70016],[-82.97998,37.69947],[-82.97996,37.69804],[-82.98002,37.6976],[-82.98028,37.69674],[-82.98042,37.696],[-82.98101,37.69105],[-82.98124,37.69032],[-82.98282,37.68688],[-82.98301,37.68656],[-82.98337,37.68618],[-82.98371,37.68595],[-82.9849,37.68541],[-82.98534,37.68509],[-82.98552,37.6849],[-82.98579,37.68447],[-82.98681,37.68229],[-82.98748,37.68107],[-82.98777,37.68071],[-82.99008,37.67869],[-82.99058,37.67839],[-82.99161,37.67788],[-82.99225,37.67744],[-82.99486,37.67506],[-82.99646,37.67327],[-82.99676,37.67305],[-82.9971,37.67289],[-82.99761,37.67276],[-82.99828,37.67276],[-83.00098,37.67346],[-83.00138,37.67365],[-83.00175,37.6739],[-83.00334,37.67537],[-83.0037,37.67563],[-83.00439,37.67597],[-83.00533,37.67618],[-83.01696,37.67736],[-83.01781,37.67739],[-83.01844,37.67734],[-83.01926,37.67716],[-83.02233,37.67608],[-83.02281,37.67602],[-83.0233,37.67607],[-83.02364,37.67617],[-83.02395,37.67633],[-83.02553,37.67747],[-83.026,37.6777],[-83.02667,37.67785],[-83.02833,37.67803],[-83.02887,37.67822],[-83.02923,37.67847],[-83.03141,37.68073],[-83.03182,37.68099],[-83.03244,37.68117],[-83.0331,37.68118],[-83.0336,37.68107],[-83.0368,37.67956],[-83.03725,37.67943],[-83.03772,37.67936],[-83.03836,37.67936],[-83.03899,37.67947],[-83.04282,37.68071],[-83.04332,37.68081],[-83.04383,37.68081],[-83.04421,37.68074],[-83.04467,37.68056],[-83.04513,37.68021],[-83.04544,37.67976],[-83.04614,37.6777],[-83.04619,37.67725],[-83.04599,37.67673],[-83.04513,37.67566],[-83.04487,37.67513],[-83.04479,37.67468],[-83.04479,37.67399],[-83.04519,37.67135],[-83.04515,37.67104],[-83.04499,37.67066],[-83.04479,37.6704],[-83.042,37.66784],[-83.04168,37.6675],[-83.04134,37.66699],[-83.04043,37.66528],[-83.04006,37.66487],[-83.03959,37.66454],[-83.03903,37.66429],[-83.03857,37.66418],[-83.03646,37.66389],[-83.0361,37.66377],[-83.03568,37.66352],[-83.03537,37.66319],[-83.03518,37.6628],[-83.03514,37.66228],[-83.03527,37.66188],[-83.03546,37.66161],[-83.03763,37.65968],[-83.03804,37.65915],[-83.03822,37.65868],[-83.03826,37.65807],[-83.03814,37.65758],[-83.03778,37.65679],[-83.03774,37.65652],[-83.03777,37.65625],[-83.03804,37.65575],[-83.03918,37.65477],[-83.03953,37.65436],[-83.0397,37.6539],[-83.03976,37.65262],[-83.03987,37.65233],[-83.04005,37.65206],[-83.04074,37.65142],[-83.04107,37.65104],[-83.04135,37.65062],[-83.04174,37.64984],[-83.04199,37.64949],[-83.04234,37.6492],[-83.04294,37.64885],[-83.04324,37.64857],[-83.04513,37.64598],[-83.04564,37.64545],[-83.0463,37.64504],[-83.04691,37.64482],[-83.04955,37.6443],[-83.04997,37.64411],[-83.05029,37.64383],[-83.05046,37.64357],[-83.05055,37.6433],[-83.05057,37.64221],[-83.05064,37.64167],[-83.05105,37.64061],[-83.05117,37.64016],[-83.05139,37.63793],[-83.05154,37.63748],[-83.05172,37.63724],[-83.05195,37.63704],[-83.05338,37.63626],[-83.0536,37.63605],[-83.05406,37.63531],[-83.05432,37.63503],[-83.05569,37.63418],[-83.05617,37.63382],[-83.05654,37.63339],[-83.05681,37.63291],[-83.05695,37.6324],[-83.05697,37.63201],[-83.05691,37.63166],[-83.05671,37.63121],[-83.05557,37.62986],[-83.05529,37.6294],[-83.05488,37.62854],[-83.05467,37.62834],[-83.05374,37.62785],[-83.05341,37.62755],[-83.05314,37.62707],[-83.05305,37.62665],[-83.0531,37.62625],[-83.05317,37.62606],[-83.05405,37.62475],[-83.05401,37.62473],[-83.05434,37.62424],[-83.05447,37.6239],[-83.05445,37.62259],[-83.05468,37.62097],[-83.05461,37.61898],[-83.0547,37.61861],[-83.05485,37.61835],[-83.05515,37.61806],[-83.05617,37.61748],[-83.05641,37.61726],[-83.05658,37.61701],[-83.05688,37.61626],[-83.05693,37.61604],[-83.05691,37.61573],[-83.05644,37.61469],[-83.05632,37.61425],[-83.05636,37.61272],[-83.05647,37.61228],[-83.05669,37.61197],[-83.05692,37.61177],[-83.06381,37.60694],[-83.06412,37.60664],[-83.06503,37.60536],[-83.06517,37.60501],[-83.06518,37.60464],[-83.0651,37.60437],[-83.0647,37.60356],[-83.06465,37.60319],[-83.06485,37.60225],[-83.06505,37.60096],[-83.06523,37.60062],[-83.06718,37.59789],[-83.06836,37.59534],[-83.06861,37.59494],[-83.06897,37.5946],[-83.07316,37.59138],[-83.07344,37.59122],[-83.07562,37.59031],[-83.07598,37.59005],[-83.07625,37.58972],[-83.07683,37.5886],[-83.07708,37.58796],[-83.07763,37.58467],[-83.07766,37.58408],[-83.07746,37.58195],[-83.07755,37.58034],[-83.07741,37.57939],[-83.07745,37.57904],[-83.07772,37.57855],[-83.07956,37.57677],[-83.07983,37.57635],[-83.08026,37.57549],[-83.08044,37.57528],[-83.08086,37.575],[-83.08148,37.57487],[-83.08314,37.57505],[-83.0838,37.57499],[-83.0847,37.57483],[-83.08522,37.57488],[-83.0856,37.57502],[-83.08591,37.57525],[-83.0862,37.57566],[-83.0865,37.57636],[-83.08685,37.57672],[-83.0878,37.57721],[-83.08863,37.57774],[-83.08893,37.57787],[-83.08937,37.57795],[-83.08993,37.57791],[-83.09024,37.5778],[-83.09057,37.57761],[-83.09167,37.57624],[-83.09184,37.57609],[-83.09224,37.57586],[-83.09271,37.57571],[-83.09308,37.57567],[-83.09448,37.57582],[-83.09482,37.57581],[-83.09535,37.57565],[-83.0957,37.57541],[-83.09589,37.57519],[-83.096,37.57493],[-83.09653,37.57221],[-83.09655,37.57193],[-83.09603,37.56912],[-83.09541,37.56779],[-83.09511,37.56742],[-83.09485,37.56725],[-83.09455,37.56713],[-83.094,37.56707],[-83.09346,37.56717],[-83.09205,37.56766],[-83.09146,37.56768],[-83.09079,37.56749],[-83.09035,37.56718],[-83.08915,37.56577],[-83.08787,37.56441],[-83.08759,37.56418],[-83.08667,37.56359],[-83.08651,37.56344],[-83.0863,37.56312],[-83.08622,37.56277],[-83.08627,37.56242],[-83.08693,37.56089],[-83.08689,37.55992],[-83.08699,37.55951],[-83.08715,37.55922],[-83.08742,37.55892],[-83.08917,37.55742],[-83.08951,37.55692],[-83.08969,37.55621],[-83.08968,37.55585],[-83.0896,37.55554],[-83.0894,37.55521],[-83.08898,37.55476],[-83.08874,37.55436],[-83.0883,37.55289],[-83.08807,37.55258],[-83.08763,37.5523],[-83.08698,37.55217],[-83.08664,37.5522],[-83.08622,37.55234],[-83.08588,37.55257],[-83.08529,37.55337],[-83.08491,37.55366],[-83.08231,37.55498],[-83.08175,37.55513],[-83.08116,37.55511],[-83.08072,37.55497],[-83.07912,37.55425],[-83.07682,37.55269],[-83.07642,37.5525],[-83.07417,37.55206],[-83.07384,37.55206],[-83.07227,37.55232],[-83.07182,37.55228],[-83.07136,37.55213],[-83.0711,37.55196],[-83.07083,37.55167],[-83.07018,37.55039],[-83.06979,37.54992],[-83.06809,37.54869],[-83.06753,37.54821],[-83.06705,37.54795],[-83.06661,37.54785],[-83.06614,37.54785],[-83.0657,37.54795],[-83.06495,37.54822],[-83.06417,37.54832],[-83.0639,37.5483],[-83.0619,37.5478],[-83.06012,37.54749],[-83.05969,37.54747],[-83.05912,37.54753],[-83.05788,37.54787],[-83.0574,37.54787],[-83.05705,37.5478],[-83.05654,37.54755],[-83.05365,37.5452],[-83.05305,37.54483],[-83.05263,37.54467],[-83.05219,37.54457],[-83.05071,37.54444],[-83.04974,37.54413],[-83.04936,37.54406],[-83.04883,37.54405],[-83.04789,37.54418],[-83.04751,37.54417],[-83.04715,37.5441],[-83.04669,37.54392],[-83.04281,37.5416],[-83.0423,37.54143],[-83.04174,37.54142],[-83.04132,37.54152],[-83.0399,37.54217],[-83.03813,37.5429],[-83.03758,37.54299],[-83.03713,37.54294],[-83.03682,37.54283],[-83.03537,37.54201],[-83.03511,37.54178],[-83.03491,37.54151],[-83.03399,37.53961],[-83.03393,37.53941],[-83.03391,37.53899],[-83.03402,37.53841],[-83.03403,37.53807],[-83.03387,37.53751],[-83.03361,37.53711],[-83.03245,37.53589],[-83.03226,37.53562],[-83.03215,37.53533],[-83.03213,37.53481],[-83.03226,37.53442],[-83.03293,37.53346],[-83.03321,37.53284],[-83.03354,37.53076],[-83.03355,37.53028],[-83.03347,37.52993],[-83.03332,37.52958],[-83.03239,37.52813],[-83.03228,37.52785],[-83.03223,37.52755],[-83.03225,37.52726],[-83.03251,37.52632],[-83.03251,37.52583],[-83.0324,37.52551],[-83.03225,37.52527],[-83.03098,37.52356],[-83.0309,37.52325],[-83.03098,37.52255]]}}]}