{"type":"FeatureCollection","features":[{"type":"Feature","properties":{"NAME":"Dr. William H. Martin State Natural Area","TYPE":"State Natural Area","ACCESS":"Open","URL":"https://eec.ky.gov/Nature-Preserves/Locations/Pages/Dr.-William-H.-Martin-WWCA.aspx"},"geometry":{"type":"Polygon","coordinates":[[[-84.33238,37.05436],[-84.33272,37.05488],[-84.33301,37.05594],[-84.33313,37.0567],[-84.34029,37.0576],[-84.3386,37.05498],[-84.33923,37.05345],[-84.33831,37.05259],[-84.33805,37.05081],[-84.33364,37.04828],[-84.33318,37.04899],[-84.32908,37.04644],[-84.32969,37.0463],[-84.33043,37.04597],[-84.33055,37.04559],[-84.33097,37.04497],[-84.33116,37.04443],[-84.33142,37.04412],[-84.33165,37.04341],[-84.33161,37.04321],[-84.33175,37.04291],[-84.33188,37.04282],[-84.33214,37.04276],[-84.33229,37.04282],[-84.33246,37.04269],[-84.33288,37.04267],[-84.33311,37.04257],[-84.33328,37.04179],[-84.33353,37.0416],[-84.33349,37.04131],[-84.33378,37.04068],[-84.33875,37.03993],[-84.33769,37.03634],[-84.32419,37.03872],[-84.32452,37.03921],[-84.32493,37.03944],[-84.32524,37.04007],[-84.32544,37.04021],[-84.32609,37.04032],[-84.32666,37.04025],[-84.32701,37.04028],[-84.32767,37.04057],[-84.32805,37.04081],[-84.32656,37.04687],[-84.32482,37.04702],[-84.3223,37.04664],[-84.32012,37.04501],[-84.3202,37.04407],[-84.32034,37.04371],[-84.32059,37.04358],[-84.32003,37.04183],[-84.31988,37.04085],[-84.31992,37.04049],[-84.32002,37.04027],[-84.32032,37.03984],[-84.32038,37.03961],[-84.32069,37.03934],[-84.31785,37.03984],[-84.31835,37.04012],[-84.31889,37.04372],[-84.31845,37.04508],[-84.31924,37.04641],[-84.32065,37.04794],[-84.31897,37.04898],[-84.3192,37.04912],[-84.3194,37.04951],[-84.31938,37.04947],[-84.31945,37.04949],[-84.31972,37.04912],[-84.32012,37.04928],[-84.32063,37.04969],[-84.32134,37.05013],[-84.32183,37.04996],[-84.32283,37.05024],[-84.32439,37.05024],[-84.32549,37.04997],[-84.32575,37.04998],[-84.32622,37.05029],[-84.32653,37.05023],[-84.32766,37.05066],[-84.32755,37.05135],[-84.3269,37.05146],[-84.32708,37.05171],[-84.32713,37.05244],[-84.32731,37.05281],[-84.32772,37.0525],[-84.32826,37.05244],[-84.32862,37.05257],[-84.32886,37.05311],[-84.32871,37.05372],[-84.32884,37.05418],[-84.32867,37.05472],[-84.3288,37.05511],[-84.32874,37.05592],[-84.32922,37.05591],[-84.3293,37.05564],[-84.33011,37.05549],[-84.33066,37.05582],[-84.33079,37.0556],[-84.33036,37.05518],[-84.3303,37.0549],[-84.33048,37.05469],[-84.33092,37.05464],[-84.33191,37.0543],[-84.33238,37.05436]]]}},{"type":"Feature","properties":{"NAME":"Green River State Natural Area (Davis Bend)","TYPE":"State Natural Area","ACCESS":"Open","URL":"https://eec.ky.gov/Nature-Preserves/Locations/Pages/Rush-Island-Bottoms.aspx"},"geometry":{"type":"Polygon","coordinates":[[[-85.72276,37.29835],[-85.72306,37.29843],[-85.72432,37.30212],[-85.72561,37.30526],[-85.72609,37.3059],[-85.7265,37.31043],[-85.72468,37.31187],[-85.72537,37.31267],[-85.73142,37.30936],[-85.73182,37.30904],[-85.73198,37.30878],[-85.73182,37.30773],[-85.73149,37.30688],[-85.73093,37.30588],[-85.72863,37.30339],[-85.72568,37.29989],[-85.72511,37.29937],[-85.72404,37.2981],[-85.72375,37.29759],[-85.72382,37.29713],[-85.7243,37.29563],[-85.72472,37.29479],[-85.72545,37.29365],[-85.72632,37.29282],[-85.72723,37.29223],[-85.72851,37.29152],[-85.72876,37.29112],[-85.72929,37.29078],[-85.72977,37.29064],[-85.7299,37.29072],[-85.73057,37.29069],[-85.73107,37.2905],[-85.73151,37.29078],[-85.73123,37.29169],[-85.73223,37.29183],[-85.7326,37.28891],[-85.73238,37.28875],[-85.73231,37.28897],[-85.7323,37.28936],[-85.7322,37.28956],[-85.73202,37.2897],[-85.73153,37.28984],[-85.73131,37.29023],[-85.73035,37.29052],[-85.72986,37.29042],[-85.72925,37.29042],[-85.72847,37.29025],[-85.72691,37.2911],[-85.72431,37.29335],[-85.72313,37.29504],[-85.72201,37.29633],[-85.7216,37.2984],[-85.72236,37.29831],[-85.72276,37.29835]]]}},{"type":"Feature","properties":{"NAME":"Green River State Natural Area (Rush Island Bottoms)","TYPE":"State Natural Area","ACCESS":"Open","URL":"https://eec.ky.gov/Nature-Preserves/Locations/Pages/Rush-Island-Bottoms.aspx"},"geometry":{"type":"Polygon","coordinates":[[[-85.91172,37.26391],[-85.91231,37.26372],[-85.91267,37.26335],[-85.91305,37.2626],[-85.91332,37.26181],[-85.91345,37.26105],[-85.91349,37.25995],[-85.91373,37.25849],[-85.91254,37.25856],[-85.91296,37.25752],[-85.91196,37.2559],[-85.9115,37.25567],[-85.91137,37.25485],[-85.91092,37.25349],[-85.90478,37.25352],[-85.90487,37.25366],[-85.90488,37.2547],[-85.90676,37.25462],[-85.90684,37.25534],[-85.9086,37.25534],[-85.90861,37.25661],[-85.90815,37.25867],[-85.90326,37.25798],[-85.90402,37.2586],[-85.90547,37.26025],[-85.90692,37.26137],[-85.90919,37.26291],[-85.91026,37.26349],[-85.91172,37.26391]]]}},{"type":"Feature","properties":{"NAME":"Little South Fork State Natural Area (Steele Hollow SNA)","TYPE":"State Natural Area","ACCESS":"Open","URL":"https://eec.ky.gov/Nature-Preserves/Locations/Pages/Burnett-WWCA.aspx"},"geometry":{"type":"MultiPolygon","coordinates":[[[[-84.70904,36.70138],[-84.71105,36.70223],[-84.71139,36.70178],[-84.71159,36.70088],[-84.71211,36.70046],[-84.71258,36.70047],[-84.71417,36.70113],[-84.71496,36.70132],[-84.71576,36.7016],[-84.71741,36.70146],[-84.7194,36.70026],[-84.71973,36.69974],[-84.71974,36.6994],[-84.71882,36.69772],[-84.72086,36.69676],[-84.72026,36.69577],[-84.72134,36.69559],[-84.72163,36.69525],[-84.72113,36.69415],[-84.72142,36.69332],[-84.7218,36.69294],[-84.72232,36.69257],[-84.72298,36.69246],[-84.72374,36.69201],[-84.72347,36.69122],[-84.72446,36.69081],[-84.72489,36.69055],[-84.72509,36.68956],[-84.72477,36.68903],[-84.72431,36.68854],[-84.72155,36.68722],[-84.72085,36.6871],[-84.7194,36.68671],[-84.71902,36.68633],[-84.71866,36.6858],[-84.71866,36.68553],[-84.71923,36.68516],[-84.71896,36.68451],[-84.71897,36.68368],[-84.71776,36.68253],[-84.71825,36.68106],[-84.71812,36.68049],[-84.71808,36.6797],[-84.71875,36.67925],[-84.71923,36.67842],[-84.71933,36.67812],[-84.7186,36.67618],[-84.71337,36.67249],[-84.7131,36.67269],[-84.71258,36.67253],[-84.7119,36.6726],[-84.71122,36.67299],[-84.71076,36.67309],[-84.71035,36.67207],[-84.71061,36.67185],[-84.70785,36.66956],[-84.70676,36.66873],[-84.70638,36.66772],[-84.70678,36.66331],[-84.70451,36.66092],[-84.70377,36.6619],[-84.70379,36.66257],[-84.69719,36.66783],[-84.69999,36.66939],[-84.70016,36.6703],[-84.69987,36.6703],[-84.70058,36.67127],[-84.70037,36.67417],[-84.69479,36.67418],[-84.69318,36.67299],[-84.69227,36.67434],[-84.69413,36.67492],[-84.69542,36.67575],[-84.69727,36.67665],[-84.69744,36.68061],[-84.69703,36.68081],[-84.70237,36.68262],[-84.70297,36.68204],[-84.70337,36.68293],[-84.70477,36.68423],[-84.70495,36.68473],[-84.70385,36.68559],[-84.70324,36.68566],[-84.70305,36.68558],[-84.70122,36.68549],[-84.70038,36.68529],[-84.69865,36.68463],[-84.69655,36.68477],[-84.69657,36.68394],[-84.68735,36.67771],[-84.68779,36.67714],[-84.68753,36.67658],[-84.68842,36.67536],[-84.687,36.67579],[-84.68565,36.67586],[-84.68504,36.67647],[-84.68429,36.6762],[-84.68375,36.67589],[-84.6836,36.67916],[-84.67995,36.68634],[-84.67853,36.68808],[-84.67955,36.69146],[-84.67783,36.6927],[-84.67786,36.6955],[-84.68228,36.69457],[-84.68564,36.69096],[-84.6884,36.69126],[-84.68963,36.69272],[-84.69228,36.69298],[-84.69299,36.69753],[-84.69229,36.69761],[-84.69213,36.69827],[-84.69224,36.69862],[-84.69272,36.69884],[-84.69342,36.69866],[-84.69407,36.69938],[-84.69648,36.69869],[-84.69345,36.6962],[-84.69499,36.69509],[-84.70581,36.69818],[-84.70591,36.69798],[-84.70767,36.69857],[-84.70611,36.6989],[-84.7063,36.69924],[-84.70634,36.69958],[-84.70672,36.69943],[-84.70957,36.70018],[-84.70904,36.70138]],[[-84.71376,36.6965],[-84.71611,36.69698],[-84.71553,36.69769],[-84.71481,36.69875],[-84.7126,36.69869],[-84.71264,36.69634],[-84.71354,36.69537],[-84.71376,36.6965]],[[-84.71509,36.69534],[-84.71398,36.69393],[-84.71254,36.69328],[-84.71245,36.69301],[-84.71353,36.69317],[-84.71641,36.69199],[-84.71814,36.69264],[-84.71812,36.69423],[-84.71778,36.69457],[-84.71656,36.69456],[-84.71599,36.69478],[-84.7158,36.69516],[-84.71585,36.69539],[-84.71645,36.696],[-84.71607,36.69611],[-84.71509,36.69534]],[[-84.71796,36.69529],[-84.71829,36.69507],[-84.71853,36.69534],[-84.71815,36.69552],[-84.71796,36.69529]]],[[[-84.75762,36.65836],[-84.75799,36.65889],[-84.75844,36.65824],[-84.76029,36.65757],[-84.76304,36.65837],[-84.7596,36.6569],[-84.76015,36.65586],[-84.76182,36.65361],[-84.75705,36.65423],[-84.75359,36.65616],[-84.75535,36.65733],[-84.75762,36.65836]]]]}},{"type":"Feature","properties":{"NAME":"Martin's Fork State Natural Area","TYPE":"State Natural Area","ACCESS":"Open","URL":"https://eec.ky.gov/Nature-Preserves/Locations/Pages/Martins-Fork.aspx"},"geometry":{"type":"MultiPolygon","coordinates":[[[[-83.39236,36.69721],[-83.39324,36.69743],[-83.39438,36.69794],[-83.39462,36.69832],[-83.39453,36.6984],[-83.39575,36.69932],[-83.39606,36.69868],[-83.39624,36.69932],[-83.39653,36.69946],[-83.39756,36.69962],[-83.39744,36.69987],[-83.39743,36.70018],[-83.39731,36.70034],[-83.39705,36.70051],[-83.39728,36.70053],[-83.39725,36.70044],[-83.39772,36.70027],[-83.39779,36.70053],[-83.39953,36.7005],[-83.40008,36.70061],[-83.40062,36.70061],[-83.40125,36.70038],[-83.40165,36.70011],[-83.40162,36.70005],[-83.40209,36.69987],[-83.4028,36.69981],[-83.4033,36.69994],[-83.40355,36.69964],[-83.40395,36.69947],[-83.404,36.69938],[-83.40391,36.69901],[-83.40316,36.699],[-83.40185,36.69839],[-83.40151,36.69811],[-83.40192,36.69767],[-83.40211,36.69707],[-83.40602,36.6972],[-83.40637,36.69648],[-83.40667,36.69641],[-83.40676,36.69618],[-83.40674,36.69608],[-83.40817,36.69608],[-83.40876,36.69541],[-83.40904,36.69492],[-83.40911,36.6946],[-83.4091,36.69404],[-83.40973,36.69428],[-83.41133,36.69452],[-83.41269,36.69437],[-83.41323,36.69443],[-83.41354,36.69479],[-83.41438,36.69476],[-83.41591,36.69425],[-83.4163,36.69391],[-83.4176,36.69455],[-83.41878,36.69436],[-83.41946,36.69439],[-83.42017,36.6942],[-83.42098,36.69415],[-83.42155,36.69389],[-83.42404,36.69396],[-83.42429,36.6938],[-83.42496,36.69355],[-83.42613,36.69343],[-83.42602,36.6948],[-83.43895,36.69515],[-83.43929,36.69236],[-83.43988,36.6924],[-83.44049,36.6923],[-83.44188,36.69171],[-83.44249,36.69169],[-83.44299,36.6916],[-83.44353,36.6917],[-83.4447,36.69138],[-83.44533,36.69113],[-83.44594,36.69125],[-83.44631,36.69154],[-83.44651,36.69153],[-83.44795,36.69061],[-83.44826,36.69054],[-83.44845,36.69036],[-83.44932,36.69002],[-83.44876,36.68968],[-83.43071,36.67297],[-83.42975,36.68698],[-83.40019,36.68938],[-83.39481,36.69179],[-83.39311,36.69161],[-83.39303,36.69098],[-83.39354,36.68949],[-83.38999,36.68501],[-83.38916,36.68533],[-83.38851,36.68568],[-83.38768,36.68594],[-83.38668,36.68665],[-83.38555,36.68667],[-83.38463,36.68678],[-83.38402,36.68665],[-83.38359,36.68683],[-83.38341,36.68719],[-83.38295,36.68745],[-83.38244,36.68733],[-83.38204,36.68749],[-83.38182,36.68728],[-83.3814,36.68724],[-83.38104,36.68741],[-83.38078,36.68824],[-83.38138,36.68839],[-83.38168,36.68969],[-83.38145,36.69025],[-83.38147,36.69054],[-83.38133,36.69119],[-83.38199,36.69231],[-83.38223,36.69245],[-83.38235,36.69271],[-83.38257,36.69291],[-83.3832,36.69327],[-83.38354,36.69378],[-83.38354,36.69389],[-83.3845,36.69398],[-83.38494,36.69396],[-83.38497,36.69407],[-83.38508,36.69411],[-83.38523,36.6945],[-83.38502,36.69568],[-83.38559,36.69522],[-83.38586,36.69458],[-83.38642,36.69424],[-83.38966,36.69506],[-83.38991,36.69822],[-83.39118,36.69803],[-83.39198,36.69768],[-83.39236,36.69721]],[[-83.39274,36.69581],[-83.39327,36.69602],[-83.39323,36.69626],[-83.39264,36.69625],[-83.39274,36.69581]]],[[[-83.42041,36.66858],[-83.4196,36.66862],[-83.41859,36.6689],[-83.41746,36.66965],[-83.41648,36.67008],[-83.4158,36.67011],[-83.41546,36.67019],[-83.43071,36.66895],[-83.43072,36.66704],[-83.42967,36.66689],[-83.42633,36.66726],[-83.42442,36.66765],[-83.42366,36.6677],[-83.4231,36.66789],[-83.42288,36.66803],[-83.42241,36.66813],[-83.42137,36.66851],[-83.4207,36.6685],[-83.42041,36.66858]]],[[[-83.39579,36.67884],[-83.39607,36.67911],[-83.39611,36.67935],[-83.395,36.68045],[-83.39394,36.68082],[-83.39321,36.68121],[-83.39291,36.68151],[-83.39288,36.68198],[-83.39152,36.68261],[-83.39453,36.68642],[-83.39824,36.68134],[-83.3985,36.67633],[-83.3972,36.6769],[-83.39656,36.67695],[-83.39578,36.67738],[-83.39522,36.6778],[-83.39555,36.6782],[-83.39579,36.67884]]]]}},{"type":"Feature","properties":{"NAME":"Sinking Creek State Natural Area","TYPE":"State Natural Area","ACCESS":"Open","URL":"https://eec.ky.gov/Nature-Preserves/Locations/Pages/Sinking-Creek.aspx"},"geometry":{"type":"Polygon","coordinates":[[[-84.22888,37.1007],[-84.22833,37.10141],[-84.22785,37.1014],[-84.22645,37.1019],[-84.22353,37.10267],[-84.22333,37.1031],[-84.22335,37.1035],[-84.22363,37.10368],[-84.22433,37.10396],[-84.22504,37.10484],[-84.22545,37.10508],[-84.22633,37.10543],[-84.22697,37.1055],[-84.22739,37.10544],[-84.22811,37.10555],[-84.23017,37.10553],[-84.23084,37.10566],[-84.23131,37.10591],[-84.23164,37.10623],[-84.22489,37.11],[-84.22494,37.11013],[-84.23237,37.11051],[-84.23237,37.11003],[-84.23478,37.10915],[-84.23584,37.10832],[-84.23674,37.10857],[-84.23787,37.10874],[-84.23881,37.10877],[-84.24079,37.10864],[-84.24117,37.10876],[-84.24133,37.10917],[-84.24035,37.11001],[-84.23998,37.1105],[-84.24008,37.11088],[-84.2408,37.11099],[-84.24141,37.11088],[-84.24149,37.11056],[-84.24276,37.11005],[-84.24293,37.10782],[-84.2437,37.10786],[-84.24403,37.10677],[-84.24415,37.10611],[-84.24477,37.10495],[-84.24492,37.10414],[-84.24478,37.10359],[-84.24453,37.10311],[-84.24474,37.10254],[-84.2446,37.10138],[-84.2447,37.10071],[-84.24472,37.09948],[-84.24457,37.09922],[-84.24113,37.10282],[-84.24192,37.10376],[-84.24282,37.10364],[-84.24303,37.10375],[-84.24309,37.1037],[-84.24331,37.10381],[-84.24365,37.10437],[-84.24371,37.10487],[-84.24359,37.10507],[-84.24309,37.10533],[-84.24274,37.10579],[-84.2427,37.10625],[-84.24256,37.10662],[-84.24266,37.10707],[-84.24259,37.10821],[-84.24137,37.10649],[-84.24098,37.10681],[-84.24058,37.10694],[-84.24034,37.10712],[-84.24009,37.10593],[-84.23859,37.1058],[-84.23826,37.10549],[-84.23806,37.10558],[-84.23716,37.10491],[-84.23615,37.105],[-84.23464,37.10011],[-84.23488,37.09986],[-84.23454,37.09907],[-84.23176,37.09929],[-84.23166,37.09992],[-84.22888,37.1007]]]}},{"type":"Feature","properties":{"NAME":"Stone Mountain Wildlife Management Area and State Natural Area","TYPE":"State Natural Area/WMA","ACCESS":"Open","URL":"https://eec.ky.gov/Nature-Preserves/Locations/Pages/Stone-Mountain.aspx"},"geometry":{"type":"Polygon","coordinates":[[[-83.16351,36.73944],[-83.16302,36.73939],[-83.16236,36.7396],[-83.16175,36.73963],[-83.16115,36.73978],[-83.16054,36.74006],[-83.15971,36.74074],[-83.15871,36.74099],[-83.15831,36.74124],[-83.15764,36.74129],[-83.15721,36.74146],[-83.15666,36.74185],[-83.1564,36.74172],[-83.15591,36.7417],[-83.15367,36.74164],[-83.15325,36.74175],[-83.15306,36.74242],[-83.15282,36.74266],[-83.15239,36.7428],[-83.15212,36.74278],[-83.15137,36.74225],[-83.15032,36.74223],[-83.14934,36.74209],[-83.14902,36.7421],[-83.14842,36.74225],[-83.14793,36.74224],[-83.14511,36.74178],[-83.14431,36.74173],[-83.14372,36.7419],[-83.14232,36.7419],[-83.1419,36.74216],[-83.14137,36.74228],[-83.14026,36.74269],[-83.13982,36.74274],[-83.1383,36.74273],[-83.13744,36.74311],[-83.13701,36.74315],[-83.13502,36.74273],[-83.13484,36.74285],[-83.13464,36.74353],[-83.13396,36.74411],[-83.13387,36.74495],[-83.1337,36.74515],[-83.13363,36.74542],[-83.13321,36.7457],[-83.133,36.7461],[-83.13303,36.74632],[-83.13381,36.74662],[-83.13404,36.74709],[-83.13398,36.74784],[-83.13414,36.74813],[-83.13394,36.74846],[-83.13396,36.74879],[-83.13442,36.74936],[-83.13469,36.74933],[-83.13508,36.74946],[-83.13571,36.74929],[-83.13633,36.74933],[-83.137,36.74926],[-83.13759,36.74955],[-83.13856,36.74913],[-83.13917,36.74946],[-83.13981,36.75002],[-83.1414,36.75062],[-83.14206,36.75141],[-83.14262,36.75117],[-83.14259,36.75111],[-83.14268,36.75109],[-83.14268,36.75115],[-83.14292,36.75109],[-83.14332,36.7514],[-83.14359,36.75095],[-83.14392,36.75071],[-83.14501,36.75034],[-83.14534,36.75107],[-83.14333,36.75313],[-83.14377,36.75411],[-83.14359,36.75437],[-83.14035,36.75652],[-83.14006,36.75723],[-83.13975,36.75768],[-83.13999,36.75794],[-83.13636,36.76032],[-83.13724,36.76067],[-83.13852,36.76133],[-83.13912,36.76151],[-83.14024,36.76168],[-83.14048,36.76166],[-83.14113,36.7613],[-83.14162,36.76079],[-83.14186,36.76067],[-83.14181,36.7605],[-83.142,36.76049],[-83.14221,36.76053],[-83.14246,36.7607],[-83.14232,36.76078],[-83.1424,36.76106],[-83.14222,36.76157],[-83.14905,36.76236],[-83.14944,36.75948],[-83.15765,36.76043],[-83.15823,36.76002],[-83.15894,36.75919],[-83.15938,36.75844],[-83.15936,36.75773],[-83.15961,36.75706],[-83.15969,36.75618],[-83.15921,36.75544],[-83.1592,36.7549],[-83.15958,36.75431],[-83.15942,36.75399],[-83.1598,36.75338],[-83.15976,36.75229],[-83.15965,36.75203],[-83.15958,36.75154],[-83.15941,36.75122],[-83.15964,36.75082],[-83.15958,36.75047],[-83.1594,36.75024],[-83.15935,36.75003],[-83.15949,36.74978],[-83.1595,36.74962],[-83.16003,36.74884],[-83.15974,36.74759],[-83.15989,36.74704],[-83.1601,36.74672],[-83.16095,36.74623],[-83.16102,36.74594],[-83.16097,36.74532],[-83.16152,36.74488],[-83.16188,36.74395],[-83.16242,36.74315],[-83.16305,36.74259],[-83.16349,36.74239],[-83.16344,36.74185],[-83.16376,36.74143],[-83.16356,36.74126],[-83.16344,36.741],[-83.16354,36.74048],[-83.16354,36.73996],[-83.16375,36.73947],[-83.16351,36.73944]]]}}]}