{"type":"FeatureCollection","features":[{"type":"Feature","properties":{"NAME":"Bad Branch State Nature Preserve","TYPE":"State Nature Preserve","ACCESS":"Open","URL":"https://eec.ky.gov/Nature-Preserves/Locations/Pages/Bad-Branch.aspx"},"geometry":{"type":"MultiPolygon","coordinates":[[[[-82.75378,37.10491],[-82.75609,37.10408],[-82.75706,37.10459],[-82.75773,37.10432],[-82.75828,37.10453],[-82.75883,37.1045],[-82.75921,37.10431],[-82.76025,37.10458],[-82.76176,37.10487],[-82.7623,37.1045],[-82.76553,37.10265],[-82.76567,37.10231],[-82.76568,37.10197],[-82.76685,37.10195],[-82.76742,37.10147],[-82.76736,37.0999],[-82.77044,37.09738],[-82.77907,37.09071],[-82.7792,37.09099],[-82.78572,37.08772],[-82.78673,37.08996],[-82.78699,37.08934],[-82.78754,37.08862],[-82.78808,37.0883],[-82.78886,37.08825],[-82.78902,37.0877],[-82.7897,37.08743],[-82.78981,37.08697],[-82.7904,37.08659],[-82.7918,37.08618],[-82.79231,37.08532],[-82.79275,37.085],[-82.7934,37.08467],[-82.79432,37.08454],[-82.79457,37.08442],[-82.79391,37.08385],[-82.79713,37.08099],[-82.798,37.08173],[-82.79845,37.08115],[-82.79925,37.08103],[-82.79941,37.08079],[-82.79989,37.08039],[-82.80056,37.08015],[-82.80123,37.08039],[-82.80168,37.08026],[-82.80187,37.08035],[-82.80193,37.08046],[-82.80261,37.07988],[-82.80408,37.0789],[-82.80443,37.07813],[-82.80426,37.07779],[-82.8057,37.07606],[-82.80316,37.07191],[-82.80316,37.07098],[-82.80347,37.06981],[-82.80303,37.06976],[-82.80176,37.06942],[-82.80041,37.06945],[-82.79879,37.06984],[-82.79839,37.06977],[-82.79827,37.06961],[-82.79829,37.06947],[-82.79839,37.06935],[-82.79936,37.06892],[-82.79997,37.06851],[-82.80016,37.06828],[-82.80022,37.06791],[-82.79988,37.06725],[-82.79026,37.06804],[-82.79085,37.06829],[-82.79087,37.06868],[-82.7904,37.06942],[-82.78754,37.07337],[-82.78757,37.0745],[-82.78651,37.07561],[-82.78473,37.07627],[-82.78416,37.07702],[-82.77899,37.07837],[-82.77898,37.07903],[-82.77761,37.07853],[-82.77888,37.07727],[-82.77657,37.07612],[-82.7817,37.0719],[-82.78231,37.0698],[-82.77793,37.07209],[-82.77755,37.0707],[-82.77608,37.0729],[-82.77573,37.07269],[-82.7755,37.07241],[-82.77525,37.07192],[-82.77508,37.07177],[-82.77472,37.07167],[-82.77431,37.0714],[-82.77395,37.0707],[-82.77378,37.06845],[-82.7739,37.06836],[-82.77317,37.06774],[-82.77284,37.0676],[-82.77194,37.06745],[-82.77108,37.06844],[-82.77094,37.06867],[-82.77091,37.06886],[-82.77077,37.06903],[-82.77031,37.06928],[-82.77013,37.06931],[-82.76934,37.06895],[-82.76948,37.06882],[-82.76912,37.06841],[-82.7686,37.06892],[-82.76784,37.06909],[-82.76722,37.06908],[-82.76681,37.07154],[-82.76916,37.07197],[-82.76916,37.07292],[-82.76871,37.07385],[-82.76877,37.07485],[-82.76894,37.07504],[-82.76762,37.07833],[-82.76637,37.07834],[-82.76435,37.07975],[-82.76594,37.07932],[-82.76827,37.07911],[-82.77101,37.07985],[-82.75743,37.08402],[-82.75724,37.08436],[-82.75898,37.08519],[-82.75792,37.08575],[-82.75781,37.08642],[-82.75802,37.08934],[-82.75499,37.08985],[-82.74903,37.08877],[-82.74614,37.08971],[-82.74605,37.08027],[-82.74715,37.08024],[-82.74812,37.08002],[-82.74851,37.0798],[-82.74922,37.07898],[-82.74903,37.07885],[-82.7487,37.07697],[-82.74772,37.07584],[-82.74759,37.07333],[-82.74677,37.06907],[-82.74653,37.06927],[-82.74621,37.06974],[-82.74596,37.06996],[-82.74537,37.07021],[-82.74429,37.07031],[-82.74368,37.07019],[-82.74336,37.07034],[-82.74365,37.0716],[-82.7395,37.07208],[-82.73935,37.07226],[-82.73907,37.07237],[-82.73845,37.07246],[-82.73807,37.07265],[-82.73677,37.07249],[-82.73617,37.07248],[-82.73539,37.07265],[-82.73553,37.07306],[-82.73584,37.07363],[-82.736,37.07437],[-82.73846,37.07466],[-82.73961,37.07453],[-82.73977,37.07424],[-82.74081,37.07354],[-82.74157,37.07289],[-82.74231,37.07253],[-82.74269,37.07243],[-82.74332,37.07254],[-82.74351,37.07341],[-82.74381,37.07394],[-82.74396,37.07457],[-82.74387,37.07524],[-82.74409,37.07612],[-82.74436,37.07664],[-82.74424,37.07701],[-82.74361,37.07759],[-82.74365,37.07997],[-82.74381,37.08023],[-82.74382,37.08058],[-82.74403,37.08075],[-82.74341,37.0819],[-82.74299,37.08244],[-82.74453,37.08308],[-82.74413,37.08402],[-82.74402,37.0856],[-82.74376,37.08668],[-82.74429,37.08741],[-82.7432,37.09024],[-82.7436,37.09251],[-82.74509,37.09358],[-82.74382,37.09635],[-82.7443,37.09641],[-82.74411,37.0968],[-82.74686,37.09888],[-82.7473,37.09973],[-82.74822,37.09985],[-82.7504,37.1005],[-82.75068,37.10119],[-82.75402,37.10359],[-82.75378,37.10491]]],[[[-82.77064,37.09934],[-82.77132,37.10027],[-82.77425,37.09844],[-82.77632,37.0994],[-82.78098,37.09593],[-82.77788,37.09395],[-82.77064,37.09934]]],[[[-82.74775,37.11846],[-82.74895,37.11737],[-82.7483,37.11704],[-82.74806,37.117],[-82.74769,37.11655],[-82.74776,37.11514],[-82.74769,37.11522],[-82.7472,37.11506],[-82.74698,37.11519],[-82.74675,37.11522],[-82.74584,37.115],[-82.7452,37.11475],[-82.74475,37.11382],[-82.74399,37.11251],[-82.74608,37.11177],[-82.747,37.114],[-82.74893,37.11477],[-82.75025,37.11377],[-82.74803,37.11101],[-82.75,37.11031],[-82.74597,37.10799],[-82.74032,37.10942],[-82.74049,37.10975],[-82.73962,37.11055],[-82.74267,37.11628],[-82.74265,37.11683],[-82.74402,37.11751],[-82.74554,37.11713],[-82.74775,37.11846]]]]}},{"type":"Feature","properties":{"NAME":"Bat Cave State Nature Preserve","TYPE":"State Nature Preserve","ACCESS":"Open","URL":"https://eec.ky.gov/Nature-Preserves/Locations/Pages/Carter-Caves.aspx"},"geometry":{"type":"Polygon","coordinates":[[[-83.12919,38.38297],[-83.13188,38.38402],[-83.13446,38.38494],[-83.13477,38.37889],[-83.1346,38.37873],[-83.13406,38.37858],[-83.13358,38.3783],[-83.13308,38.37757],[-83.13262,38.37743],[-83.13204,38.37715],[-83.13004,38.37588],[-83.12677,38.37547],[-83.12604,38.37769],[-83.12613,38.37778],[-83.12619,38.37799],[-83.1261,38.37874],[-83.12635,38.37945],[-83.12645,38.38011],[-83.12768,38.38307],[-83.12871,38.38293],[-83.12919,38.38297]]]}},{"type":"Feature","properties":{"NAME":"Beargrass Creek State Nature Preserve","TYPE":"State Nature Preserve","ACCESS":"Open","URL":"https://eec.ky.gov/Nature-Preserves/Locations/Pages/Beargrass-Creek.aspx"},"geometry":{"type":"Polygon","coordinates":[[[-85.70896,38.21158],[-85.70883,38.21143],[-85.70539,38.21316],[-85.70542,38.21319],[-85.70284,38.21455],[-85.7043,38.21555],[-85.70569,38.21611],[-85.70585,38.21583],[-85.70946,38.2122],[-85.71026,38.21177],[-85.71068,38.21229],[-85.71232,38.21155],[-85.71243,38.21098],[-85.71251,38.21084],[-85.71292,38.21058],[-85.71202,38.20968],[-85.70896,38.21158]]]}},{"type":"Feature","properties":{"NAME":"Blackacre State Nature Preserve","TYPE":"State Nature Preserve","ACCESS":"Open","URL":"https://eec.ky.gov/Nature-Preserves/Locations/Pages/Blackacre.aspx"},"geometry":{"type":"Polygon","coordinates":[[[-85.52856,38.19294],[-85.52934,38.19795],[-85.52724,38.19827],[-85.52742,38.19871],[-85.52792,38.19888],[-85.53006,38.19998],[-85.53038,38.19939],[-85.53078,38.19798],[-85.53391,38.19898],[-85.53445,38.20026],[-85.53802,38.19992],[-85.53929,38.19969],[-85.54023,38.19943],[-85.5407,38.19944],[-85.54061,38.19906],[-85.54,38.19771],[-85.54191,38.19725],[-85.5414,38.19635],[-85.5425,38.19481],[-85.53506,38.19314],[-85.52856,38.19294]]]}},{"type":"Feature","properties":{"NAME":"Blanton Forest State Nature Preserve","TYPE":"State Nature Preserve","ACCESS":"Open","URL":"https://eec.ky.gov/Nature-Preserves/Locations/Pages/Blanton-Forest.aspx"},"geometry":{"type":"MultiPolygon","coordinates":[[[[-83.33599,36.89128],[-83.33196,36.8907],[-83.33552,36.89523],[-83.3373,36.89512],[-83.33752,36.89578],[-83.34315,36.89544],[-83.34344,36.89549],[-83.34405,36.8951],[-83.34431,36.89502],[-83.34473,36.89505],[-83.34552,36.89476],[-83.34575,36.89471],[-83.34612,36.89474],[-83.34686,36.89442],[-83.34722,36.89447],[-83.34789,36.89416],[-83.34838,36.89408],[-83.34872,36.89376],[-83.3489,36.89367],[-83.34858,36.89215],[-83.35072,36.89157],[-83.3514,36.89126],[-83.35168,36.89076],[-83.35687,36.88585],[-83.36069,36.88476],[-83.36153,36.88438],[-83.36164,36.88405],[-83.36235,36.88373],[-83.36267,36.88335],[-83.36271,36.88308],[-83.36284,36.88293],[-83.3631,36.88281],[-83.36324,36.88249],[-83.36443,36.8824],[-83.36514,36.88188],[-83.36563,36.88175],[-83.36582,36.88161],[-83.3668,36.88149],[-83.368,36.88103],[-83.36858,36.88112],[-83.36939,36.88098],[-83.36967,36.88066],[-83.36992,36.88058],[-83.37068,36.88062],[-83.37122,36.88027],[-83.37188,36.88019],[-83.3723,36.88007],[-83.37269,36.8801],[-83.37298,36.87985],[-83.37393,36.87952],[-83.3748,36.87966],[-83.37524,36.87939],[-83.37612,36.87949],[-83.3769,36.87871],[-83.3777,36.87904],[-83.3784,36.8791],[-83.37878,36.87902],[-83.38009,36.87853],[-83.38083,36.87843],[-83.38101,36.87856],[-83.38177,36.87871],[-83.38255,36.87869],[-83.38339,36.87846],[-83.38368,36.87811],[-83.38404,36.87809],[-83.38424,36.87822],[-83.38475,36.87828],[-83.38543,36.87822],[-83.38555,36.87838],[-83.38596,36.8784],[-83.38712,36.87805],[-83.38763,36.87729],[-83.38797,36.87703],[-83.38877,36.87717],[-83.38916,36.87746],[-83.38943,36.87744],[-83.38976,36.87723],[-83.39056,36.87632],[-83.39093,36.87614],[-83.39146,36.87575],[-83.39248,36.87599],[-83.3926,36.87614],[-83.3926,36.87581],[-83.39281,36.87511],[-83.39258,36.87391],[-83.39284,36.87347],[-83.39246,36.87284],[-83.39296,36.87269],[-83.39374,36.87147],[-83.39306,36.86975],[-83.39329,36.86959],[-83.39322,36.86901],[-83.39272,36.86854],[-83.39257,36.86748],[-83.3925,36.86728],[-83.39212,36.86675],[-83.39115,36.8665],[-83.39079,36.86606],[-83.39034,36.86566],[-83.39024,36.86546],[-83.39031,36.86526],[-83.38875,36.86387],[-83.38845,36.86341],[-83.38819,36.86232],[-83.38786,36.86238],[-83.38763,36.86155],[-83.38703,36.86002],[-83.38496,36.85858],[-83.38313,36.85721],[-83.38253,36.85777],[-83.38254,36.85885],[-83.38263,36.85953],[-83.38441,36.86111],[-83.38502,36.86204],[-83.38538,36.8632],[-83.38589,36.86347],[-83.38598,36.86378],[-83.38533,36.86373],[-83.38502,36.86345],[-83.38509,36.86327],[-83.38498,36.86251],[-83.38474,36.86214],[-83.38412,36.86139],[-83.38271,36.86059],[-83.38223,36.85994],[-83.38215,36.85994],[-83.38081,36.86127],[-83.38095,36.86155],[-83.38075,36.8616],[-83.38062,36.86132],[-83.38024,36.86125],[-83.37996,36.86126],[-83.37973,36.86138],[-83.37953,36.8617],[-83.37945,36.86205],[-83.37931,36.86218],[-83.37911,36.86224],[-83.37887,36.86301],[-83.37797,36.86286],[-83.37822,36.86133],[-83.37816,36.86121],[-83.37804,36.86117],[-83.3781,36.8608],[-83.37806,36.86067],[-83.37837,36.86047],[-83.37893,36.86048],[-83.37895,36.85995],[-83.38026,36.85979],[-83.38161,36.85862],[-83.38102,36.85827],[-83.38082,36.85824],[-83.38079,36.85836],[-83.38049,36.85868],[-83.38036,36.85869],[-83.37998,36.85908],[-83.37989,36.85878],[-83.37917,36.85946],[-83.37691,36.86126],[-83.37578,36.8619],[-83.37602,36.8613],[-83.37448,36.8611],[-83.37458,36.86043],[-83.37472,36.85996],[-83.3748,36.85878],[-83.37455,36.85868],[-83.37403,36.85866],[-83.37357,36.85891],[-83.37248,36.85877],[-83.37191,36.85851],[-83.37148,36.85846],[-83.37114,36.8585],[-83.37119,36.85893],[-83.37106,36.85953],[-83.37109,36.85974],[-83.37138,36.86017],[-83.37161,36.86072],[-83.37164,36.86105],[-83.37177,36.86126],[-83.37154,36.86169],[-83.37025,36.86185],[-83.36995,36.86197],[-83.36957,36.86224],[-83.36845,36.86127],[-83.3683,36.86094],[-83.36749,36.86124],[-83.36714,36.86125],[-83.36727,36.86245],[-83.36595,36.86173],[-83.36773,36.86326],[-83.36746,36.86341],[-83.36636,36.86372],[-83.36592,36.8637],[-83.36536,36.86397],[-83.36511,36.86369],[-83.36454,36.86336],[-83.36365,36.86331],[-83.36359,36.86365],[-83.36325,36.86361],[-83.36314,36.8639],[-83.36314,36.86409],[-83.36296,36.86423],[-83.36255,36.86421],[-83.36252,36.86385],[-83.36258,36.86365],[-83.36264,36.86365],[-83.36257,36.86326],[-83.36262,36.86298],[-83.36219,36.86297],[-83.36184,36.86379],[-83.36172,36.86383],[-83.36143,36.86435],[-83.36141,36.86446],[-83.36149,36.86462],[-83.36212,36.86541],[-83.36247,36.86569],[-83.36338,36.86592],[-83.36431,36.866],[-83.36447,36.86596],[-83.36452,36.86548],[-83.36468,36.8655],[-83.36469,36.86769],[-83.36266,36.86702],[-83.36246,36.86707],[-83.36161,36.867],[-83.3606,36.86708],[-83.35843,36.86683],[-83.35763,36.86709],[-83.35693,36.86752],[-83.35666,36.86781],[-83.3564,36.86789],[-83.3561,36.86738],[-83.35576,36.86725],[-83.35572,36.86613],[-83.3556,36.86577],[-83.35544,36.86563],[-83.35523,36.86524],[-83.3555,36.86521],[-83.3555,36.86493],[-83.3548,36.86494],[-83.35466,36.86551],[-83.35483,36.86761],[-83.35445,36.86762],[-83.35427,36.86771],[-83.35214,36.8679],[-83.35203,36.8653],[-83.35162,36.86539],[-83.35107,36.86967],[-83.35029,36.86958],[-83.35128,36.86542],[-83.35078,36.86544],[-83.35076,36.86631],[-83.34955,36.86637],[-83.34933,36.86643],[-83.34932,36.86725],[-83.34912,36.86754],[-83.34872,36.86777],[-83.34702,36.86785],[-83.34677,36.86792],[-83.34679,36.86826],[-83.34473,36.86829],[-83.34473,36.86852],[-83.34388,36.86866],[-83.34294,36.86893],[-83.34229,36.8689],[-83.3422,36.86831],[-83.33527,36.86837],[-83.33519,36.86884],[-83.33478,36.8696],[-83.3349,36.87005],[-83.33527,36.87065],[-83.33613,36.87145],[-83.33697,36.87167],[-83.33732,36.87186],[-83.33874,36.87209],[-83.33994,36.87244],[-83.34111,36.87246],[-83.34112,36.87289],[-83.34128,36.87335],[-83.34122,36.87394],[-83.34123,36.87432],[-83.34136,36.87483],[-83.34132,36.8761],[-83.32824,36.87581],[-83.32806,36.87544],[-83.32749,36.87491],[-83.32743,36.87474],[-83.32703,36.87446],[-83.32684,36.87413],[-83.32669,36.87402],[-83.32638,36.87394],[-83.3263,36.87376],[-83.32618,36.8737],[-83.32609,36.87345],[-83.32556,36.87289],[-83.32412,36.87287],[-83.32443,36.87364],[-83.32562,36.87489],[-83.3253,36.8751],[-83.32469,36.87498],[-83.32413,36.87395],[-83.32366,36.87287],[-83.32225,36.87285],[-83.32064,36.87377],[-83.32098,36.87444],[-83.32092,36.87537],[-83.32104,36.87595],[-83.32151,36.87671],[-83.32108,36.87687],[-83.32099,36.87706],[-83.32086,36.8771],[-83.32138,36.87806],[-83.32075,36.87807],[-83.32078,36.87772],[-83.32043,36.87693],[-83.32021,36.87698],[-83.32019,36.8769],[-83.31981,36.87687],[-83.31957,36.87677],[-83.31895,36.8762],[-83.31856,36.87599],[-83.31851,36.87607],[-83.31828,36.876],[-83.3181,36.87604],[-83.31791,36.87632],[-83.31769,36.8765],[-83.31726,36.87659],[-83.31676,36.88068],[-83.31377,36.87604],[-83.31064,36.87699],[-83.3115,36.87819],[-83.30794,36.88117],[-83.30929,36.88269],[-83.30989,36.88446],[-83.31004,36.88559],[-83.30925,36.8862],[-83.30598,36.8893],[-83.30991,36.88811],[-83.31001,36.88809],[-83.31003,36.88817],[-83.32031,36.88635],[-83.32036,36.88544],[-83.32567,36.88544],[-83.32889,36.88842],[-83.33194,36.88799],[-83.33182,36.88743],[-83.33267,36.88717],[-83.3325,36.88791],[-83.33498,36.88755],[-83.33685,36.88737],[-83.33669,36.88725],[-83.33648,36.8867],[-83.33638,36.88606],[-83.33612,36.88571],[-83.33605,36.88549],[-83.33612,36.88537],[-83.33609,36.885],[-83.33588,36.88481],[-83.33588,36.88464],[-83.33573,36.88442],[-83.3351,36.88404],[-83.33431,36.8837],[-83.33416,36.88327],[-83.33381,36.88285],[-83.33292,36.88238],[-83.3322,36.88172],[-83.33132,36.88049],[-83.33111,36.88001],[-83.33102,36.87933],[-83.3308,36.87883],[-83.33063,36.87876],[-83.33047,36.87838],[-83.33091,36.8788],[-83.33112,36.8793],[-83.33121,36.87998],[-83.33141,36.88047],[-83.33244,36.88189],[-83.33299,36.88237],[-83.33387,36.88284],[-83.33421,36.88327],[-83.33437,36.88369],[-83.33478,36.88391],[-83.33638,36.88357],[-83.33816,36.88565],[-83.33798,36.88726],[-83.33815,36.88725],[-83.34703,36.88179],[-83.34711,36.88639],[-83.33498,36.88756],[-83.33599,36.89128]]],[[[-83.3538,36.89013],[-83.35355,36.89055],[-83.35862,36.8949],[-83.35977,36.89403],[-83.35458,36.88958],[-83.3538,36.89013]]]]}},{"type":"Feature","properties":{"NAME":"Blue Licks State Park State Nature Preserve","TYPE":"State Nature Preserve","ACCESS":"Open","URL":"https://eec.ky.gov/Nature-Preserves/Locations/Pages/Blue-Licks.aspx"},"geometry":{"type":"MultiPolygon","coordinates":[[[[-83.99272,38.42591],[-83.99373,38.42355],[-83.99394,38.42248],[-83.98915,38.42165],[-83.99109,38.42413],[-83.99163,38.42523],[-83.99166,38.42566],[-83.99261,38.42555],[-83.99272,38.42591]]],[[[-83.99352,38.42566],[-83.99331,38.42626],[-83.99328,38.42654],[-83.99448,38.42661],[-83.99692,38.42735],[-83.99701,38.42707],[-83.99704,38.42666],[-83.99697,38.42639],[-83.99704,38.42568],[-83.99693,38.42524],[-83.99623,38.42532],[-83.99553,38.42502],[-83.99499,38.42512],[-83.99509,38.42467],[-83.99483,38.42477],[-83.99488,38.42484],[-83.99417,38.42522],[-83.99352,38.42566]]],[[[-83.99133,38.43244],[-83.99135,38.43322],[-83.99146,38.43376],[-83.99146,38.43447],[-83.99148,38.43459],[-83.99156,38.43463],[-83.99174,38.43339],[-83.99191,38.433],[-83.99207,38.43281],[-83.99254,38.43243],[-83.99269,38.43239],[-83.99282,38.43245],[-83.99291,38.43288],[-83.99282,38.43338],[-83.99286,38.43347],[-83.99298,38.43352],[-83.99327,38.43332],[-83.99355,38.43293],[-83.99349,38.43249],[-83.99328,38.43184],[-83.99354,38.4309],[-83.99335,38.43024],[-83.993,38.42972],[-83.99271,38.42951],[-83.9921,38.42923],[-83.99203,38.42931],[-83.99189,38.4299],[-83.99174,38.43005],[-83.99155,38.4308],[-83.9914,38.43144],[-83.99133,38.43244]]]]}},{"type":"Feature","properties":{"NAME":"Boone County Cliffs State Nature Preserve","TYPE":"State Nature Preserve","ACCESS":"Open","URL":"https://eec.ky.gov/Nature-Preserves/Locations/Pages/Boone-County-Cliffs.aspx"},"geometry":{"type":"Polygon","coordinates":[[[-84.7808,38.99935],[-84.78092,38.99899],[-84.7816,38.99856],[-84.78229,38.99832],[-84.78345,38.9983],[-84.78498,38.99806],[-84.78618,38.99703],[-84.78711,38.99709],[-84.78672,38.99517],[-84.78706,38.99416],[-84.78707,38.99342],[-84.78662,38.99327],[-84.78658,38.99314],[-84.78645,38.99328],[-84.78622,38.99336],[-84.78562,38.99347],[-84.78529,38.99346],[-84.78395,38.99316],[-84.7834,38.99288],[-84.78297,38.99332],[-84.78173,38.99396],[-84.78081,38.99477],[-84.78154,38.99526],[-84.78079,38.99653],[-84.7805,38.99651],[-84.77783,38.99848],[-84.77828,38.99901],[-84.77924,38.99866],[-84.7808,38.99935]]]}},{"type":"Feature","properties":{"NAME":"Brigadoon State Nature Preserve","TYPE":"State Nature Preserve","ACCESS":"Open","URL":"https://eec.ky.gov/Nature-Preserves/Locations/Pages/Brigadoon.aspx"},"geometry":{"type":"Polygon","coordinates":[[[-85.9827,36.89621],[-85.98197,36.89586],[-85.98072,36.89787],[-85.98157,36.8982],[-85.98086,36.89946],[-85.97992,36.89915],[-85.97984,36.89918],[-85.98484,36.90087],[-85.98523,36.9006],[-85.98615,36.90037],[-85.98576,36.89991],[-85.98496,36.89931],[-85.98469,36.89927],[-85.9848,36.89883],[-85.98533,36.89935],[-85.98634,36.89986],[-85.98656,36.8998],[-85.98695,36.89822],[-85.987,36.89765],[-85.98721,36.89807],[-85.98713,36.89937],[-85.98739,36.89962],[-85.98773,36.89967],[-85.98813,36.89958],[-85.98879,36.89928],[-85.98821,36.89982],[-85.98838,36.90005],[-85.98791,36.89997],[-85.98753,36.9],[-85.98721,36.90016],[-85.98763,36.9002],[-85.98804,36.90036],[-85.9888,36.90091],[-85.98913,36.90126],[-85.98942,36.90216],[-85.9894,36.90255],[-85.98964,36.90372],[-85.9908,36.90541],[-85.99248,36.90727],[-85.9927,36.9072],[-85.99271,36.90691],[-85.99228,36.90612],[-85.99217,36.9056],[-85.99188,36.90513],[-85.9919,36.90481],[-85.99264,36.90563],[-85.99293,36.90634],[-85.99334,36.9066],[-85.9937,36.90648],[-85.99529,36.9054],[-85.99555,36.90507],[-85.99572,36.90467],[-85.99595,36.90485],[-85.99575,36.90538],[-85.99401,36.90689],[-85.99364,36.9073],[-85.99335,36.90792],[-85.9939,36.90789],[-85.99576,36.90546],[-85.99703,36.90361],[-85.99747,36.90179],[-85.99338,36.89924],[-85.99027,36.90153],[-85.98952,36.9009],[-85.99023,36.90032],[-85.9895,36.90001],[-85.99067,36.8993],[-85.99082,36.89811],[-85.98944,36.89744],[-85.98597,36.89529],[-85.98572,36.89572],[-85.98455,36.89531],[-85.98456,36.89507],[-85.98385,36.89517],[-85.98332,36.89615],[-85.98288,36.89617],[-85.98282,36.89626],[-85.9827,36.89621]]]}},{"type":"Feature","properties":{"NAME":"Cascade Caverns State Nature Preserve","TYPE":"State Nature Preserve","ACCESS":"Open","URL":"https://eec.ky.gov/Nature-Preserves/Locations/Pages/Carter-Caves.aspx"},"geometry":{"type":"Polygon","coordinates":[[[-83.1084,38.35824],[-83.1084,38.35846],[-83.10813,38.35888],[-83.10881,38.35846],[-83.10991,38.35823],[-83.11136,38.35848],[-83.11173,38.35841],[-83.11192,38.35812],[-83.11307,38.35795],[-83.11437,38.35799],[-83.1145,38.35755],[-83.1145,38.35725],[-83.1144,38.35593],[-83.11419,38.35544],[-83.11395,38.35538],[-83.11403,38.35603],[-83.11396,38.35619],[-83.11374,38.35634],[-83.11325,38.35651],[-83.11196,38.35658],[-83.11161,38.35645],[-83.11145,38.35624],[-83.11082,38.35655],[-83.11081,38.35676],[-83.11072,38.35693],[-83.11057,38.35703],[-83.10895,38.35783],[-83.10844,38.358],[-83.1084,38.35824]]]}},{"type":"Feature","properties":{"NAME":"Crooked Creek State Nature Preserve","TYPE":"State Nature Preserve","ACCESS":"Open","URL":"https://eec.ky.gov/Nature-Preserves/Locations/Pages/Crooked-Creek.aspx"},"geometry":{"type":"Polygon","coordinates":[[[-83.55609,38.65707],[-83.55637,38.65624],[-83.55539,38.65627],[-83.55453,38.65232],[-83.55488,38.65218],[-83.5564,38.6509],[-83.55686,38.65068],[-83.55815,38.65028],[-83.55932,38.64978],[-83.55913,38.64936],[-83.55823,38.64794],[-83.55873,38.64727],[-83.55893,38.6471],[-83.55953,38.64689],[-83.55998,38.64716],[-83.56049,38.64736],[-83.56177,38.64763],[-83.56192,38.64703],[-83.562,38.64683],[-83.56208,38.64679],[-83.56359,38.64688],[-83.56404,38.64699],[-83.56418,38.64692],[-83.56451,38.6474],[-83.56504,38.64865],[-83.56525,38.6489],[-83.56603,38.6495],[-83.56748,38.64815],[-83.56858,38.64774],[-83.56884,38.64776],[-83.56962,38.64737],[-83.57062,38.64674],[-83.57216,38.64606],[-83.57257,38.64633],[-83.5728,38.64681],[-83.57341,38.64766],[-83.57345,38.64782],[-83.57606,38.64745],[-83.57725,38.64719],[-83.57847,38.64847],[-83.57878,38.64887],[-83.5789,38.64883],[-83.57901,38.64869],[-83.57894,38.64854],[-83.57928,38.6483],[-83.58099,38.64739],[-83.5798,38.64551],[-83.57967,38.64549],[-83.57949,38.64477],[-83.57975,38.64474],[-83.57981,38.6445],[-83.57986,38.6445],[-83.57993,38.64433],[-83.57995,38.64413],[-83.57985,38.64391],[-83.57959,38.64371],[-83.57957,38.64359],[-83.57987,38.64333],[-83.58005,38.64298],[-83.57945,38.64263],[-83.57795,38.64208],[-83.57567,38.64151],[-83.57509,38.64146],[-83.57582,38.64261],[-83.57595,38.64296],[-83.57643,38.64361],[-83.57612,38.64424],[-83.57566,38.64544],[-83.57533,38.64542],[-83.57198,38.64447],[-83.57232,38.64196],[-83.57151,38.64173],[-83.57021,38.64103],[-83.56918,38.63998],[-83.56828,38.63938],[-83.56758,38.63901],[-83.56653,38.64151],[-83.56622,38.64159],[-83.56564,38.64193],[-83.56542,38.64231],[-83.56512,38.64262],[-83.56499,38.64281],[-83.56498,38.64302],[-83.56478,38.64322],[-83.56471,38.64354],[-83.56475,38.64369],[-83.56439,38.64423],[-83.56425,38.64483],[-83.56406,38.64511],[-83.5638,38.64527],[-83.5637,38.6455],[-83.5633,38.64517],[-83.56275,38.64513],[-83.56264,38.64451],[-83.56241,38.64407],[-83.56123,38.64261],[-83.56058,38.64156],[-83.56024,38.64126],[-83.55996,38.64067],[-83.55929,38.64117],[-83.55899,38.64132],[-83.55894,38.64146],[-83.55621,38.64366],[-83.55461,38.64272],[-83.55394,38.64296],[-83.55304,38.64341],[-83.55187,38.64377],[-83.55144,38.644],[-83.55009,38.64453],[-83.54916,38.64512],[-83.5492,38.64521],[-83.54785,38.64561],[-83.54678,38.64646],[-83.54611,38.64683],[-83.54474,38.64802],[-83.54752,38.64903],[-83.54693,38.64957],[-83.54752,38.64983],[-83.54695,38.6508],[-83.54628,38.65138],[-83.54478,38.65431],[-83.54241,38.65591],[-83.54337,38.65685],[-83.54351,38.65719],[-83.54387,38.65751],[-83.54436,38.65776],[-83.5456,38.65879],[-83.54692,38.66016],[-83.54743,38.66318],[-83.5487,38.66265],[-83.55023,38.66191],[-83.55132,38.66149],[-83.55193,38.66136],[-83.55172,38.66014],[-83.55412,38.66031],[-83.55609,38.66084],[-83.55569,38.66061],[-83.55519,38.66045],[-83.55506,38.66019],[-83.55454,38.65987],[-83.55452,38.65955],[-83.55475,38.65909],[-83.55476,38.6589],[-83.55474,38.65884],[-83.55456,38.659],[-83.55438,38.65901],[-83.55438,38.65896],[-83.55432,38.65897],[-83.5543,38.65879],[-83.55447,38.65879],[-83.55448,38.65896],[-83.55442,38.65897],[-83.55454,38.65897],[-83.55477,38.65879],[-83.5548,38.65906],[-83.55456,38.65956],[-83.55458,38.65985],[-83.55509,38.66017],[-83.55523,38.66042],[-83.55571,38.66058],[-83.55613,38.66084],[-83.55668,38.66082],[-83.55682,38.66024],[-83.55679,38.66002],[-83.55685,38.65978],[-83.55684,38.65953],[-83.55671,38.65927],[-83.55674,38.65918],[-83.55689,38.65898],[-83.55714,38.65882],[-83.55744,38.65878],[-83.55762,38.65866],[-83.55757,38.65842],[-83.55778,38.65808],[-83.55604,38.65737],[-83.55609,38.65707]]]}},{"type":"Feature","properties":{"NAME":"Cumberland Falls State Park State Nature Preserve","TYPE":"State Nature Preserve","ACCESS":"Open","URL":"https://eec.ky.gov/Nature-Preserves/Locations/Pages/Cumberland-Falls.aspx"},"geometry":{"type":"Polygon","coordinates":[[[-84.36456,36.84688],[-84.36683,36.84821],[-84.36578,36.85207],[-84.36248,36.85231],[-84.36171,36.85496],[-84.36083,36.8565],[-84.36415,36.85728],[-84.3651,36.85861],[-84.36528,36.85914],[-84.3687,36.85789],[-84.36817,36.85744],[-84.37342,36.85169],[-84.36801,36.84875],[-84.36827,36.84422],[-84.36728,36.84415],[-84.36737,36.84291],[-84.36481,36.84319],[-84.36436,36.84497],[-84.36144,36.8442],[-84.36204,36.84342],[-84.36159,36.84189],[-84.36416,36.84205],[-84.36475,36.84252],[-84.36672,36.84187],[-84.3675,36.84194],[-84.36857,36.83026],[-84.36558,36.83022],[-84.36438,36.83184],[-84.36401,36.83437],[-84.36313,36.83562],[-84.36163,36.83675],[-84.36038,36.83686],[-84.3595,36.83654],[-84.35876,36.83701],[-84.35783,36.83718],[-84.35399,36.84171],[-84.35279,36.84179],[-84.34909,36.84116],[-84.34809,36.84066],[-84.34833,36.83697],[-84.34628,36.83719],[-84.34476,36.8366],[-84.34703,36.83641],[-84.34711,36.83628],[-84.34695,36.83627],[-84.34769,36.83505],[-84.34788,36.83484],[-84.34697,36.83123],[-84.34631,36.83091],[-84.34413,36.82905],[-84.34328,36.82878],[-84.34309,36.8284],[-84.34288,36.82825],[-84.34008,36.82783],[-84.33895,36.82794],[-84.338,36.82873],[-84.33632,36.82821],[-84.33103,36.82908],[-84.3295,36.82771],[-84.32883,36.82672],[-84.3203,36.83031],[-84.32506,36.83559],[-84.32559,36.83692],[-84.32653,36.83705],[-84.32873,36.8376],[-84.33039,36.83834],[-84.33228,36.83873],[-84.33318,36.83879],[-84.33469,36.83866],[-84.33552,36.83846],[-84.33633,36.83814],[-84.33815,36.83707],[-84.33914,36.83662],[-84.33989,36.83644],[-84.34059,36.83636],[-84.34129,36.83636],[-84.34197,36.83647],[-84.3433,36.83709],[-84.34393,36.83758],[-84.34421,36.83815],[-84.34436,36.83883],[-84.34381,36.83936],[-84.34371,36.83995],[-84.34374,36.84053],[-84.34366,36.84105],[-84.34315,36.84138],[-84.34267,36.84181],[-84.34262,36.84302],[-84.3424,36.84353],[-84.34193,36.84407],[-84.34141,36.84439],[-84.34058,36.84474],[-84.33996,36.84492],[-84.33902,36.84489],[-84.33883,36.8472],[-84.33899,36.84855],[-84.34343,36.84693],[-84.34612,36.84758],[-84.3483,36.84713],[-84.35002,36.84607],[-84.35017,36.84467],[-84.35114,36.84461],[-84.36062,36.84648],[-84.36066,36.84801],[-84.35953,36.84919],[-84.36193,36.84973],[-84.36196,36.84845],[-84.36262,36.84764],[-84.36282,36.84645],[-84.36421,36.84613],[-84.36456,36.84688]]]}},{"type":"Feature","properties":{"NAME":"Dinsmore Woods State Nature Preserve","TYPE":"State Nature Preserve","ACCESS":"Open","URL":"https://eec.ky.gov/Nature-Preserves/Locations/Pages/Boone-County-Cliffs.aspx"},"geometry":{"type":"Polygon","coordinates":[[[-84.81118,39.00654],[-84.81122,39.00679],[-84.81118,39.00704],[-84.81095,39.00741],[-84.8185,39.007],[-84.8186,39.00508],[-84.82006,39.00409],[-84.81663,38.99858],[-84.81379,38.99966],[-84.81441,39.00063],[-84.81518,39.00022],[-84.81548,39.00044],[-84.81492,39.00103],[-84.81407,39.00165],[-84.81382,39.00193],[-84.81377,39.00273],[-84.8136,39.00315],[-84.81357,39.00358],[-84.8135,39.00359],[-84.81328,39.00392],[-84.813,39.00473],[-84.81292,39.00516],[-84.8126,39.00551],[-84.81086,39.0052],[-84.81091,39.00561],[-84.81118,39.00654]]]}},{"type":"Feature","properties":{"NAME":"E. Lucy Braun State Park State Nature Preserve","TYPE":"State Nature Preserve","ACCESS":"Open","URL":"https://eec.ky.gov/Nature-Preserves/Locations/Pages/E.-Lucy-Braun.aspx"},"geometry":{"type":"Polygon","coordinates":[[[-83.13533,36.95751],[-83.13518,36.95681],[-83.13436,36.95454],[-83.08446,36.96181],[-83.08672,36.96358],[-83.08735,36.96546],[-83.08814,36.96598],[-83.0892,36.96645],[-83.09132,36.96875],[-83.09744,36.96583],[-83.09757,36.96671],[-83.09805,36.96736],[-83.09838,36.96797],[-83.1046,36.96659],[-83.10513,36.96275],[-83.10628,36.96358],[-83.13533,36.95751]]]}},{"type":"Feature","properties":{"NAME":"Floracliff Nature Sanctuary","TYPE":"State Nature Preserve","ACCESS":"Restricted","URL":"https://eec.ky.gov/Nature-Preserves/Locations/Pages/Floracliff.aspx"},"geometry":{"type":"Polygon","coordinates":[[[-84.36358,37.91057],[-84.37115,37.90793],[-84.37061,37.9071],[-84.37029,37.90618],[-84.37165,37.906],[-84.37254,37.90556],[-84.3725,37.90532],[-84.37266,37.90465],[-84.37322,37.90295],[-84.37344,37.90246],[-84.37481,37.90263],[-84.37477,37.9019],[-84.37424,37.90178],[-84.37231,37.90107],[-84.37118,37.90057],[-84.36973,37.8998],[-84.36931,37.89951],[-84.36681,37.89844],[-84.36608,37.89829],[-84.36572,37.89799],[-84.36551,37.89834],[-84.3651,37.89866],[-84.36492,37.89894],[-84.36466,37.89905],[-84.36583,37.8975],[-84.36494,37.89712],[-84.36413,37.89665],[-84.36293,37.89546],[-84.35877,37.8968],[-84.35994,37.89759],[-84.3602,37.89814],[-84.36005,37.89826],[-84.36,37.89924],[-84.36005,37.89954],[-84.3599,37.89982],[-84.3598,37.90123],[-84.35791,37.9016],[-84.35903,37.90485],[-84.35991,37.90683],[-84.36065,37.90775],[-84.36095,37.90792],[-84.36108,37.90834],[-84.36156,37.90921],[-84.36253,37.91027],[-84.36303,37.90998],[-84.36358,37.91057]]]}},{"type":"Feature","properties":{"NAME":"James E. Bickford State Nature Preserve","TYPE":"State Nature Preserve","ACCESS":"Open","URL":"https://eec.ky.gov/Nature-Preserves/Locations/Pages/James-E.-Bickford.aspx"},"geometry":{"type":"Polygon","coordinates":[[[-83.17247,36.95171],[-83.17238,36.95191],[-83.17234,36.95254],[-83.17153,36.95343],[-83.17224,36.95458],[-83.17246,36.95461],[-83.17265,36.95472],[-83.173,36.95461],[-83.17313,36.95466],[-83.17317,36.95451],[-83.17304,36.95374],[-83.1741,36.95357],[-83.1742,36.95447],[-83.17451,36.95445],[-83.1745,36.95466],[-83.17549,36.95456],[-83.1758,36.95446],[-83.17605,36.95428],[-83.17629,36.95388],[-83.17572,36.95353],[-83.17593,36.95335],[-83.17589,36.95294],[-83.17557,36.95233],[-83.17592,36.9516],[-83.17705,36.95132],[-83.17743,36.9511],[-83.17803,36.95088],[-83.17838,36.9515],[-83.17852,36.95199],[-83.17839,36.95213],[-83.17857,36.95229],[-83.1788,36.9521],[-83.17911,36.95198],[-83.17945,36.95166],[-83.17888,36.95128],[-83.17876,36.95113],[-83.17878,36.95088],[-83.17916,36.95076],[-83.17937,36.95032],[-83.17979,36.9499],[-83.17913,36.9497],[-83.18019,36.94917],[-83.18034,36.94927],[-83.18072,36.94884],[-83.18052,36.9486],[-83.1812,36.94803],[-83.18147,36.94803],[-83.18165,36.94768],[-83.18154,36.9473],[-83.18128,36.94704],[-83.18109,36.94664],[-83.18021,36.9462],[-83.18127,36.94541],[-83.18152,36.94597],[-83.18202,36.94598],[-83.18243,36.94617],[-83.1827,36.94576],[-83.1833,36.94541],[-83.18408,36.94545],[-83.18465,36.9453],[-83.18536,36.9449],[-83.18676,36.94643],[-83.18737,36.94587],[-83.18776,36.94533],[-83.18818,36.94517],[-83.18777,36.94465],[-83.18802,36.9441],[-83.18997,36.94274],[-83.19,36.94256],[-83.19113,36.94184],[-83.18877,36.93652],[-83.18791,36.93669],[-83.18671,36.93763],[-83.18606,36.93783],[-83.18566,36.93817],[-83.18515,36.93835],[-83.18491,36.93853],[-83.18451,36.93863],[-83.18373,36.93932],[-83.18286,36.93989],[-83.18211,36.94053],[-83.18186,36.94065],[-83.18137,36.94113],[-83.18023,36.94164],[-83.17997,36.94182],[-83.1794,36.94189],[-83.17842,36.94253],[-83.17798,36.94264],[-83.17772,36.94292],[-83.17712,36.94304],[-83.17673,36.94337],[-83.17566,36.944],[-83.17567,36.94424],[-83.17511,36.94479],[-83.17468,36.9449],[-83.17421,36.94511],[-83.17405,36.94535],[-83.17372,36.94564],[-83.17268,36.94615],[-83.17106,36.94658],[-83.17068,36.94679],[-83.17003,36.94688],[-83.16981,36.94683],[-83.17045,36.9481],[-83.17247,36.95171]]]}},{"type":"Feature","properties":{"NAME":"Jesse Stuart State Nature Preserve","TYPE":"State Nature Preserve","ACCESS":"Open","URL":"https://eec.ky.gov/Nature-Preserves/Locations/Pages/Jesse-Stuart.aspx"},"geometry":{"type":"Polygon","coordinates":[[[-82.83499,38.55261],[-82.83522,38.55297],[-82.83222,38.55501],[-82.83281,38.55531],[-82.83308,38.55583],[-82.83298,38.5569],[-82.83328,38.55719],[-82.83498,38.55849],[-82.83523,38.55929],[-82.83667,38.55922],[-82.83683,38.55945],[-82.83686,38.55982],[-82.83639,38.5614],[-82.83888,38.56294],[-82.83933,38.56298],[-82.83962,38.56317],[-82.83988,38.56351],[-82.84145,38.56404],[-82.84129,38.5636],[-82.84091,38.56203],[-82.84083,38.56132],[-82.84112,38.56109],[-82.84098,38.5604],[-82.84059,38.56021],[-82.84062,38.55931],[-82.84093,38.55827],[-82.84116,38.55775],[-82.84189,38.55747],[-82.84384,38.55692],[-82.84419,38.5565],[-82.84419,38.55601],[-82.84397,38.55466],[-82.84335,38.55374],[-82.84308,38.55321],[-82.84358,38.5527],[-82.84566,38.55224],[-82.84662,38.55222],[-82.84716,38.5523],[-82.8483,38.55265],[-82.84906,38.55366],[-82.84965,38.55425],[-82.85092,38.55499],[-82.85215,38.55584],[-82.85235,38.55616],[-82.85306,38.55688],[-82.85369,38.55741],[-82.85478,38.55686],[-82.85496,38.55631],[-82.85479,38.55558],[-82.8545,38.55516],[-82.85405,38.55472],[-82.85294,38.55388],[-82.85225,38.55354],[-82.8518,38.55323],[-82.85145,38.55282],[-82.85135,38.55229],[-82.85018,38.55081],[-82.84958,38.55044],[-82.84884,38.55023],[-82.84767,38.54966],[-82.8463,38.54848],[-82.8454,38.54762],[-82.84495,38.54705],[-82.84424,38.54642],[-82.84378,38.5462],[-82.8433,38.54625],[-82.8421,38.54666],[-82.84141,38.54681],[-82.83848,38.54699],[-82.83725,38.54695],[-82.83671,38.54704],[-82.83398,38.54567],[-82.83417,38.54536],[-82.83398,38.54402],[-82.8337,38.54333],[-82.82954,38.53928],[-82.82877,38.53964],[-82.82854,38.53879],[-82.82632,38.54174],[-82.82298,38.53841],[-82.8225,38.53903],[-82.82276,38.53927],[-82.82277,38.54031],[-82.82287,38.54094],[-82.82309,38.54124],[-82.82257,38.54179],[-82.82064,38.54028],[-82.8204,38.54053],[-82.82048,38.54089],[-82.82066,38.54123],[-82.82163,38.54214],[-82.82138,38.54242],[-82.82183,38.54263],[-82.82151,38.54369],[-82.82189,38.54354],[-82.82273,38.54356],[-82.82386,38.54367],[-82.82428,38.5439],[-82.8234,38.54512],[-82.8228,38.54487],[-82.82209,38.54519],[-82.8218,38.54478],[-82.82123,38.54437],[-82.82144,38.5438],[-82.82099,38.54346],[-82.82046,38.5438],[-82.8199,38.54344],[-82.82022,38.54311],[-82.81884,38.54202],[-82.81844,38.54184],[-82.81811,38.54182],[-82.81887,38.54321],[-82.81646,38.54242],[-82.81605,38.54355],[-82.81597,38.54454],[-82.816,38.54539],[-82.81702,38.54519],[-82.81696,38.54586],[-82.8175,38.54592],[-82.81758,38.54611],[-82.81954,38.54698],[-82.81968,38.54824],[-82.81954,38.54822],[-82.81992,38.5494],[-82.81757,38.55013],[-82.81764,38.552],[-82.81821,38.55265],[-82.81891,38.55244],[-82.81955,38.55232],[-82.82015,38.55232],[-82.82087,38.55214],[-82.82142,38.55175],[-82.82212,38.5506],[-82.82234,38.55007],[-82.82273,38.54806],[-82.82379,38.54916],[-82.82368,38.5496],[-82.82644,38.55285],[-82.82771,38.55124],[-82.82818,38.55146],[-82.82849,38.55104],[-82.82828,38.55056],[-82.82771,38.54854],[-82.82743,38.54872],[-82.82759,38.54839],[-82.82754,38.54717],[-82.82717,38.54665],[-82.82712,38.54627],[-82.82731,38.54598],[-82.82884,38.54643],[-82.8303,38.54668],[-82.83036,38.547],[-82.83159,38.547],[-82.83331,38.54883],[-82.83611,38.55021],[-82.83583,38.55064],[-82.8349,38.55159],[-82.83499,38.55261]],[[-82.83622,38.5554],[-82.83685,38.55556],[-82.83718,38.55621],[-82.83655,38.55676],[-82.83592,38.55627],[-82.83597,38.55574],[-82.83622,38.5554]],[[-82.83631,38.54941],[-82.83634,38.54882],[-82.83587,38.54758],[-82.83566,38.54741],[-82.83676,38.54706],[-82.83827,38.54825],[-82.83807,38.54982],[-82.83773,38.55014],[-82.83781,38.55064],[-82.83818,38.55083],[-82.83781,38.55108],[-82.83661,38.55026],[-82.83615,38.5502],[-82.83631,38.54941]],[[-82.81686,38.54418],[-82.81675,38.54355],[-82.81733,38.54355],[-82.81725,38.54415],[-82.81686,38.54418]]]}},{"type":"Feature","properties":{"NAME":"John B. Stephenson Memorial Forest State Nature Preserve","TYPE":"State Nature Preserve","ACCESS":"Open","URL":"https://eec.ky.gov/Nature-Preserves/Locations/Pages/John-B.-Stephenson-Memorial-Forest.aspx"},"geometry":{"type":"Polygon","coordinates":[[[-84.21644,37.49883],[-84.2174,37.49894],[-84.21807,37.49887],[-84.21852,37.49881],[-84.21913,37.49856],[-84.21946,37.4985],[-84.22051,37.49814],[-84.22078,37.49798],[-84.22106,37.49749],[-84.22142,37.49714],[-84.22255,37.49721],[-84.22273,37.49745],[-84.22272,37.49799],[-84.22214,37.49866],[-84.22328,37.4987],[-84.22375,37.4989],[-84.22413,37.49891],[-84.22436,37.49876],[-84.22509,37.49795],[-84.22529,37.49747],[-84.22513,37.49709],[-84.22534,37.49681],[-84.22675,37.49689],[-84.22724,37.49663],[-84.22768,37.49653],[-84.22819,37.49659],[-84.22839,37.49677],[-84.22812,37.49553],[-84.22777,37.49509],[-84.22742,37.49423],[-84.22741,37.49384],[-84.22684,37.49413],[-84.22633,37.49343],[-84.22729,37.49235],[-84.22759,37.49164],[-84.22729,37.49137],[-84.2272,37.49112],[-84.22547,37.49045],[-84.22538,37.49057],[-84.22506,37.49063],[-84.22514,37.49235],[-84.22435,37.49293],[-84.2227,37.49287],[-84.22175,37.49363],[-84.22112,37.49385],[-84.22092,37.49401],[-84.21935,37.49469],[-84.21901,37.49491],[-84.21893,37.49504],[-84.21845,37.4954],[-84.218,37.49585],[-84.21724,37.49603],[-84.21649,37.49657],[-84.21619,37.497],[-84.21573,37.49729],[-84.21566,37.4974],[-84.2156,37.49784],[-84.21592,37.49802],[-84.21644,37.49883]]]}},{"type":"Feature","properties":{"NAME":"John James Audubon State Park State Nature Preserve","TYPE":"State Nature Preserve","ACCESS":"Open","URL":"https://eec.ky.gov/Nature-Preserves/Locations/Pages/Audubon-State-Park.aspx"},"geometry":{"type":"Polygon","coordinates":[[[-87.54589,37.88565],[-87.5453,37.88719],[-87.54656,37.88812],[-87.54666,37.88986],[-87.54815,37.89047],[-87.54709,37.89125],[-87.5482,37.89167],[-87.55052,37.89224],[-87.55114,37.89229],[-87.55172,37.89218],[-87.55212,37.89196],[-87.55293,37.89105],[-87.55375,37.89026],[-87.55645,37.88913],[-87.55709,37.88832],[-87.55788,37.88756],[-87.55745,37.88731],[-87.55832,37.8862],[-87.5582,37.88614],[-87.55877,37.88549],[-87.55673,37.88436],[-87.55665,37.88424],[-87.55296,37.88126],[-87.55073,37.88094],[-87.54871,37.88133],[-87.54576,37.8796],[-87.54528,37.88011],[-87.54084,37.87773],[-87.53987,37.87868],[-87.53935,37.87943],[-87.53829,37.88061],[-87.54116,37.88225],[-87.54302,37.8818],[-87.54258,37.887],[-87.54368,37.88761],[-87.54578,37.88531],[-87.54589,37.88565]]]}},{"type":"Feature","properties":{"NAME":"Kingdom Come State Park State Nature Preserve","TYPE":"State Nature Preserve","ACCESS":"Open","URL":"https://eec.ky.gov/Nature-Preserves/Locations/Pages/Kingdom-Come.aspx"},"geometry":{"type":"Polygon","coordinates":[[[-82.95954,37.00778],[-82.96304,37.01137],[-82.96331,37.00642],[-82.96951,37.00532],[-82.96991,37.00502],[-82.97084,37.0047],[-82.97218,37.00444],[-82.97225,37.00305],[-82.97446,37.0021],[-82.97471,37.0019],[-82.9758,37.0016],[-82.9763,37.00253],[-82.97928,37.00199],[-82.97932,37.00076],[-82.98098,37.00039],[-82.98323,37.00041],[-82.9846,37.00069],[-82.98455,37.00128],[-82.98486,37.00208],[-82.98599,37.00149],[-82.98581,37.00126],[-82.98603,37.00123],[-82.98598,37.00101],[-82.98919,37.0003],[-82.9892,36.99967],[-82.99013,36.99929],[-82.99367,36.99889],[-82.9913,36.99686],[-82.99165,36.99663],[-82.99177,36.99641],[-82.99111,36.9966],[-82.99062,36.99685],[-82.98875,36.99722],[-82.98772,36.99755],[-82.98708,36.99768],[-82.98687,36.99766],[-82.98641,36.99743],[-82.98578,36.99766],[-82.98534,36.99772],[-82.9836,36.99779],[-82.98289,36.9977],[-82.98217,36.99787],[-82.98155,36.9979],[-82.98075,36.99804],[-82.97907,36.99797],[-82.97793,36.99816],[-82.97798,36.99841],[-82.97719,36.99892],[-82.97627,36.99922],[-82.97528,36.99938],[-82.97488,36.99923],[-82.97373,36.99982],[-82.97205,37.00022],[-82.97086,37.00069],[-82.95954,37.00778]]]}},{"type":"Feature","properties":{"NAME":"Livingston County Wildlife Management Area and State Nature Preserve (Bissell Bluff SNP)","TYPE":"State Nature Preserve/WMA","ACCESS":"Open","URL":"https://eec.ky.gov/Nature-Preserves/Locations/Pages/Livingston-County.aspx"},"geometry":{"type":"Polygon","coordinates":[[[-88.35553,37.22172],[-88.35559,37.22173],[-88.35603,37.22014],[-88.35611,37.22017],[-88.35613,37.22012],[-88.35689,37.21772],[-88.34636,37.21604],[-88.34591,37.21445],[-88.34542,37.21302],[-88.34465,37.21172],[-88.34367,37.21126],[-88.34625,37.20956],[-88.35093,37.20725],[-88.35538,37.20566],[-88.35821,37.20525],[-88.35965,37.20385],[-88.35962,37.20336],[-88.35898,37.20292],[-88.35624,37.20176],[-88.3512,37.19904],[-88.34736,37.20337],[-88.34634,37.20378],[-88.34565,37.20508],[-88.34063,37.20568],[-88.34037,37.20631],[-88.3401,37.20617],[-88.33987,37.20615],[-88.3394,37.20623],[-88.33935,37.2071],[-88.33841,37.20681],[-88.33652,37.20704],[-88.33623,37.20768],[-88.33543,37.20874],[-88.33517,37.20923],[-88.33426,37.21032],[-88.3363,37.21163],[-88.33585,37.21265],[-88.33486,37.21204],[-88.33371,37.21205],[-88.33345,37.21217],[-88.33336,37.21252],[-88.3339,37.2137],[-88.33518,37.2138],[-88.34071,37.21663],[-88.34158,37.21796],[-88.34156,37.21805],[-88.33985,37.21962],[-88.34089,37.22017],[-88.34121,37.22001],[-88.34154,37.21997],[-88.34199,37.21963],[-88.34214,37.21927],[-88.34257,37.21902],[-88.34516,37.21944],[-88.34738,37.21994],[-88.35056,37.22072],[-88.35257,37.2214],[-88.35553,37.22172]]]}},{"type":"Feature","properties":{"NAME":"Livingston County Wildlife Management Area and State Nature Preserve (Newman's Bluff SNP)","TYPE":"State Nature Preserve/WMA","ACCESS":"Open","URL":"https://eec.ky.gov/Nature-Preserves/Locations/Pages/Livingston-County.aspx"},"geometry":{"type":"Polygon","coordinates":[[[-88.41613,37.33595],[-88.41513,37.33886],[-88.41862,37.34005],[-88.42088,37.33718],[-88.42225,37.33481],[-88.42101,37.33082],[-88.42278,37.3285],[-88.42559,37.32569],[-88.42852,37.32741],[-88.43481,37.32238],[-88.43557,37.32135],[-88.43249,37.3188],[-88.43171,37.31904],[-88.43057,37.31863],[-88.43067,37.31793],[-88.43176,37.31648],[-88.4312,37.3163],[-88.43326,37.31301],[-88.433,37.31288],[-88.43662,37.30927],[-88.43582,37.30868],[-88.43551,37.30835],[-88.43514,37.30779],[-88.43456,37.30662],[-88.43435,37.3065],[-88.4343,37.30621],[-88.41259,37.3178],[-88.41355,37.3184],[-88.41613,37.3181],[-88.41809,37.31882],[-88.41967,37.31893],[-88.42088,37.3192],[-88.42035,37.31976],[-88.42147,37.32072],[-88.41884,37.32333],[-88.41783,37.32536],[-88.41777,37.32636],[-88.4154,37.32676],[-88.4114,37.32716],[-88.40978,37.32725],[-88.40788,37.32665],[-88.40719,37.32487],[-88.40509,37.32602],[-88.40624,37.32979],[-88.40811,37.33714],[-88.41615,37.33589],[-88.41613,37.33595]]]}},{"type":"Feature","properties":{"NAME":"Logan County Glade State Nature Preserve","TYPE":"State Nature Preserve","ACCESS":"Open","URL":"https://eec.ky.gov/Nature-Preserves/Locations/Pages/Logan-County-Glade.aspx"},"geometry":{"type":"Polygon","coordinates":[[[-86.87432,36.84753],[-86.87379,36.84651],[-86.87296,36.84549],[-86.87182,36.84461],[-86.87127,36.84448],[-86.87077,36.84419],[-86.87072,36.844],[-86.87063,36.84393],[-86.86901,36.84524],[-86.8689,36.84621],[-86.86889,36.84694],[-86.86869,36.84768],[-86.86868,36.84818],[-86.87274,36.84843],[-86.87432,36.84753]]]}},{"type":"Feature","properties":{"NAME":"Lower Howards Creek State Nature Preserve","TYPE":"State Nature Preserve","ACCESS":"Open","URL":"https://eec.ky.gov/Nature-Preserves/Locations/Pages/Lower-Howard's-Creek-Heritage-Park.aspx"},"geometry":{"type":"Polygon","coordinates":[[[-84.27701,37.92111],[-84.27521,37.92143],[-84.27532,37.92114],[-84.27519,37.92098],[-84.2751,37.92098],[-84.27487,37.9208],[-84.27484,37.92036],[-84.27488,37.92022],[-84.27502,37.92016],[-84.27501,37.92005],[-84.27509,37.92004],[-84.27513,37.91938],[-84.27518,37.91936],[-84.27517,37.91898],[-84.27485,37.9185],[-84.27376,37.91871],[-84.27421,37.91917],[-84.27427,37.91946],[-84.27419,37.91958],[-84.27387,37.91977],[-84.27363,37.91981],[-84.27327,37.91952],[-84.27301,37.91876],[-84.27277,37.91872],[-84.27039,37.91936],[-84.26917,37.91962],[-84.26938,37.92042],[-84.26857,37.92056],[-84.26875,37.92109],[-84.26913,37.92175],[-84.27049,37.92317],[-84.27031,37.92412],[-84.27042,37.92442],[-84.27023,37.9245],[-84.27021,37.92458],[-84.2705,37.92456],[-84.27025,37.92799],[-84.27107,37.92827],[-84.27141,37.92879],[-84.27194,37.92982],[-84.27186,37.93011],[-84.27204,37.93093],[-84.27303,37.9309],[-84.27374,37.93095],[-84.27378,37.9307],[-84.27754,37.93151],[-84.27749,37.93006],[-84.27836,37.9299],[-84.27883,37.92944],[-84.27909,37.9287],[-84.27904,37.92843],[-84.28035,37.92878],[-84.27961,37.92705],[-84.27993,37.92633],[-84.27899,37.92609],[-84.27873,37.92591],[-84.27874,37.92575],[-84.27895,37.92545],[-84.27955,37.92485],[-84.2798,37.92448],[-84.2799,37.92406],[-84.27975,37.92363],[-84.27937,37.92313],[-84.27885,37.92313],[-84.27701,37.92111]]]}},{"type":"Feature","properties":{"NAME":"Metropolis Lake State Nature Preserve","TYPE":"State Nature Preserve","ACCESS":"Open","URL":"https://eec.ky.gov/Nature-Preserves/Locations/Pages/Metropolis-Lake.aspx"},"geometry":{"type":"Polygon","coordinates":[[[-88.76476,37.14325],[-88.76423,37.14352],[-88.76397,37.14334],[-88.76319,37.14392],[-88.76183,37.1443],[-88.76034,37.14497],[-88.76411,37.14802],[-88.76655,37.14939],[-88.76978,37.15097],[-88.77284,37.14853],[-88.77307,37.14801],[-88.77233,37.14642],[-88.76695,37.14397],[-88.76666,37.14439],[-88.76591,37.1442],[-88.7659,37.14375],[-88.76476,37.14325]]]}},{"type":"Feature","properties":{"NAME":"Natural Bridge State Park State Nature Preserve","TYPE":"State Nature Preserve","ACCESS":"Open","URL":"https://eec.ky.gov/Nature-Preserves/Locations/Pages/Natural-Bridge.aspx"},"geometry":{"type":"MultiPolygon","coordinates":[[[[-83.69865,37.78364],[-83.69926,37.78369],[-83.69989,37.78406],[-83.70051,37.78433],[-83.70079,37.78457],[-83.7013,37.78474],[-83.70168,37.78467],[-83.70261,37.78409],[-83.70376,37.78399],[-83.70477,37.78353],[-83.70585,37.78365],[-83.70646,37.78347],[-83.70695,37.78348],[-83.70785,37.78377],[-83.70817,37.78383],[-83.70844,37.78379],[-83.70922,37.78322],[-83.70957,37.78261],[-83.70986,37.78234],[-83.71141,37.78173],[-83.71185,37.78146],[-83.71197,37.78127],[-83.71177,37.78104],[-83.71121,37.78062],[-83.71017,37.78014],[-83.70947,37.78011],[-83.70921,37.78002],[-83.70897,37.77987],[-83.70879,37.7796],[-83.70878,37.77921],[-83.70898,37.779],[-83.70992,37.77841],[-83.71099,37.7776],[-83.71108,37.77731],[-83.71042,37.77644],[-83.70979,37.77588],[-83.70913,37.77567],[-83.70866,37.77541],[-83.70791,37.77484],[-83.70763,37.77447],[-83.7074,37.77428],[-83.7072,37.77419],[-83.70603,37.77405],[-83.70585,37.77393],[-83.70579,37.77374],[-83.70541,37.77315],[-83.70482,37.77288],[-83.70468,37.77267],[-83.7047,37.7724],[-83.70487,37.77213],[-83.70612,37.77104],[-83.70622,37.77023],[-83.70638,37.76982],[-83.70663,37.76963],[-83.70747,37.76931],[-83.7076,37.76916],[-83.70774,37.76873],[-83.70773,37.76793],[-83.7068,37.76774],[-83.70652,37.76752],[-83.70643,37.76734],[-83.70622,37.76639],[-83.70653,37.76566],[-83.7065,37.7654],[-83.70612,37.76483],[-83.70564,37.76438],[-83.70509,37.76371],[-83.70472,37.76344],[-83.70431,37.7633],[-83.70322,37.76333],[-83.703,37.76304],[-83.70264,37.76233],[-83.70233,37.76196],[-83.70116,37.76179],[-83.70093,37.76157],[-83.70073,37.76153],[-83.70026,37.76101],[-83.70075,37.76088],[-83.70118,37.76066],[-83.7017,37.76031],[-83.70196,37.76001],[-83.70151,37.75965],[-83.70134,37.7592],[-83.70105,37.75873],[-83.70094,37.75837],[-83.70107,37.75808],[-83.70145,37.75784],[-83.70129,37.75721],[-83.70128,37.75687],[-83.70135,37.75666],[-83.70205,37.75599],[-83.70118,37.75512],[-83.70051,37.75471],[-83.70163,37.75391],[-83.70086,37.75334],[-83.70067,37.75298],[-83.70069,37.75199],[-83.7009,37.75163],[-83.70094,37.75141],[-83.70088,37.75104],[-83.70094,37.75051],[-83.70028,37.75021],[-83.69975,37.75029],[-83.6994,37.75021],[-83.69892,37.75031],[-83.69879,37.75063],[-83.6985,37.75095],[-83.6968,37.75048],[-83.69675,37.74988],[-83.69651,37.7486],[-83.69619,37.7483],[-83.69509,37.74804],[-83.69325,37.74791],[-83.69513,37.76142],[-83.69464,37.76169],[-83.69436,37.76204],[-83.69424,37.76266],[-83.69418,37.76345],[-83.694,37.76356],[-83.69365,37.76358],[-83.69305,37.76343],[-83.69253,37.7634],[-83.69204,37.76383],[-83.69179,37.76395],[-83.69016,37.76356],[-83.68972,37.7637],[-83.68915,37.76424],[-83.68882,37.76444],[-83.68878,37.76463],[-83.68886,37.76517],[-83.68865,37.76559],[-83.68836,37.76582],[-83.68819,37.76608],[-83.68751,37.7664],[-83.6873,37.76665],[-83.68746,37.76713],[-83.68742,37.76729],[-83.68703,37.76793],[-83.687,37.76847],[-83.6861,37.76877],[-83.68593,37.76893],[-83.68581,37.7692],[-83.68579,37.77036],[-83.68537,37.7713],[-83.68481,37.77158],[-83.68443,37.77169],[-83.6838,37.77128],[-83.68325,37.77127],[-83.6826,37.77175],[-83.68219,37.77188],[-83.68181,37.77192],[-83.68161,37.77202],[-83.68123,37.77326],[-83.68105,37.77357],[-83.68086,37.7737],[-83.67949,37.77377],[-83.68079,37.7761],[-83.68611,37.77562],[-83.69022,37.78029],[-83.69411,37.78012],[-83.69623,37.78328],[-83.69679,37.78326],[-83.69753,37.78354],[-83.69832,37.78351],[-83.69865,37.78364]]],[[[-83.69305,37.74652],[-83.69322,37.74645],[-83.69339,37.74616],[-83.69329,37.74593],[-83.69294,37.74569],[-83.69305,37.74652]]]]}},{"type":"Feature","properties":{"NAME":"Pilot Knob State Nature Preserve","TYPE":"State Nature Preserve","ACCESS":"Open","URL":"https://eec.ky.gov/Nature-Preserves/Locations/Pages/Pilot-Knob.aspx"},"geometry":{"type":"Polygon","coordinates":[[[-83.93569,37.92044],[-83.94036,37.91922],[-83.94017,37.91941],[-83.94035,37.91953],[-83.94498,37.9181],[-83.94501,37.91777],[-83.94557,37.91705],[-83.94548,37.91663],[-83.94548,37.91623],[-83.9446,37.9159],[-83.94425,37.91528],[-83.94467,37.91483],[-83.94498,37.91426],[-83.94411,37.91229],[-83.94396,37.9121],[-83.94367,37.91191],[-83.9434,37.9115],[-83.9427,37.91119],[-83.94177,37.91013],[-83.94129,37.90968],[-83.94083,37.90945],[-83.93998,37.90965],[-83.93918,37.90954],[-83.93823,37.90955],[-83.93796,37.9095],[-83.93852,37.90912],[-83.93935,37.9091],[-83.94004,37.90895],[-83.94039,37.90874],[-83.94077,37.90816],[-83.94098,37.90796],[-83.94198,37.90765],[-83.94231,37.90769],[-83.94256,37.9072],[-83.94368,37.9068],[-83.94445,37.90657],[-83.94578,37.90669],[-83.94685,37.90642],[-83.94561,37.90596],[-83.94427,37.90557],[-83.94469,37.90499],[-83.94465,37.9046],[-83.94497,37.90421],[-83.9434,37.90386],[-83.94347,37.90344],[-83.94387,37.90293],[-83.94374,37.90268],[-83.94392,37.90234],[-83.94387,37.90207],[-83.94369,37.90168],[-83.94435,37.9016],[-83.94474,37.90145],[-83.94503,37.90116],[-83.94515,37.90035],[-83.94447,37.90001],[-83.94347,37.90009],[-83.94313,37.89993],[-83.94284,37.89935],[-83.94273,37.8988],[-83.94265,37.89868],[-83.94223,37.89838],[-83.94168,37.89776],[-83.94151,37.89714],[-83.94144,37.89653],[-83.94046,37.8963],[-83.94004,37.89603],[-83.93907,37.8957],[-83.93886,37.896],[-83.93881,37.89618],[-83.9389,37.89671],[-83.93878,37.89709],[-83.9382,37.89757],[-83.93801,37.89784],[-83.93793,37.89827],[-83.9375,37.89861],[-83.93726,37.89945],[-83.93666,37.89998],[-83.93616,37.9],[-83.93495,37.90055],[-83.93468,37.90074],[-83.93436,37.90109],[-83.93415,37.90161],[-83.93356,37.90198],[-83.933,37.90273],[-83.93276,37.90291],[-83.93244,37.90299],[-83.92981,37.8996],[-83.92973,37.89956],[-83.92955,37.89962],[-83.92897,37.89964],[-83.92838,37.89989],[-83.92774,37.89932],[-83.9273,37.90005],[-83.92698,37.90091],[-83.92662,37.90146],[-83.92595,37.90112],[-83.92591,37.90092],[-83.92601,37.90063],[-83.92574,37.90058],[-83.92564,37.90049],[-83.92559,37.90059],[-83.92554,37.90057],[-83.92542,37.90082],[-83.92556,37.9009],[-83.92544,37.90168],[-83.92566,37.90181],[-83.92469,37.90279],[-83.92635,37.90785],[-83.92662,37.90801],[-83.92623,37.90863],[-83.9268,37.90881],[-83.92623,37.90996],[-83.92517,37.90963],[-83.92507,37.91088],[-83.92681,37.91112],[-83.9284,37.9123],[-83.92849,37.91391],[-83.93496,37.916],[-83.93569,37.92044]]]}},{"type":"Feature","properties":{"NAME":"Pine Mountain State Park State Nature Preserve","TYPE":"State Nature Preserve","ACCESS":"Open","URL":"https://eec.ky.gov/Nature-Preserves/Locations/Pages/Pine-Mountain.aspx"},"geometry":{"type":"MultiPolygon","coordinates":[[[[-83.712,36.74113],[-83.71229,36.74127],[-83.713,36.74184],[-83.7136,36.74194],[-83.71369,36.74205],[-83.71286,36.7423],[-83.71107,36.74334],[-83.71103,36.74343],[-83.71109,36.74351],[-83.7116,36.74359],[-83.71201,36.74354],[-83.7127,36.74331],[-83.71285,36.74335],[-83.71288,36.74344],[-83.71279,36.74353],[-83.71178,36.74393],[-83.71102,36.74435],[-83.7107,36.74462],[-83.7105,36.74502],[-83.71011,36.74528],[-83.71004,36.74541],[-83.70802,36.74516],[-83.69909,36.74469],[-83.69837,36.74474],[-83.69536,36.74655],[-83.69859,36.75098],[-83.70063,36.74952],[-83.70287,36.75462],[-83.7035,36.75558],[-83.72344,36.75218],[-83.72048,36.75005],[-83.72548,36.75098],[-83.7263,36.75106],[-83.72657,36.75101],[-83.72673,36.75086],[-83.72692,36.75081],[-83.72724,36.7504],[-83.72766,36.75013],[-83.72774,36.75],[-83.72826,36.74976],[-83.72944,36.74961],[-83.73183,36.74984],[-83.73272,36.74972],[-83.73325,36.74948],[-83.73412,36.74894],[-83.73484,36.74896],[-83.73632,36.74842],[-83.7374,36.74836],[-83.73803,36.74815],[-83.73849,36.74806],[-83.73913,36.74804],[-83.74049,36.7477],[-83.74085,36.74767],[-83.74181,36.74726],[-83.74228,36.74689],[-83.74388,36.74467],[-83.74515,36.74502],[-83.74851,36.74385],[-83.74636,36.7434],[-83.74582,36.74336],[-83.74529,36.74356],[-83.74514,36.74338],[-83.74513,36.74327],[-83.74406,36.74361],[-83.74123,36.74433],[-83.74021,36.74432],[-83.73903,36.74419],[-83.73862,36.7442],[-83.73745,36.74389],[-83.73674,36.7439],[-83.73601,36.74409],[-83.73529,36.74413],[-83.73456,36.74408],[-83.73384,36.74389],[-83.73327,36.74364],[-83.73157,36.74276],[-83.73087,36.74258],[-83.73012,36.74228],[-83.72836,36.74278],[-83.72738,36.74164],[-83.72689,36.74159],[-83.72771,36.74283],[-83.72267,36.74347],[-83.72125,36.74359],[-83.71728,36.74437],[-83.7143,36.74042],[-83.7125,36.74086],[-83.71165,36.74091],[-83.712,36.74113]]],[[[-83.74009,36.73781],[-83.74044,36.73791],[-83.74088,36.73787],[-83.74167,36.73773],[-83.74232,36.7375],[-83.74276,36.7375],[-83.74344,36.73763],[-83.74388,36.73762],[-83.74464,36.73734],[-83.7455,36.73719],[-83.74654,36.73727],[-83.74571,36.73139],[-83.74156,36.73215],[-83.74179,36.7322],[-83.74189,36.73234],[-83.74171,36.73258],[-83.74077,36.73312],[-83.73982,36.73337],[-83.73943,36.73358],[-83.73851,36.73459],[-83.73828,36.73492],[-83.7385,36.73512],[-83.73849,36.73572],[-83.73828,36.73618],[-83.73792,36.73657],[-83.73733,36.73686],[-83.73725,36.73706],[-83.73782,36.73704],[-83.73925,36.73727],[-83.73947,36.73734],[-83.74009,36.73781]]],[[[-83.71165,36.74091],[-83.71162,36.74091],[-83.71164,36.74094],[-83.71165,36.74091]]]]}},{"type":"Feature","properties":{"NAME":"Quiet Trails State Nature Preserve","TYPE":"State Nature Preserve","ACCESS":"Open","URL":"https://eec.ky.gov/Nature-Preserves/Locations/Pages/Quiet-Trails.aspx"},"geometry":{"type":"Polygon","coordinates":[[[-84.21767,38.55772],[-84.218,38.55827],[-84.21817,38.55896],[-84.2179,38.56016],[-84.2186,38.56086],[-84.22248,38.56103],[-84.22228,38.56279],[-84.22872,38.56236],[-84.22868,38.56198],[-84.22878,38.56108],[-84.22942,38.56025],[-84.22954,38.56012],[-84.22977,38.56003],[-84.23086,38.5598],[-84.23112,38.55963],[-84.2312,38.55943],[-84.2312,38.55919],[-84.23108,38.55901],[-84.23058,38.55874],[-84.23055,38.55836],[-84.23002,38.55813],[-84.22968,38.55774],[-84.22907,38.55744],[-84.22814,38.55753],[-84.22772,38.55742],[-84.22743,38.5571],[-84.22682,38.55607],[-84.22108,38.55555],[-84.2205,38.55542],[-84.21965,38.5554],[-84.21991,38.55387],[-84.21957,38.55409],[-84.21789,38.55462],[-84.21727,38.55519],[-84.21699,38.55526],[-84.21692,38.55502],[-84.21681,38.55496],[-84.21624,38.55532],[-84.21664,38.55636],[-84.21767,38.55772]]]}},{"type":"Feature","properties":{"NAME":"Six Mile Island State Nature Preserve","TYPE":"State Nature Preserve","ACCESS":"Open","URL":"https://eec.ky.gov/Nature-Preserves/Locations/Pages/Six-Mile-Island.aspx"},"geometry":{"type":"Polygon","coordinates":[[[-85.65989,38.31772],[-85.66025,38.3177],[-85.66072,38.31751],[-85.66126,38.3172],[-85.66185,38.31673],[-85.66299,38.31531],[-85.6643,38.31396],[-85.66509,38.31297],[-85.6656,38.31247],[-85.66589,38.312],[-85.66703,38.31055],[-85.66826,38.30919],[-85.6697,38.30782],[-85.67106,38.30573],[-85.6721,38.30346],[-85.67257,38.30264],[-85.67242,38.30257],[-85.67201,38.30275],[-85.66905,38.30523],[-85.66804,38.30614],[-85.66779,38.3066],[-85.66691,38.30752],[-85.66648,38.30786],[-85.66636,38.30818],[-85.66557,38.30896],[-85.66408,38.31088],[-85.66273,38.31241],[-85.6623,38.31315],[-85.66201,38.31338],[-85.66166,38.31387],[-85.66119,38.31438],[-85.66044,38.31544],[-85.66001,38.31641],[-85.65984,38.31666],[-85.65986,38.31703],[-85.65979,38.31753],[-85.65989,38.31772]]]}},{"type":"Feature","properties":{"NAME":"Tom Dorman State Nature Preserve","TYPE":"State Nature Preserve","ACCESS":"Open","URL":"https://eec.ky.gov/Nature-Preserves/Locations/Pages/Tom-Dorman.aspx"},"geometry":{"type":"MultiPolygon","coordinates":[[[[-84.63773,37.77299],[-84.63973,37.77423],[-84.64184,37.77614],[-84.6436,37.77829],[-84.64392,37.77917],[-84.64412,37.78163],[-84.64466,37.78342],[-84.6452,37.78553],[-84.64537,37.7875],[-84.64506,37.78871],[-84.64474,37.78956],[-84.64457,37.78983],[-84.64558,37.79016],[-84.64611,37.78982],[-84.64604,37.78945],[-84.64611,37.78906],[-84.64674,37.78754],[-84.64714,37.78503],[-84.64712,37.78462],[-84.64665,37.782],[-84.64678,37.78168],[-84.64672,37.78165],[-84.64668,37.78125],[-84.64665,37.78028],[-84.64793,37.77998],[-84.64758,37.77956],[-84.64749,37.77905],[-84.64793,37.77839],[-84.64786,37.77746],[-84.64719,37.77632],[-84.64701,37.7756],[-84.64632,37.77482],[-84.64617,37.77408],[-84.64769,37.77355],[-84.64924,37.77272],[-84.64998,37.7732],[-84.65063,37.77386],[-84.65249,37.77503],[-84.6532,37.77408],[-84.65235,37.77363],[-84.65194,37.77316],[-84.65191,37.77303],[-84.65149,37.77271],[-84.65163,37.77223],[-84.65186,37.7718],[-84.65201,37.77115],[-84.65227,37.76794],[-84.65301,37.76653],[-84.65286,37.76299],[-84.65231,37.76321],[-84.65201,37.76324],[-84.65166,37.76318],[-84.65144,37.76306],[-84.65129,37.76288],[-84.65118,37.76249],[-84.65111,37.76248],[-84.65119,37.76223],[-84.65142,37.76193],[-84.65134,37.76188],[-84.65184,37.76134],[-84.65192,37.76113],[-84.65203,37.76113],[-84.65201,37.76086],[-84.6519,37.76066],[-84.65164,37.76045],[-84.65081,37.76007],[-84.6503,37.75975],[-84.64967,37.76058],[-84.64882,37.76377],[-84.64852,37.76589],[-84.64549,37.76558],[-84.64511,37.7662],[-84.64549,37.76884],[-84.64354,37.76895],[-84.64348,37.76819],[-84.64229,37.76782],[-84.6344,37.76975],[-84.63353,37.76607],[-84.63284,37.76615],[-84.63157,37.76581],[-84.63152,37.76533],[-84.62728,37.76506],[-84.62196,37.76447],[-84.62194,37.76234],[-84.62482,37.75976],[-84.62484,37.75901],[-84.62268,37.75922],[-84.61818,37.75931],[-84.61829,37.75988],[-84.61776,37.76088],[-84.61773,37.76214],[-84.61778,37.76314],[-84.61682,37.76571],[-84.61645,37.76653],[-84.61601,37.76641],[-84.61573,37.76706],[-84.61677,37.76728],[-84.61679,37.76737],[-84.61761,37.76769],[-84.61777,37.76753],[-84.61903,37.76753],[-84.61848,37.76819],[-84.61911,37.76871],[-84.61993,37.7693],[-84.62063,37.76963],[-84.62102,37.76999],[-84.6237,37.77204],[-84.62363,37.7721],[-84.62381,37.77228],[-84.62458,37.77284],[-84.62526,37.77324],[-84.6268,37.77379],[-84.62749,37.77384],[-84.62821,37.77379],[-84.6287,37.77351],[-84.63248,37.77255],[-84.63329,37.77245],[-84.63486,37.77235],[-84.63773,37.77299]]],[[[-84.64172,37.77961],[-84.64203,37.78006],[-84.64282,37.77974],[-84.64257,37.77842],[-84.641,37.77657],[-84.63877,37.77447],[-84.63805,37.77402],[-84.63724,37.77367],[-84.63566,37.77331],[-84.63413,37.77324],[-84.63194,37.77358],[-84.62979,37.7741],[-84.62835,37.77455],[-84.62691,37.77471],[-84.62451,37.77534],[-84.62541,37.77547],[-84.62545,37.77585],[-84.62537,37.7765],[-84.62543,37.77651],[-84.62534,37.77678],[-84.62393,37.77648],[-84.62397,37.77635],[-84.62365,37.77626],[-84.62333,37.77656],[-84.62284,37.77638],[-84.62276,37.77651],[-84.62349,37.77695],[-84.62546,37.77695],[-84.6256,37.77655],[-84.6256,37.77621],[-84.62853,37.7763],[-84.62917,37.77643],[-84.63022,37.77682],[-84.63229,37.77717],[-84.63239,37.77706],[-84.63315,37.77717],[-84.63554,37.77959],[-84.64049,37.77818],[-84.64172,37.77961]]]]}},{"type":"Feature","properties":{"NAME":"Vernon-Douglas State Nature Preserve","TYPE":"State Nature Preserve","ACCESS":"Open","URL":"https://eec.ky.gov/Nature-Preserves/Locations/Pages/Vernon-Douglas.aspx"},"geometry":{"type":"Polygon","coordinates":[[[-85.70654,37.73397],[-85.71307,37.73137],[-85.7135,37.73114],[-85.71664,37.72998],[-85.71751,37.72952],[-85.71851,37.72927],[-85.71929,37.72897],[-85.72539,37.72405],[-85.72528,37.72056],[-85.71384,37.71785],[-85.71151,37.71975],[-85.7084,37.71869],[-85.70765,37.71658],[-85.70555,37.71703],[-85.70229,37.71805],[-85.70159,37.71841],[-85.70097,37.71845],[-85.70045,37.7183],[-85.69981,37.71828],[-85.69926,37.71841],[-85.6986,37.71884],[-85.69835,37.71923],[-85.69846,37.71972],[-85.6988,37.72064],[-85.69925,37.72122],[-85.69927,37.72167],[-85.69891,37.72313],[-85.69891,37.72356],[-85.70004,37.72465],[-85.70032,37.72485],[-85.70053,37.72514],[-85.70058,37.72546],[-85.70027,37.726],[-85.69931,37.72632],[-85.69952,37.72727],[-85.69955,37.72775],[-85.69934,37.72834],[-85.70011,37.729],[-85.70654,37.73397]]]}}]}