{"type":"FeatureCollection","features":[{"type":"Feature","properties":{"NAME":"Abraham Lincoln Birthplace National Historical Park","TYPE":"National Park Service unit","STATES":"KY","URL":"https://www.nps.gov/abli/"},"geometry":{"type":"MultiPolygon","coordinates":[[[[-85.6372,37.61277],[-85.63667,37.61264],[-85.6364,37.61239],[-85.63766,37.61121],[-85.63806,37.61074],[-85.63909,37.60796],[-85.63973,37.60587],[-85.6399,37.60597],[-85.64021,37.60581],[-85.6404,37.60585],[-85.64259,37.60693],[-85.64343,37.6081],[-85.64601,37.60846],[-85.64644,37.6082],[-85.64897,37.60871],[-85.64919,37.60955],[-85.64917,37.61113],[-85.64825,37.61207],[-85.65216,37.61801],[-85.6522,37.61834],[-85.65149,37.61795],[-85.65079,37.61783],[-85.65026,37.61759],[-85.65012,37.61785],[-85.64884,37.61775],[-85.64785,37.61792],[-85.64725,37.61814],[-85.64678,37.61792],[-85.64575,37.6167],[-85.64492,37.61535],[-85.64415,37.61499],[-85.64267,37.61383],[-85.64158,37.61309],[-85.64082,37.61272],[-85.64026,37.61368],[-85.63959,37.61362],[-85.63936,37.61366],[-85.63821,37.61308],[-85.6372,37.61277]]],[[[-85.63711,37.61147],[-85.63639,37.61208],[-85.6355,37.61144],[-85.63755,37.60983],[-85.63924,37.60552],[-85.63957,37.60575],[-85.63867,37.60854],[-85.63797,37.61048],[-85.63779,37.61079],[-85.63711,37.61147]]],[[[-85.73932,37.53118],[-85.74078,37.5321],[-85.73488,37.53379],[-85.73064,37.53537],[-85.73056,37.53541],[-85.7316,37.53597],[-85.7316,37.5363],[-85.73107,37.53675],[-85.72958,37.53671],[-85.72906,37.5295],[-85.73499,37.53013],[-85.73796,37.53031],[-85.7388,37.52931],[-85.74028,37.53006],[-85.73932,37.53118]]]]}},{"type":"Feature","properties":{"NAME":"Big South Fork National River and Recreation Area","TYPE":"National Park Service unit","STATES":"KY-TN","URL":"https://www.nps.gov/biso/"},"geometry":{"type":"MultiPolygon","coordinates":[[[[-84.56616,36.40677],[-84.56669,36.40695],[-84.56677,36.40706],[-84.56702,36.40682],[-84.56665,36.40676],[-84.56593,36.40646],[-84.56479,36.40623],[-84.56394,36.40616],[-84.56333,36.40614],[-84.56239,36.4064],[-84.56212,36.4064],[-84.56188,36.4063],[-84.56119,36.40622],[-84.56054,36.40623],[-84.56067,36.40639],[-84.56132,36.4064],[-84.56024,36.40646],[-84.55347,36.39811],[-84.55843,36.39605],[-84.55886,36.39655],[-84.57213,36.39165],[-84.58633,36.38937],[-84.58711,36.38913],[-84.58774,36.38841],[-84.58816,36.38812],[-84.58919,36.38837],[-84.5895,36.38855],[-84.5901,36.38956],[-84.59139,36.39043],[-84.59224,36.39232],[-84.59418,36.39598],[-84.59205,36.39764],[-84.59428,36.40138],[-84.59695,36.40337],[-84.60101,36.40581],[-84.60716,36.40625],[-84.60867,36.4057],[-84.61002,36.40538],[-84.61159,36.40473],[-84.6117,36.40449],[-84.61229,36.40383],[-84.61341,36.40329],[-84.61623,36.39728],[-84.61729,36.39728],[-84.61789,36.39738],[-84.61869,36.39767],[-84.62016,36.39805],[-84.62073,36.39848],[-84.62115,36.39853],[-84.62184,36.39907],[-84.62239,36.39933],[-84.62285,36.39938],[-84.62331,36.39953],[-84.62406,36.3995],[-84.63065,36.39524],[-84.63066,36.39086],[-84.62828,36.38756],[-84.62681,36.38792],[-84.6276,36.38184],[-84.63305,36.38089],[-84.63595,36.38061],[-84.64351,36.37956],[-84.67035,36.38317],[-84.67794,36.36539],[-84.68975,36.35867],[-84.69722,36.37045],[-84.69913,36.36973],[-84.70106,36.36889],[-84.70432,36.36705],[-84.70939,36.36686],[-84.71021,36.36711],[-84.71957,36.37087],[-84.71951,36.37335],[-84.72289,36.375],[-84.72165,36.37014],[-84.72435,36.36696],[-84.72646,36.36786],[-84.72971,36.36772],[-84.73061,36.36702],[-84.73127,36.35947],[-84.73124,36.35853],[-84.72989,36.357],[-84.72797,36.35535],[-84.72793,36.35511],[-84.72778,36.35488],[-84.72637,36.35415],[-84.72611,36.35391],[-84.72598,36.35343],[-84.72605,36.35307],[-84.72701,36.35206],[-84.72707,36.3521],[-84.72711,36.35205],[-84.72863,36.35266],[-84.72853,36.35282],[-84.72969,36.35335],[-84.73264,36.35393],[-84.73371,36.35438],[-84.73719,36.35754],[-84.7383,36.3584],[-84.74012,36.35966],[-84.72626,36.37961],[-84.71864,36.38209],[-84.71785,36.38701],[-84.71758,36.3869],[-84.7173,36.3869],[-84.71692,36.3868],[-84.7165,36.38685],[-84.71591,36.38708],[-84.71562,36.38713],[-84.71516,36.3871],[-84.71453,36.38676],[-84.71425,36.38617],[-84.71365,36.38584],[-84.71308,36.38566],[-84.71253,36.38572],[-84.71116,36.38602],[-84.69978,36.38524],[-84.69946,36.38949],[-84.69497,36.38921],[-84.69497,36.39029],[-84.68582,36.39037],[-84.68357,36.39087],[-84.66337,36.39793],[-84.653,36.40075],[-84.64719,36.40571],[-84.64835,36.40705],[-84.6485,36.40746],[-84.64879,36.40797],[-84.64881,36.40854],[-84.64857,36.40903],[-84.64788,36.40964],[-84.64774,36.40986],[-84.64771,36.41014],[-84.64781,36.41042],[-84.64814,36.4109],[-84.64827,36.41125],[-84.64827,36.41157],[-84.64815,36.4121],[-84.64783,36.41279],[-84.64773,36.41337],[-84.64788,36.41406],[-84.64815,36.41446],[-84.64858,36.41642],[-84.64855,36.41671],[-84.64823,36.41759],[-84.64825,36.41791],[-84.64849,36.41841],[-84.64925,36.41867],[-84.64952,36.41891],[-84.64956,36.41928],[-84.64991,36.42024],[-84.65761,36.42008],[-84.65764,36.42133],[-84.65726,36.42346],[-84.65704,36.42669],[-84.65708,36.4268],[-84.65828,36.42659],[-84.66067,36.42668],[-84.66103,36.42662],[-84.66186,36.42684],[-84.66259,36.42689],[-84.66282,36.42682],[-84.66376,36.4268],[-84.66451,36.427],[-84.66533,36.42609],[-84.66572,36.42482],[-84.66628,36.42464],[-84.67,36.42412],[-84.67344,36.42401],[-84.67751,36.42412],[-84.68071,36.42312],[-84.68418,36.42448],[-84.68638,36.42543],[-84.68659,36.42546],[-84.68742,36.42526],[-84.68772,36.42533],[-84.68791,36.4255],[-84.68827,36.42542],[-84.68881,36.42559],[-84.6895,36.42559],[-84.68963,36.42591],[-84.68981,36.42594],[-84.69049,36.42569],[-84.69116,36.42591],[-84.69201,36.42574],[-84.69287,36.42542],[-84.69364,36.42539],[-84.69375,36.42529],[-84.69374,36.42504],[-84.69383,36.42489],[-84.69493,36.42484],[-84.69536,36.42472],[-84.69549,36.42476],[-84.69562,36.42491],[-84.69589,36.42536],[-84.69607,36.42537],[-84.69623,36.42532],[-84.69634,36.42497],[-84.69646,36.42485],[-84.69704,36.42491],[-84.6975,36.42482],[-84.69776,36.42469],[-84.69813,36.42417],[-84.69829,36.42407],[-84.69948,36.42412],[-84.69969,36.42407],[-84.7,36.42377],[-84.7006,36.4238],[-84.70071,36.42373],[-84.70078,36.42314],[-84.70187,36.42284],[-84.70264,36.42308],[-84.70303,36.42331],[-84.70331,36.42397],[-84.70364,36.42434],[-84.70393,36.42446],[-84.70471,36.42452],[-84.70484,36.42447],[-84.70523,36.42397],[-84.70555,36.42339],[-84.70601,36.42318],[-84.70654,36.42261],[-84.70679,36.4221],[-84.70711,36.42164],[-84.7089,36.42077],[-84.70906,36.42416],[-84.708,36.42722],[-84.71082,36.42887],[-84.71363,36.4279],[-84.71266,36.42147],[-84.71361,36.41949],[-84.71574,36.41806],[-84.72197,36.41848],[-84.73434,36.41945],[-84.74605,36.4202],[-84.74484,36.40934],[-84.75321,36.40686],[-84.76046,36.40423],[-84.7688,36.40467],[-84.76869,36.4016],[-84.77153,36.40083],[-84.77234,36.40199],[-84.77387,36.40191],[-84.77495,36.40228],[-84.78398,36.40412],[-84.78594,36.40421],[-84.79843,36.41515],[-84.79777,36.42596],[-84.79699,36.43286],[-84.80303,36.43328],[-84.80298,36.43395],[-84.80336,36.43491],[-84.80372,36.43617],[-84.80388,36.43656],[-84.80415,36.43681],[-84.80468,36.43775],[-84.80498,36.43835],[-84.80509,36.43877],[-84.80437,36.43997],[-84.80374,36.44134],[-84.80324,36.442],[-84.80313,36.44244],[-84.80275,36.44308],[-84.80249,36.44333],[-84.80179,36.44438],[-84.80141,36.44483],[-84.80314,36.4448],[-84.80349,36.44491],[-84.80367,36.44507],[-84.80417,36.44602],[-84.80405,36.44678],[-84.80432,36.44775],[-84.80528,36.44986],[-84.80568,36.45006],[-84.80713,36.4502],[-84.80776,36.45056],[-84.8091,36.4516],[-84.81037,36.45185],[-84.81038,36.45178],[-84.81108,36.45184],[-84.81344,36.45157],[-84.81383,36.4514],[-84.81485,36.45076],[-84.81591,36.45043],[-84.81621,36.45042],[-84.81676,36.45064],[-84.81835,36.45177],[-84.81881,36.45193],[-84.81994,36.45214],[-84.82131,36.45218],[-84.82344,36.45183],[-84.82495,36.45207],[-84.82679,36.45156],[-84.82831,36.45153],[-84.82905,36.45188],[-84.8296,36.45227],[-84.82999,36.45244],[-84.83246,36.45306],[-84.83308,36.45367],[-84.8343,36.45522],[-84.83477,36.45611],[-84.83511,36.45652],[-84.83505,36.45657],[-84.83601,36.45747],[-84.839,36.45993],[-84.84004,36.46086],[-84.84078,36.462],[-84.84097,36.46299],[-84.84109,36.46323],[-84.84181,36.46395],[-84.84264,36.46534],[-84.8427,36.46529],[-84.84293,36.46563],[-84.84324,36.46586],[-84.84486,36.46645],[-84.84352,36.46761],[-84.84247,36.4668],[-84.84105,36.46802],[-84.84197,36.46881],[-84.8433,36.4689],[-84.84412,36.46777],[-84.84442,36.46754],[-84.8452,36.46719],[-84.84551,36.46689],[-84.84684,36.46742],[-84.84764,36.46803],[-84.84835,36.46937],[-84.84859,36.46958],[-84.84889,36.46968],[-84.84935,36.47462],[-84.84614,36.47442],[-84.84459,36.48566],[-84.82992,36.48512],[-84.82911,36.4838],[-84.82884,36.4836],[-84.82852,36.48308],[-84.82808,36.48203],[-84.82783,36.48165],[-84.82759,36.48151],[-84.8276,36.48104],[-84.82726,36.48024],[-84.82699,36.47978],[-84.82667,36.47936],[-84.82629,36.47907],[-84.8257,36.47885],[-84.82537,36.47861],[-84.82526,36.47839],[-84.82522,36.47812],[-84.82539,36.47654],[-84.82415,36.47468],[-84.82412,36.47407],[-84.82432,36.47372],[-84.82542,36.47307],[-84.80844,36.47197],[-84.80489,36.47181],[-84.7989,36.46301],[-84.78979,36.47097],[-84.78093,36.47054],[-84.78105,36.46844],[-84.78017,36.46839],[-84.78041,36.46555],[-84.77838,36.46408],[-84.76556,36.46146],[-84.76049,36.46113],[-84.75537,36.46121],[-84.75484,36.4693],[-84.75334,36.469],[-84.75302,36.47293],[-84.75193,36.47317],[-84.75225,36.47366],[-84.75201,36.47463],[-84.75049,36.47562],[-84.74631,36.47593],[-84.74468,36.47889],[-84.74619,36.48141],[-84.7513,36.48025],[-84.75263,36.47963],[-84.75235,36.48346],[-84.7521,36.49003],[-84.75159,36.49804],[-84.76139,36.49776],[-84.7655,36.49771],[-84.77366,36.49742],[-84.77336,36.4987],[-84.78438,36.50803],[-84.79022,36.51316],[-84.79305,36.51548],[-84.80628,36.52765],[-84.80622,36.52793],[-84.8058,36.52773],[-84.80515,36.52778],[-84.80447,36.52795],[-84.80333,36.52836],[-84.80308,36.52837],[-84.80247,36.52819],[-84.80163,36.52763],[-84.80086,36.52745],[-84.80049,36.52744],[-84.79948,36.52771],[-84.79901,36.52792],[-84.79574,36.5284],[-84.7953,36.52859],[-84.79513,36.52877],[-84.79447,36.52995],[-84.79379,36.53174],[-84.79349,36.53229],[-84.79302,36.53349],[-84.7921,36.53518],[-84.79149,36.53616],[-84.79138,36.53658],[-84.79135,36.53735],[-84.79072,36.53895],[-84.78933,36.54105],[-84.7889,36.54181],[-84.78869,36.54204],[-84.78797,36.5425],[-84.78789,36.54289],[-84.78789,36.54351],[-84.78782,36.54366],[-84.78691,36.54417],[-84.78604,36.54491],[-84.78548,36.54516],[-84.78419,36.54554],[-84.78362,36.54586],[-84.7832,36.54642],[-84.78246,36.54718],[-84.78188,36.54764],[-84.7816,36.54821],[-84.78131,36.5492],[-84.78113,36.54959],[-84.78091,36.54984],[-84.78041,36.55017],[-84.77957,36.55105],[-84.77898,36.55205],[-84.77851,36.55265],[-84.77841,36.5531],[-84.77808,36.55352],[-84.77713,36.55378],[-84.77639,36.55414],[-84.77505,36.5546],[-84.77383,36.55485],[-84.77239,36.55576],[-84.77107,36.55621],[-84.76946,36.5562],[-84.76909,36.55601],[-84.76864,36.55562],[-84.76827,36.55541],[-84.76797,36.55534],[-84.76745,36.55539],[-84.76679,36.55567],[-84.76408,36.55773],[-84.76316,36.55858],[-84.76285,36.55928],[-84.76267,36.56001],[-84.76167,36.56115],[-84.76197,36.56249],[-84.76192,36.56299],[-84.76182,36.56323],[-84.76149,36.56372],[-84.76114,36.5639],[-84.76042,36.56442],[-84.76001,36.56497],[-84.75953,36.56582],[-84.759,36.56619],[-84.7855,36.60343],[-84.7292,36.60218],[-84.72842,36.6032],[-84.72825,36.60387],[-84.728,36.60424],[-84.72724,36.60482],[-84.72533,36.60573],[-84.72459,36.60637],[-84.72416,36.60663],[-84.72275,36.60696],[-84.72146,36.60741],[-84.72102,36.60768],[-84.71966,36.60949],[-84.71868,36.61117],[-84.7185,36.61172],[-84.71853,36.61284],[-84.71837,36.61336],[-84.71807,36.61384],[-84.7179,36.61403],[-84.71685,36.61473],[-84.71671,36.61501],[-84.71656,36.61562],[-84.71645,36.61575],[-84.71614,36.6159],[-84.71424,36.61647],[-84.71347,36.61696],[-84.71315,36.61742],[-84.71283,36.61756],[-84.71265,36.61755],[-84.71174,36.61708],[-84.71125,36.61693],[-84.70942,36.61687],[-84.70533,36.6177],[-84.70439,36.61769],[-84.70377,36.61779],[-84.703,36.61813],[-84.70231,36.61829],[-84.70188,36.61848],[-84.70038,36.61959],[-84.69945,36.6197],[-84.6987,36.62029],[-84.69855,36.62053],[-84.69855,36.62079],[-84.69881,36.62129],[-84.69846,36.62188],[-84.69816,36.62201],[-84.69713,36.62216],[-84.69643,36.62202],[-84.69593,36.62205],[-84.69536,36.6223],[-84.69503,36.62261],[-84.69483,36.6229],[-84.69456,36.62307],[-84.69367,36.62319],[-84.69266,36.62357],[-84.69219,36.62359],[-84.69117,36.6235],[-84.68989,36.62372],[-84.68876,36.62362],[-84.68849,36.62365],[-84.68781,36.62388],[-84.68717,36.62391],[-84.68671,36.6238],[-84.6865,36.62304],[-84.68512,36.62257],[-84.68495,36.62264],[-84.68357,36.62267],[-84.68306,36.62289],[-84.68172,36.6228],[-84.68082,36.623],[-84.68046,36.62299],[-84.67982,36.62283],[-84.67896,36.62245],[-84.67801,36.62159],[-84.67721,36.6206],[-84.67693,36.62049],[-84.67638,36.62059],[-84.67586,36.62105],[-84.67537,36.62117],[-84.6743,36.62132],[-84.67343,36.62127],[-84.67277,36.62136],[-84.67254,36.6215],[-84.6721,36.62199],[-84.6716,36.62218],[-84.6714,36.62217],[-84.67114,36.62202],[-84.6708,36.62134],[-84.67067,36.62117],[-84.67046,36.62107],[-84.66983,36.62098],[-84.66887,36.62109],[-84.66806,36.62135],[-84.66754,36.62196],[-84.6661,36.62268],[-84.66564,36.62275],[-84.66537,36.62288],[-84.664,36.62388],[-84.66388,36.62418],[-84.66397,36.62452],[-84.6639,36.62501],[-84.66422,36.62532],[-84.66437,36.62567],[-84.66429,36.62579],[-84.66322,36.6264],[-84.66265,36.62657],[-84.66171,36.62651],[-84.66115,36.62628],[-84.6608,36.62589],[-84.66061,36.6258],[-84.6595,36.62568],[-84.65913,36.6257],[-84.65888,36.6258],[-84.65766,36.62698],[-84.65729,36.6271],[-84.65644,36.62718],[-84.65619,36.62726],[-84.65577,36.62747],[-84.65528,36.62805],[-84.65493,36.62827],[-84.65415,36.62827],[-84.65387,36.62831],[-84.65352,36.62847],[-84.65264,36.62907],[-84.65234,36.63007],[-84.65223,36.63022],[-84.65181,36.63049],[-84.65179,36.63071],[-84.65191,36.63129],[-84.65216,36.63177],[-84.65102,36.63218],[-84.6503,36.63266],[-84.64911,36.63365],[-84.64797,36.63392],[-84.64671,36.63435],[-84.64577,36.63532],[-84.64513,36.63557],[-84.64373,36.63637],[-84.64314,36.63648],[-84.64289,36.6366],[-84.64232,36.63707],[-84.64205,36.63747],[-84.64162,36.63774],[-84.64115,36.63824],[-84.64087,36.63888],[-84.64068,36.63906],[-84.6402,36.63928],[-84.63986,36.63925],[-84.6397,36.63931],[-84.63956,36.63948],[-84.63943,36.63953],[-84.63856,36.63959],[-84.63756,36.63925],[-84.63766,36.6387],[-84.63785,36.63841],[-84.6378,36.6382],[-84.63769,36.63812],[-84.63749,36.63807],[-84.63725,36.63811],[-84.63666,36.63845],[-84.63648,36.63843],[-84.63599,36.63812],[-84.63525,36.63739],[-84.63451,36.63715],[-84.63426,36.63714],[-84.6338,36.63724],[-84.63371,36.63731],[-84.63366,36.63747],[-84.63371,36.63783],[-84.63398,36.63869],[-84.63396,36.63878],[-84.63372,36.63899],[-84.6336,36.63972],[-84.63329,36.64004],[-84.63189,36.64065],[-84.63164,36.64086],[-84.63172,36.64152],[-84.63169,36.64219],[-84.63158,36.64264],[-84.6318,36.64309],[-84.63158,36.64334],[-84.63132,36.64327],[-84.631,36.64299],[-84.63024,36.64302],[-84.62966,36.64267],[-84.62929,36.6426],[-84.62623,36.64369],[-84.62543,36.64383],[-84.62509,36.64409],[-84.62472,36.64401],[-84.62399,36.64435],[-84.62342,36.64427],[-84.62292,36.6443],[-84.6221,36.64489],[-84.62153,36.64517],[-84.62032,36.64506],[-84.61939,36.64538],[-84.61826,36.64604],[-84.61754,36.64598],[-84.61705,36.64603],[-84.61765,36.6445],[-84.61441,36.64191],[-84.60969,36.64599],[-84.60901,36.64591],[-84.60888,36.64577],[-84.60858,36.64569],[-84.60786,36.64597],[-84.60754,36.64579],[-84.60728,36.64574],[-84.60665,36.64593],[-84.6064,36.64592],[-84.60622,36.64586],[-84.60573,36.64545],[-84.60532,36.64536],[-84.60492,36.64549],[-84.60464,36.64584],[-84.60407,36.64589],[-84.6039,36.64602],[-84.60379,36.64631],[-84.60338,36.64598],[-84.6031,36.64589],[-84.60229,36.64591],[-84.60192,36.64616],[-84.6018,36.64603],[-84.60158,36.64553],[-84.60138,36.64538],[-84.60087,36.64539],[-84.60061,36.64525],[-84.60032,36.64522],[-84.59982,36.64559],[-84.59941,36.6456],[-84.59923,36.64569],[-84.59913,36.64582],[-84.5991,36.64632],[-84.59874,36.64652],[-84.5982,36.64696],[-84.5975,36.64723],[-84.59746,36.64672],[-84.59708,36.64625],[-84.5967,36.64597],[-84.5957,36.64547],[-84.59462,36.64533],[-84.5934,36.64531],[-84.59298,36.64535],[-84.5924,36.6456],[-84.59206,36.64562],[-84.59136,36.6455],[-84.59045,36.64553],[-84.5902,36.64568],[-84.58991,36.6461],[-84.58914,36.64808],[-84.58881,36.64858],[-84.5883,36.64886],[-84.58723,36.64919],[-84.58661,36.64945],[-84.58521,36.65051],[-84.58442,36.65178],[-84.58442,36.65274],[-84.5841,36.65316],[-84.58377,36.65318],[-84.58306,36.65305],[-84.58223,36.65312],[-84.5816,36.65337],[-84.58153,36.6535],[-84.57619,36.65343],[-84.57584,36.65223],[-84.57495,36.65297],[-84.57428,36.65414],[-84.57522,36.65545],[-84.57449,36.65592],[-84.5735,36.65637],[-84.57166,36.65647],[-84.57096,36.65633],[-84.57065,36.65635],[-84.56966,36.65658],[-84.56826,36.65732],[-84.56621,36.65778],[-84.56587,36.65789],[-84.56567,36.65803],[-84.56509,36.65784],[-84.56594,36.65695],[-84.56518,36.65644],[-84.56484,36.6568],[-84.5634,36.65573],[-84.56252,36.65654],[-84.56445,36.65724],[-84.56478,36.65764],[-84.56202,36.65664],[-84.56063,36.65705],[-84.56492,36.65997],[-84.56407,36.66003],[-84.56405,36.66057],[-84.56468,36.66058],[-84.56447,36.66095],[-84.56384,36.66253],[-84.56369,36.66343],[-84.56361,36.66361],[-84.56308,36.66426],[-84.56265,36.66521],[-84.5616,36.66654],[-84.56153,36.66722],[-84.56039,36.66707],[-84.56006,36.66891],[-84.56134,36.66907],[-84.56121,36.67005],[-84.56123,36.67032],[-84.56137,36.67052],[-84.56179,36.67064],[-84.56189,36.67074],[-84.56215,36.67136],[-84.56249,36.6715],[-84.56263,36.67149],[-84.56308,36.67126],[-84.56387,36.67126],[-84.55692,36.67303],[-84.55959,36.67445],[-84.56124,36.67652],[-84.5581,36.68174],[-84.55875,36.68178],[-84.55817,36.68215],[-84.55752,36.68165],[-84.55539,36.68087],[-84.55412,36.6829],[-84.55368,36.6831],[-84.55251,36.6838],[-84.55227,36.68382],[-84.55178,36.68362],[-84.55119,36.68366],[-84.55069,36.6835],[-84.5499,36.68346],[-84.54945,36.68351],[-84.54923,36.68366],[-84.54896,36.68411],[-84.54891,36.68431],[-84.54884,36.68481],[-84.54896,36.68526],[-84.54864,36.68532],[-84.54882,36.68606],[-84.54857,36.68647],[-84.54848,36.68719],[-84.54837,36.68748],[-84.54777,36.68748],[-84.54678,36.68768],[-84.54556,36.68813],[-84.54509,36.68815],[-84.54512,36.68856],[-84.54541,36.68972],[-84.54589,36.68932],[-84.54658,36.68908],[-84.54742,36.68811],[-84.5481,36.688],[-84.5478,36.68862],[-84.54783,36.68886],[-84.54796,36.68905],[-84.5475,36.68917],[-84.54714,36.68973],[-84.54866,36.69103],[-84.54892,36.69037],[-84.54903,36.69141],[-84.54864,36.69204],[-84.54858,36.69226],[-84.54869,36.6926],[-84.54902,36.69316],[-84.5484,36.69329],[-84.54842,36.69367],[-84.54809,36.6939],[-84.54757,36.69467],[-84.54811,36.69473],[-84.54789,36.69511],[-84.54791,36.69566],[-84.54784,36.69576],[-84.54698,36.69626],[-84.54562,36.69726],[-84.54499,36.69674],[-84.54301,36.69648],[-84.5432,36.69818],[-84.54492,36.69781],[-84.54451,36.69845],[-84.54376,36.69888],[-84.54372,36.69899],[-84.54377,36.69916],[-84.54401,36.69942],[-84.54405,36.69956],[-84.54352,36.7007],[-84.54994,36.71353],[-84.55017,36.71373],[-84.55343,36.72023],[-84.55325,36.72112],[-84.55077,36.72365],[-84.54771,36.72301],[-84.54745,36.72274],[-84.5468,36.72261],[-84.54673,36.7231],[-84.54655,36.72352],[-84.54561,36.72466],[-84.54448,36.72655],[-84.54471,36.72703],[-84.54493,36.72806],[-84.54527,36.72908],[-84.54524,36.7294],[-84.54496,36.73005],[-84.54497,36.73037],[-84.54512,36.73081],[-84.54537,36.73121],[-84.54564,36.73136],[-84.54887,36.73503],[-84.54917,36.73592],[-84.54995,36.73662],[-84.55093,36.73866],[-84.55189,36.73919],[-84.56104,36.74537],[-84.56409,36.74666],[-84.56373,36.74706],[-84.56411,36.74736],[-84.56545,36.74686],[-84.56577,36.74657],[-84.56716,36.74753],[-84.56856,36.74713],[-84.56979,36.74733],[-84.57043,36.74813],[-84.57125,36.74716],[-84.57183,36.74747],[-84.57268,36.74774],[-84.57318,36.74777],[-84.57451,36.74769],[-84.57511,36.74777],[-84.57588,36.74812],[-84.57614,36.74832],[-84.57642,36.74867],[-84.57665,36.74921],[-84.57695,36.75042],[-84.57597,36.75143],[-84.5754,36.75214],[-84.57511,36.75264],[-84.57445,36.75319],[-84.57425,36.75332],[-84.57394,36.7534],[-84.57261,36.7534],[-84.57205,36.75367],[-84.57149,36.7542],[-84.57099,36.75489],[-84.57056,36.75644],[-84.5704,36.75753],[-84.57037,36.75888],[-84.56814,36.76117],[-84.56702,36.76224],[-84.56472,36.76394],[-84.56159,36.76513],[-84.5589,36.77311],[-84.55883,36.77423],[-84.55906,36.77473],[-84.56003,36.77459],[-84.56065,36.7756],[-84.56038,36.77667],[-84.55806,36.77848],[-84.55698,36.77888],[-84.55506,36.77912],[-84.55563,36.78275],[-84.5521,36.78441],[-84.54823,36.78462],[-84.54776,36.78501],[-84.54775,36.78512],[-84.54783,36.78538],[-84.54826,36.78582],[-84.54847,36.7862],[-84.5485,36.78665],[-84.54839,36.78869],[-84.53672,36.79088],[-84.53463,36.79725],[-84.52323,36.79484],[-84.5279,36.78564],[-84.52824,36.78473],[-84.52752,36.78468],[-84.52728,36.78473],[-84.52653,36.78509],[-84.52606,36.78519],[-84.52437,36.78532],[-84.52139,36.78383],[-84.51989,36.78318],[-84.51956,36.78307],[-84.51866,36.78302],[-84.5181,36.78285],[-84.51712,36.78239],[-84.51681,36.78211],[-84.51645,36.78155],[-84.51626,36.78104],[-84.51589,36.77957],[-84.51596,36.77928],[-84.51666,36.77815],[-84.51654,36.77737],[-84.51634,36.77696],[-84.51609,36.77675],[-84.51551,36.77659],[-84.51471,36.77624],[-84.51279,36.77591],[-84.51183,36.77594],[-84.51155,36.77589],[-84.51112,36.77564],[-84.51004,36.77479],[-84.5084,36.77379],[-84.50832,36.77366],[-84.50824,36.77285],[-84.50789,36.77166],[-84.52343,36.76829],[-84.52808,36.7712],[-84.53432,36.76725],[-84.5432,36.75676],[-84.54214,36.75427],[-84.5269,36.74807],[-84.52584,36.74296],[-84.52584,36.74231],[-84.52443,36.73447],[-84.52408,36.73402],[-84.52542,36.7331],[-84.52412,36.73149],[-84.53004,36.72644],[-84.53779,36.72655],[-84.53844,36.72607],[-84.53849,36.72461],[-84.53941,36.72486],[-84.54134,36.7248],[-84.54211,36.724],[-84.54055,36.72357],[-84.54011,36.72331],[-84.54006,36.72257],[-84.54346,36.72269],[-84.54375,36.72105],[-84.5425,36.72089],[-84.54285,36.7201],[-84.54241,36.71986],[-84.54187,36.7194],[-84.54086,36.72011],[-84.53946,36.72027],[-84.5394,36.71982],[-84.53802,36.71989],[-84.53794,36.7199],[-84.53791,36.7205],[-84.53629,36.72055],[-84.53631,36.71995],[-84.53602,36.71916],[-84.53668,36.71882],[-84.5362,36.71821],[-84.53553,36.71826],[-84.53594,36.71687],[-84.53544,36.71599],[-84.53544,36.71573],[-84.53563,36.7154],[-84.53541,36.71537],[-84.53513,36.71554],[-84.53334,36.71395],[-84.53278,36.71465],[-84.5299,36.71153],[-84.52957,36.71107],[-84.52898,36.7112],[-84.52856,36.7102],[-84.52891,36.71005],[-84.52916,36.71009],[-84.52962,36.70972],[-84.53066,36.70959],[-84.53051,36.70917],[-84.53098,36.70907],[-84.53116,36.70867],[-84.53085,36.70746],[-84.5304,36.7074],[-84.5295,36.70817],[-84.52911,36.70789],[-84.52877,36.70799],[-84.52806,36.70806],[-84.52795,36.70737],[-84.52624,36.70718],[-84.52624,36.70827],[-84.52542,36.70892],[-84.52321,36.70749],[-84.52291,36.70761],[-84.52266,36.70746],[-84.52234,36.70712],[-84.52198,36.7065],[-84.5223,36.70578],[-84.52516,36.70676],[-84.52623,36.70552],[-84.5266,36.70529],[-84.5268,36.70503],[-84.52711,36.70482],[-84.52706,36.7046],[-84.52748,36.70412],[-84.52823,36.70401],[-84.52834,36.70381],[-84.52919,36.70375],[-84.52983,36.70402],[-84.53027,36.70401],[-84.53059,36.70371],[-84.53087,36.70365],[-84.53111,36.70341],[-84.53079,36.70294],[-84.53073,36.70231],[-84.53095,36.70204],[-84.5308,36.70193],[-84.5305,36.70199],[-84.53036,36.70231],[-84.52987,36.70254],[-84.5295,36.70259],[-84.52895,36.70241],[-84.52869,36.7022],[-84.528,36.70285],[-84.52739,36.70273],[-84.52701,36.70229],[-84.52669,36.70235],[-84.52656,36.70292],[-84.52623,36.70305],[-84.5254,36.70362],[-84.52495,36.70272],[-84.52467,36.70285],[-84.52443,36.70321],[-84.52401,36.70359],[-84.52369,36.70341],[-84.52231,36.70343],[-84.52128,36.70385],[-84.52135,36.70028],[-84.52209,36.7005],[-84.52223,36.70026],[-84.52305,36.69977],[-84.5236,36.699],[-84.52424,36.69924],[-84.52476,36.69976],[-84.52526,36.70005],[-84.52565,36.69987],[-84.52652,36.70082],[-84.52769,36.70008],[-84.52786,36.70079],[-84.52819,36.70066],[-84.52835,36.7005],[-84.52911,36.70012],[-84.52935,36.69983],[-84.53009,36.69962],[-84.53016,36.6976],[-84.53162,36.69786],[-84.53276,36.69669],[-84.5338,36.69662],[-84.53427,36.69695],[-84.53444,36.69701],[-84.53466,36.69698],[-84.53475,36.69681],[-84.53425,36.69628],[-84.53296,36.69606],[-84.53179,36.6955],[-84.53266,36.69508],[-84.53285,36.69468],[-84.53402,36.69395],[-84.53539,36.69396],[-84.5358,36.69389],[-84.53659,36.69293],[-84.53672,36.69216],[-84.53645,36.69156],[-84.53531,36.69144],[-84.53457,36.69179],[-84.53511,36.68942],[-84.53497,36.68904],[-84.53471,36.68886],[-84.53497,36.68847],[-84.53528,36.68875],[-84.53573,36.68882],[-84.53442,36.68794],[-84.53488,36.68758],[-84.53324,36.68246],[-84.53305,36.68271],[-84.53266,36.68379],[-84.53246,36.68397],[-84.53218,36.68406],[-84.5319,36.68402],[-84.53141,36.68374],[-84.53023,36.68274],[-84.52982,36.68231],[-84.52945,36.6821],[-84.52903,36.68207],[-84.52869,36.68219],[-84.52852,36.68237],[-84.52833,36.68289],[-84.51676,36.68162],[-84.51522,36.67888],[-84.51911,36.67062],[-84.51868,36.6704],[-84.51834,36.67031],[-84.51732,36.67035],[-84.51509,36.65503],[-84.51474,36.65395],[-84.51199,36.64653],[-84.51035,36.6434],[-84.50989,36.64106],[-84.50894,36.63925],[-84.51088,36.63886],[-84.50811,36.63384],[-84.50889,36.63359],[-84.50934,36.63328],[-84.5106,36.63266],[-84.50983,36.63202],[-84.5093,36.63076],[-84.50912,36.62957],[-84.50912,36.62917],[-84.50941,36.62822],[-84.5094,36.62678],[-84.50947,36.62646],[-84.50972,36.62586],[-84.51031,36.62549],[-84.51086,36.62432],[-84.51105,36.62415],[-84.50944,36.62269],[-84.50875,36.62188],[-84.50826,36.62142],[-84.50755,36.62111],[-84.50636,36.62087],[-84.50621,36.62076],[-84.50571,36.6201],[-84.50459,36.61972],[-84.50441,36.61942],[-84.50407,36.61837],[-84.50408,36.61806],[-84.50326,36.61697],[-84.50311,36.61656],[-84.50311,36.61634],[-84.5034,36.61537],[-84.50348,36.61518],[-84.50396,36.61486],[-84.5029,36.61393],[-84.50306,36.61282],[-84.50343,36.61263],[-84.50379,36.61225],[-84.50413,36.61204],[-84.50453,36.61155],[-84.50503,36.61124],[-84.50517,36.61065],[-84.50503,36.61043],[-84.50505,36.61006],[-84.50589,36.60898],[-84.50608,36.60843],[-84.50617,36.60787],[-84.50608,36.60746],[-84.50507,36.60622],[-84.50277,36.60439],[-84.50175,36.60404],[-84.50179,36.60381],[-84.502,36.60354],[-84.50258,36.60345],[-84.50296,36.60355],[-84.5037,36.60406],[-84.50397,36.6041],[-84.50417,36.60397],[-84.50452,36.60334],[-84.50525,36.604],[-84.50607,36.6046],[-84.5067,36.60486],[-84.50718,36.60487],[-84.50751,36.60458],[-84.50774,36.60452],[-84.50795,36.60465],[-84.50826,36.60518],[-84.51022,36.60576],[-84.51039,36.60559],[-84.51069,36.60493],[-84.51097,36.60488],[-84.51143,36.605],[-84.51162,36.60492],[-84.51235,36.60413],[-84.51331,36.60443],[-84.51358,36.60433],[-84.51363,36.60395],[-84.51354,36.60365],[-84.51352,36.603],[-84.51363,36.60159],[-84.51337,36.59983],[-84.51388,36.59888],[-84.51438,36.59837],[-84.51642,36.59764],[-84.51756,36.59685],[-84.5187,36.59678],[-84.51878,36.59642],[-84.521,36.5964],[-84.55645,36.5969],[-84.58273,36.59793],[-84.58503,36.57898],[-84.58222,36.57838],[-84.57961,36.57807],[-84.57872,36.57818],[-84.57721,36.57781],[-84.57597,36.57763],[-84.57541,36.57692],[-84.57371,36.57663],[-84.57175,36.5765],[-84.57065,36.57668],[-84.56291,36.57247],[-84.56333,36.57225],[-84.56405,36.57222],[-84.56484,36.57125],[-84.56518,36.57071],[-84.56565,36.56957],[-84.56569,36.56933],[-84.56551,36.56887],[-84.56522,36.56875],[-84.56479,36.56886],[-84.56425,36.56924],[-84.5637,36.56975],[-84.56352,36.56982],[-84.56314,36.56979],[-84.56286,36.5696],[-84.57387,36.56487],[-84.57926,36.563],[-84.582,36.54499],[-84.59709,36.53808],[-84.60598,36.54149],[-84.60488,36.54676],[-84.61783,36.54985],[-84.62525,36.54278],[-84.62657,36.54128],[-84.62665,36.54118],[-84.62627,36.54118],[-84.62599,36.54111],[-84.62554,36.54081],[-84.62542,36.54063],[-84.62517,36.53976],[-84.625,36.53952],[-84.62483,36.5394],[-84.624,36.53909],[-84.62621,36.53521],[-84.62643,36.53293],[-84.62424,36.52613],[-84.6251,36.52496],[-84.62448,36.52105],[-84.6253,36.52072],[-84.62451,36.5151],[-84.62319,36.51581],[-84.62097,36.50281],[-84.6207,36.49887],[-84.63771,36.49017],[-84.63783,36.4811],[-84.63796,36.4784],[-84.63825,36.47691],[-84.6389,36.47622],[-84.63892,36.47589],[-84.63871,36.47565],[-84.63758,36.47505],[-84.63824,36.4751],[-84.63832,36.47444],[-84.63797,36.47415],[-84.63745,36.47321],[-84.63747,36.47294],[-84.63728,36.47263],[-84.63731,36.47233],[-84.63711,36.47181],[-84.6371,36.47126],[-84.63718,36.47088],[-84.637,36.47031],[-84.63913,36.46988],[-84.63988,36.46986],[-84.64058,36.46996],[-84.64121,36.47013],[-84.64271,36.47084],[-84.64311,36.47088],[-84.64351,36.47082],[-84.64505,36.47013],[-84.6456,36.46981],[-84.64615,36.46903],[-84.64652,36.46812],[-84.64645,36.46789],[-84.64594,36.4675],[-84.64588,36.46725],[-84.6461,36.46666],[-84.64638,36.46623],[-84.64637,36.46593],[-84.64648,36.4657],[-84.6464,36.46533],[-84.64602,36.4649],[-84.64576,36.46473],[-84.64548,36.46443],[-84.64527,36.46393],[-84.64528,36.46356],[-84.64503,36.46325],[-84.64411,36.46266],[-84.64402,36.46217],[-84.6437,36.4624],[-84.64195,36.46257],[-84.64053,36.46391],[-84.63842,36.46298],[-84.6379,36.4645],[-84.63691,36.46383],[-84.63618,36.46342],[-84.63601,36.46352],[-84.63217,36.46232],[-84.63041,36.46247],[-84.63008,36.46339],[-84.62972,36.46159],[-84.6279,36.46171],[-84.62697,36.4612],[-84.62618,36.46057],[-84.62565,36.46043],[-84.62512,36.46002],[-84.62491,36.46004],[-84.62474,36.46094],[-84.62428,36.46065],[-84.62123,36.46244],[-84.62106,36.4622],[-84.62003,36.46175],[-84.6196,36.46132],[-84.61863,36.4609],[-84.61713,36.45998],[-84.61675,36.45996],[-84.6169,36.4607],[-84.61667,36.46063],[-84.61643,36.4608],[-84.61634,36.46059],[-84.61602,36.46026],[-84.61596,36.4604],[-84.616,36.46082],[-84.61586,36.4612],[-84.61589,36.4614],[-84.61575,36.46171],[-84.61532,36.46205],[-84.61533,36.46233],[-84.61522,36.46273],[-84.61538,36.46309],[-84.61564,36.4631],[-84.61625,36.46349],[-84.61698,36.46433],[-84.61669,36.46465],[-84.6129,36.46576],[-84.60527,36.46707],[-84.60459,36.46606],[-84.60521,36.46448],[-84.61198,36.46035],[-84.61318,36.45731],[-84.61868,36.45339],[-84.62603,36.44785],[-84.63845,36.4383],[-84.6375,36.43834],[-84.63607,36.43813],[-84.63478,36.4381],[-84.63316,36.4391],[-84.63183,36.43888],[-84.63073,36.43798],[-84.63035,36.4379],[-84.62478,36.43802],[-84.60908,36.436],[-84.60642,36.43611],[-84.58495,36.43586],[-84.58481,36.43576],[-84.58474,36.43535],[-84.58469,36.43536],[-84.58474,36.43522],[-84.58506,36.43515],[-84.58513,36.43494],[-84.58489,36.43447],[-84.58504,36.43436],[-84.58522,36.43401],[-84.58575,36.4338],[-84.58573,36.43374],[-84.58562,36.43361],[-84.58549,36.43357],[-84.58553,36.4335],[-84.58547,36.43343],[-84.58544,36.43348],[-84.58539,36.43344],[-84.58535,36.43329],[-84.58494,36.43333],[-84.58462,36.4332],[-84.5845,36.43278],[-84.58421,36.4326],[-84.58416,36.43228],[-84.58405,36.43216],[-84.5841,36.4321],[-84.58367,36.43204],[-84.58376,36.43186],[-84.58388,36.43184],[-84.58409,36.43162],[-84.58455,36.43139],[-84.58464,36.43094],[-84.58477,36.43072],[-84.58543,36.43067],[-84.5854,36.43081],[-84.58528,36.43083],[-84.58535,36.43088],[-84.58573,36.43077],[-84.58612,36.43084],[-84.58628,36.43093],[-84.58667,36.43081],[-84.58715,36.43086],[-84.58748,36.43077],[-84.5879,36.43042],[-84.58783,36.43027],[-84.58792,36.43022],[-84.58789,36.4301],[-84.58808,36.43011],[-84.58869,36.43038],[-84.5888,36.43035],[-84.58905,36.43044],[-84.58926,36.43056],[-84.58933,36.43071],[-84.58956,36.43068],[-84.58942,36.43043],[-84.58946,36.43013],[-84.58952,36.4301],[-84.58931,36.42945],[-84.5893,36.42895],[-84.58924,36.42892],[-84.5892,36.42874],[-84.58903,36.42852],[-84.58886,36.42853],[-84.58891,36.42849],[-84.58886,36.42844],[-84.58814,36.4284],[-84.58798,36.42833],[-84.58801,36.42823],[-84.58823,36.42829],[-84.58863,36.42824],[-84.58874,36.42812],[-84.58874,36.42782],[-84.58908,36.42785],[-84.58916,36.42802],[-84.58911,36.42815],[-84.58944,36.42839],[-84.58957,36.42839],[-84.58998,36.42857],[-84.59015,36.42841],[-84.59033,36.4285],[-84.59228,36.42773],[-84.59586,36.4252],[-84.59448,36.4248],[-84.59817,36.41971],[-84.59689,36.41682],[-84.59113,36.41746],[-84.5787,36.42447],[-84.57266,36.4169],[-84.5657,36.40837],[-84.56616,36.40677]],[[-84.76247,36.40932],[-84.76209,36.40911],[-84.7616,36.40896],[-84.7615,36.40924],[-84.76183,36.40941],[-84.76202,36.40967],[-84.76211,36.40948],[-84.76247,36.40932]],[[-84.68334,36.42667],[-84.68334,36.42698],[-84.68317,36.42736],[-84.68316,36.4276],[-84.68462,36.42757],[-84.68459,36.42739],[-84.68498,36.4269],[-84.68513,36.42653],[-84.68412,36.42531],[-84.68298,36.42601],[-84.68325,36.42642],[-84.68334,36.42667]]],[[[-84.74164,36.35843],[-84.74145,36.35828],[-84.74119,36.35778],[-84.74025,36.35691],[-84.73849,36.3581],[-84.73761,36.3573],[-84.73773,36.35702],[-84.73775,36.35646],[-84.73741,36.35596],[-84.7363,36.35553],[-84.73596,36.35489],[-84.73582,36.35444],[-84.73518,36.35345],[-84.73492,36.35243],[-84.7345,36.35175],[-84.73405,36.35136],[-84.73349,36.35106],[-84.73116,36.35041],[-84.7393,36.34594],[-84.73802,36.3371],[-84.73846,36.33392],[-84.73868,36.33294],[-84.73849,36.33281],[-84.73767,36.33302],[-84.7372,36.33302],[-84.7369,36.33287],[-84.7367,36.33266],[-84.73662,36.33243],[-84.73661,36.33198],[-84.73676,36.33135],[-84.73735,36.33091],[-84.73763,36.33036],[-84.73759,36.33013],[-84.73701,36.3296],[-84.74065,36.33046],[-84.74263,36.32914],[-84.7436,36.3292],[-84.74519,36.32869],[-84.75015,36.32896],[-84.75512,36.32748],[-84.75945,36.32375],[-84.77667,36.32474],[-84.7774,36.32471],[-84.77805,36.32489],[-84.77927,36.32468],[-84.78385,36.32468],[-84.78421,36.32222],[-84.78452,36.32192],[-84.78525,36.32265],[-84.78592,36.3232],[-84.78622,36.32355],[-84.78643,36.32388],[-84.78674,36.32461],[-84.7873,36.32473],[-84.78759,36.3247],[-84.78836,36.32451],[-84.78907,36.32416],[-84.78949,36.32414],[-84.79037,36.32439],[-84.79097,36.32485],[-84.79079,36.32589],[-84.78736,36.3346],[-84.7653,36.33651],[-84.74355,36.33697],[-84.74225,36.33827],[-84.74467,36.34236],[-84.74613,36.34736],[-84.74624,36.3484],[-84.74724,36.35036],[-84.74767,36.35135],[-84.74547,36.35608],[-84.74402,36.35707],[-84.7439,36.35702],[-84.7437,36.35724],[-84.74248,36.35644],[-84.74164,36.35843]]],[[[-84.73562,36.35485],[-84.73335,36.35359],[-84.7306,36.35295],[-84.72889,36.35223],[-84.72874,36.35248],[-84.72727,36.35189],[-84.72791,36.35153],[-84.72926,36.35108],[-84.72922,36.351],[-84.73052,36.3506],[-84.73087,36.35062],[-84.73319,36.35125],[-84.73383,36.35156],[-84.73436,36.35207],[-84.73459,36.3525],[-84.7348,36.35341],[-84.73534,36.35424],[-84.73562,36.35485]]],[[[-84.57555,36.49661],[-84.57539,36.50124],[-84.57339,36.50124],[-84.57354,36.49722],[-84.57555,36.49661]]],[[[-84.56616,36.40677],[-84.56489,36.40672],[-84.56425,36.40696],[-84.5624,36.4066],[-84.56335,36.40631],[-84.56392,36.40632],[-84.56475,36.4064],[-84.56578,36.4066],[-84.56616,36.40677]]],[[[-84.562,36.40653],[-84.56176,36.40645],[-84.56182,36.40646],[-84.562,36.40653]]],[[[-84.56213,36.40657],[-84.56211,36.40657],[-84.56207,36.40656],[-84.56213,36.40657]]]]}},{"type":"Feature","properties":{"NAME":"Camp Nelson National Monument","TYPE":"National Park Service unit","STATES":"KY","URL":"https://www.nps.gov/cane/"},"geometry":{"type":"MultiPolygon","coordinates":[[[[-84.58774,37.79521],[-84.58738,37.79507],[-84.58626,37.79512],[-84.58578,37.79491],[-84.58661,37.79385],[-84.58733,37.79257],[-84.58616,37.79217],[-84.58493,37.79262],[-84.58383,37.79217],[-84.58344,37.79141],[-84.58333,37.79096],[-84.58334,37.79066],[-84.5839,37.79048],[-84.58473,37.79007],[-84.58582,37.78888],[-84.58712,37.78983],[-84.58786,37.78949],[-84.58758,37.78894],[-84.58781,37.78769],[-84.58801,37.78779],[-84.5886,37.78833],[-84.58898,37.78829],[-84.59009,37.78775],[-84.5909,37.78668],[-84.59117,37.78641],[-84.5914,37.78642],[-84.59231,37.78696],[-84.59267,37.78702],[-84.59331,37.7867],[-84.59407,37.78614],[-84.59496,37.78506],[-84.59762,37.78569],[-84.59492,37.78819],[-84.59468,37.78811],[-84.59373,37.789],[-84.59753,37.79033],[-84.60082,37.7873],[-84.60248,37.7882],[-84.60257,37.78805],[-84.6055,37.78887],[-84.60499,37.78986],[-84.60375,37.79341],[-84.60299,37.79326],[-84.60281,37.79377],[-84.60196,37.79361],[-84.60183,37.79401],[-84.60344,37.79433],[-84.60208,37.7984],[-84.60155,37.80038],[-84.59317,37.79878],[-84.58992,37.79773],[-84.58829,37.79639],[-84.5879,37.79593],[-84.58786,37.79548],[-84.58774,37.79521]]],[[[-84.61253,37.78451],[-84.61379,37.78383],[-84.61506,37.78389],[-84.61494,37.78488],[-84.6145,37.78527],[-84.6127,37.78536],[-84.61253,37.78451]]]]}},{"type":"Feature","properties":{"NAME":"Cumberland Gap National Historical Park","TYPE":"National Park Service unit","STATES":"KY-TN-VA","URL":"https://www.nps.gov/cuga/"},"geometry":{"type":"MultiPolygon","coordinates":[[[[-83.66264,36.59331],[-83.66263,36.59321],[-83.66151,36.59235],[-83.66146,36.59239],[-83.66046,36.59168],[-83.66097,36.59117],[-83.66202,36.59191],[-83.66198,36.59194],[-83.66246,36.59232],[-83.66202,36.59101],[-83.66224,36.58945],[-83.66295,36.58854],[-83.6636,36.58819],[-83.66396,36.58719],[-83.66466,36.58675],[-83.66536,36.58653],[-83.66548,36.58575],[-83.66526,36.58549],[-83.66538,36.58505],[-83.66603,36.58474],[-83.66685,36.5847],[-83.66722,36.58451],[-83.66802,36.58388],[-83.66787,36.58365],[-83.66775,36.58308],[-83.6683,36.58257],[-83.66942,36.58231],[-83.66979,36.58196],[-83.66985,36.58161],[-83.6698,36.5814],[-83.66996,36.58101],[-83.66993,36.58034],[-83.67001,36.57986],[-83.66977,36.57924],[-83.6701,36.57868],[-83.67166,36.57842],[-83.67181,36.57764],[-83.67137,36.5752],[-83.67153,36.57443],[-83.67156,36.57365],[-83.67189,36.57253],[-83.67168,36.57059],[-83.67155,36.57033],[-83.6715,36.56995],[-83.67168,36.56981],[-83.67247,36.56956],[-83.67286,36.56922],[-83.67605,36.57056],[-83.67503,36.57212],[-83.67917,36.57472],[-83.68007,36.57313],[-83.68002,36.57303],[-83.68042,36.57244],[-83.68055,36.572],[-83.6784,36.56963],[-83.6864,36.55966],[-83.68743,36.5597],[-83.68756,36.55808],[-83.68801,36.55773],[-83.68875,36.55774],[-83.68969,36.55741],[-83.69001,36.5568],[-83.68993,36.55559],[-83.68967,36.55503],[-83.68996,36.55486],[-83.69088,36.55465],[-83.70317,36.56159],[-83.702,36.57349],[-83.70356,36.57244],[-83.70424,36.57222],[-83.70512,36.57207],[-83.70683,36.57196],[-83.70739,36.57177],[-83.70791,36.57147],[-83.7089,36.5706],[-83.70935,36.5703],[-83.70988,36.5701],[-83.71045,36.56993],[-83.71138,36.56979],[-83.71259,36.57005],[-83.71294,36.57004],[-83.71372,36.56948],[-83.71417,36.56928],[-83.7152,36.56922],[-83.71553,36.56911],[-83.71638,36.56865],[-83.7168,36.56855],[-83.71753,36.56854],[-83.71838,36.56783],[-83.71918,36.56754],[-83.72008,36.56749],[-83.72029,36.5674],[-83.72125,36.56668],[-83.72213,36.56634],[-83.72358,36.5662],[-83.72461,36.56584],[-83.72548,36.56573],[-83.72634,36.56553],[-83.72774,36.56536],[-83.72938,36.56526],[-83.73007,36.56503],[-83.73069,36.56468],[-83.73174,36.56434],[-83.73193,36.56436],[-83.73255,36.56466],[-83.73289,36.56467],[-83.73372,36.56406],[-83.73463,36.56363],[-83.73686,36.5621],[-83.73914,36.5612],[-83.74061,36.55999],[-83.74111,36.55978],[-83.74195,36.55964],[-83.74305,36.55958],[-83.74418,36.55882],[-83.74489,36.55878],[-83.7455,36.559],[-83.74656,36.55886],[-83.74713,36.55851],[-83.7474,36.55798],[-83.74781,36.55767],[-83.74842,36.55768],[-83.74944,36.55795],[-83.75004,36.55801],[-83.75117,36.55789],[-83.75186,36.55766],[-83.75272,36.55713],[-83.75358,36.55706],[-83.75435,36.5569],[-83.75503,36.55649],[-83.75575,36.55616],[-83.75617,36.55618],[-83.75744,36.55653],[-83.758,36.55659],[-83.75854,36.5563],[-83.75914,36.55614],[-83.75979,36.55577],[-83.76008,36.55568],[-83.7606,36.55514],[-83.76126,36.55492],[-83.76173,36.55492],[-83.76241,36.55516],[-83.76273,36.55514],[-83.76374,36.55468],[-83.7642,36.55457],[-83.76506,36.55476],[-83.76551,36.55478],[-83.76588,36.55468],[-83.76693,36.55474],[-83.76811,36.55428],[-83.76882,36.55386],[-83.77042,36.55206],[-83.77056,36.55201],[-83.7712,36.55219],[-83.77173,36.55209],[-83.77234,36.55186],[-83.77301,36.55171],[-83.77321,36.5516],[-83.77335,36.55141],[-83.77369,36.55045],[-83.77405,36.54966],[-83.77454,36.54943],[-83.77544,36.54921],[-83.77597,36.549],[-83.77646,36.5487],[-83.77692,36.54823],[-83.77738,36.54818],[-83.77827,36.54845],[-83.77822,36.54914],[-83.77879,36.54966],[-83.77955,36.54981],[-83.78031,36.5501],[-83.78068,36.55053],[-83.78114,36.55126],[-83.78165,36.55169],[-83.78237,36.55204],[-83.78364,36.55239],[-83.78522,36.55318],[-83.78526,36.55429],[-83.78604,36.5552],[-83.7864,36.55602],[-83.78655,36.55658],[-83.78633,36.55725],[-83.78605,36.55733],[-83.78596,36.55808],[-83.78639,36.55884],[-83.78677,36.55904],[-83.78759,36.56079],[-83.7882,36.56148],[-83.78751,36.56201],[-83.78714,36.56252],[-83.78625,36.56255],[-83.78576,36.56282],[-83.78499,36.56353],[-83.7846,36.56379],[-83.78384,36.56414],[-83.78322,36.56472],[-83.78317,36.5654],[-83.78261,36.56488],[-83.78219,36.56467],[-83.78045,36.56421],[-83.77796,36.56506],[-83.77698,36.5648],[-83.77661,36.56489],[-83.77638,36.56569],[-83.77638,36.56622],[-83.7763,36.56645],[-83.7761,36.56672],[-83.77503,36.56762],[-83.77491,36.56787],[-83.77455,36.56827],[-83.77435,36.56879],[-83.77443,36.56934],[-83.77354,36.57035],[-83.77346,36.57066],[-83.77266,36.57204],[-83.77244,36.57299],[-83.77221,36.57309],[-83.77192,36.573],[-83.77159,36.57311],[-83.7711,36.57312],[-83.76969,36.57439],[-83.76819,36.57372],[-83.76795,36.57353],[-83.76724,36.57316],[-83.76645,36.57284],[-83.76618,36.57286],[-83.76531,36.57257],[-83.76479,36.57186],[-83.76438,36.57145],[-83.76372,36.57126],[-83.76296,36.57162],[-83.76219,36.57162],[-83.76128,36.57179],[-83.76082,36.57174],[-83.76064,36.57211],[-83.7598,36.57295],[-83.75949,36.57338],[-83.75912,36.57361],[-83.75886,36.57407],[-83.75853,36.57439],[-83.75785,36.57487],[-83.75662,36.57589],[-83.75631,36.57627],[-83.75568,36.5764],[-83.7553,36.57655],[-83.75513,36.57671],[-83.75433,36.57711],[-83.75269,36.5775],[-83.75155,36.57785],[-83.74944,36.57881],[-83.74936,36.57999],[-83.74915,36.58046],[-83.74876,36.58085],[-83.74906,36.58141],[-83.74942,36.58254],[-83.74979,36.58305],[-83.75052,36.58365],[-83.74847,36.58369],[-83.74708,36.58392],[-83.74625,36.58459],[-83.74468,36.58524],[-83.74251,36.58652],[-83.74224,36.58698],[-83.74089,36.58684],[-83.74027,36.58713],[-83.74018,36.58737],[-83.73994,36.58754],[-83.7392,36.58779],[-83.7379,36.58791],[-83.73658,36.5879],[-83.73586,36.58811],[-83.7361,36.58765],[-83.73538,36.58641],[-83.7349,36.58593],[-83.73405,36.58649],[-83.73335,36.58578],[-83.73151,36.58566],[-83.7311,36.58588],[-83.73096,36.58667],[-83.73055,36.58604],[-83.72948,36.58514],[-83.72903,36.58492],[-83.72591,36.58407],[-83.72541,36.58358],[-83.72483,36.58364],[-83.72306,36.58426],[-83.72268,36.58434],[-83.72218,36.58485],[-83.72163,36.58579],[-83.7212,36.58587],[-83.72061,36.58633],[-83.7197,36.58687],[-83.7184,36.58692],[-83.71791,36.587],[-83.717,36.58768],[-83.71613,36.58799],[-83.71577,36.58837],[-83.71524,36.58844],[-83.71441,36.58877],[-83.71416,36.58923],[-83.71231,36.59013],[-83.71222,36.59075],[-83.70708,36.59036],[-83.70913,36.58952],[-83.70994,36.58901],[-83.71379,36.58583],[-83.71537,36.58417],[-83.71934,36.58195],[-83.72118,36.58194],[-83.73538,36.5794],[-83.73508,36.57634],[-83.73551,36.5759],[-83.73526,36.5753],[-83.73537,36.57515],[-83.73674,36.57432],[-83.73683,36.57421],[-83.73658,36.57395],[-83.73616,36.57371],[-83.7349,36.57445],[-83.73477,36.57313],[-83.73724,36.57316],[-83.73829,36.57253],[-83.73847,36.57264],[-83.74039,36.57127],[-83.74212,36.56893],[-83.73796,36.568],[-83.73463,36.57176],[-83.73429,36.56822],[-83.72515,36.57347],[-83.72351,36.57473],[-83.72252,36.57577],[-83.71833,36.57792],[-83.7169,36.58031],[-83.7129,36.58204],[-83.70717,36.58659],[-83.70583,36.585],[-83.70375,36.58668],[-83.70298,36.58799],[-83.70081,36.58899],[-83.6994,36.58999],[-83.69843,36.59346],[-83.69715,36.59537],[-83.69767,36.59543],[-83.69872,36.59578],[-83.69844,36.59608],[-83.69888,36.59656],[-83.69911,36.59695],[-83.69941,36.59857],[-83.70028,36.60022],[-83.70063,36.60125],[-83.70128,36.60229],[-83.70171,36.6028],[-83.70296,36.6037],[-83.70257,36.60464],[-83.70295,36.60593],[-83.70309,36.60701],[-83.7029,36.60703],[-83.70298,36.60744],[-83.70002,36.60767],[-83.69982,36.60608],[-83.69847,36.60619],[-83.69843,36.6059],[-83.69709,36.6061],[-83.69624,36.6061],[-83.69593,36.60629],[-83.6956,36.60622],[-83.69531,36.60607],[-83.69466,36.60607],[-83.69444,36.60611],[-83.69441,36.60619],[-83.69423,36.60629],[-83.69373,36.60621],[-83.69354,36.60631],[-83.69348,36.60641],[-83.69274,36.60642],[-83.69239,36.60619],[-83.69228,36.60617],[-83.69196,36.60629],[-83.69153,36.60608],[-83.69125,36.60606],[-83.69077,36.60576],[-83.69059,36.60575],[-83.69028,36.60586],[-83.69019,36.60569],[-83.68981,36.60574],[-83.68941,36.60636],[-83.68948,36.60653],[-83.68949,36.60855],[-83.68929,36.60899],[-83.68885,36.60939],[-83.68821,36.60966],[-83.68771,36.61032],[-83.68732,36.61138],[-83.68604,36.61257],[-83.68531,36.61303],[-83.6849,36.61415],[-83.68451,36.61571],[-83.68487,36.61645],[-83.68473,36.61712],[-83.68374,36.6171],[-83.68302,36.61722],[-83.68285,36.61776],[-83.68283,36.61864],[-83.68256,36.6193],[-83.68224,36.61947],[-83.68207,36.6207],[-83.6817,36.62185],[-83.68199,36.6232],[-83.68199,36.62385],[-83.68266,36.62479],[-83.68303,36.62604],[-83.68302,36.62649],[-83.68326,36.62674],[-83.68273,36.62735],[-83.68392,36.62772],[-83.68405,36.62795],[-83.68436,36.62801],[-83.68479,36.62863],[-83.68563,36.62924],[-83.6859,36.62976],[-83.68596,36.63008],[-83.68635,36.63117],[-83.68669,36.63135],[-83.6873,36.63148],[-83.68833,36.63136],[-83.68955,36.6315],[-83.68969,36.63191],[-83.68953,36.6323],[-83.68916,36.63235],[-83.68938,36.63322],[-83.68936,36.63362],[-83.68975,36.63412],[-83.6897,36.63485],[-83.6898,36.63531],[-83.69025,36.63572],[-83.69162,36.63589],[-83.69243,36.63613],[-83.69276,36.63639],[-83.6929,36.6368],[-83.69302,36.63777],[-83.69265,36.63826],[-83.69195,36.63889],[-83.69157,36.63913],[-83.69139,36.64012],[-83.69142,36.64118],[-83.6915,36.64149],[-83.69136,36.642],[-83.69101,36.64257],[-83.68998,36.64294],[-83.68943,36.64337],[-83.68901,36.64351],[-83.68883,36.64387],[-83.68853,36.64418],[-83.68787,36.64454],[-83.68739,36.64463],[-83.68666,36.64498],[-83.68632,36.6454],[-83.68569,36.64511],[-83.68455,36.64505],[-83.68397,36.64482],[-83.6834,36.64442],[-83.68198,36.64376],[-83.68145,36.64333],[-83.68116,36.64322],[-83.68138,36.64174],[-83.6807,36.64114],[-83.68035,36.63987],[-83.68007,36.63929],[-83.67953,36.63908],[-83.67922,36.63866],[-83.67797,36.63913],[-83.67609,36.63934],[-83.67489,36.63926],[-83.67401,36.63938],[-83.67346,36.63938],[-83.67229,36.63888],[-83.6714,36.63836],[-83.67003,36.63783],[-83.66735,36.6361],[-83.666,36.63536],[-83.66409,36.63548],[-83.66347,36.63577],[-83.66216,36.6358],[-83.66101,36.63632],[-83.65989,36.63629],[-83.65825,36.63679],[-83.65685,36.63742],[-83.6563,36.63786],[-83.65144,36.63914],[-83.65047,36.63962],[-83.64982,36.6403],[-83.64932,36.64058],[-83.6482,36.64055],[-83.64527,36.64027],[-83.64296,36.64064],[-83.6407,36.64129],[-83.63774,36.64194],[-83.63445,36.64117],[-83.63088,36.64526],[-83.62525,36.64026],[-83.61124,36.64611],[-83.60277,36.64033],[-83.59471,36.6434],[-83.58584,36.64515],[-83.56987,36.65365],[-83.56922,36.65374],[-83.56646,36.65551],[-83.56684,36.6558],[-83.56712,36.65618],[-83.56693,36.65681],[-83.56653,36.65727],[-83.56654,36.65761],[-83.56619,36.65807],[-83.56593,36.65857],[-83.56598,36.65868],[-83.56593,36.65891],[-83.56617,36.65862],[-83.56622,36.65835],[-83.56648,36.65778],[-83.56679,36.65757],[-83.5671,36.65717],[-83.5671,36.65689],[-83.56717,36.65672],[-83.5676,36.65618],[-83.56852,36.65551],[-83.57013,36.65502],[-83.57193,36.65497],[-83.57341,36.65453],[-83.57386,36.65456],[-83.57437,36.65483],[-83.57502,36.65493],[-83.57569,36.65519],[-83.57626,36.65522],[-83.57645,36.65512],[-83.57674,36.65476],[-83.5774,36.65449],[-83.57812,36.65393],[-83.5784,36.65351],[-83.57967,36.65252],[-83.58012,36.65207],[-83.58098,36.65104],[-83.5813,36.65104],[-83.58152,36.65152],[-83.58154,36.65186],[-83.5817,36.65207],[-83.58168,36.65261],[-83.58176,36.65313],[-83.58189,36.65348],[-83.5819,36.65378],[-83.5817,36.65471],[-83.58159,36.65487],[-83.58156,36.65538],[-83.58142,36.65562],[-83.58107,36.65592],[-83.58116,36.65611],[-83.58118,36.65648],[-83.58174,36.65737],[-83.58172,36.65784],[-83.58199,36.65826],[-83.58198,36.65861],[-83.58209,36.65885],[-83.58208,36.65981],[-83.58253,36.65883],[-83.5826,36.65841],[-83.5828,36.658],[-83.5829,36.65751],[-83.58303,36.65739],[-83.58323,36.65739],[-83.58334,36.65748],[-83.58371,36.65825],[-83.58379,36.65859],[-83.58373,36.65898],[-83.58399,36.65906],[-83.58423,36.65923],[-83.58478,36.65993],[-83.58483,36.6601],[-83.58478,36.66042],[-83.58514,36.66051],[-83.58546,36.66087],[-83.58554,36.66104],[-83.58548,36.66141],[-83.58574,36.66166],[-83.58587,36.66214],[-83.58645,36.66232],[-83.58659,36.66246],[-83.58665,36.66264],[-83.58659,36.66285],[-83.58644,36.66301],[-83.58613,36.66323],[-83.58583,36.66356],[-83.58554,36.66366],[-83.5853,36.66383],[-83.58412,36.66503],[-83.58374,36.66533],[-83.58356,36.66579],[-83.58318,36.66598],[-83.5828,36.66603],[-83.58307,36.66631],[-83.58312,36.6666],[-83.58273,36.66779],[-83.58237,36.66782],[-83.58278,36.66658],[-83.58275,36.66642],[-83.58244,36.66609],[-83.58246,36.6659],[-83.58259,36.6658],[-83.58303,36.66573],[-83.58331,36.6656],[-83.58348,36.66515],[-83.58387,36.66484],[-83.58506,36.66363],[-83.58566,36.66331],[-83.58589,36.66304],[-83.58623,36.66279],[-83.5863,36.66261],[-83.5862,36.66252],[-83.58576,36.66243],[-83.58557,36.66227],[-83.58541,36.66174],[-83.58515,36.66148],[-83.58517,36.66101],[-83.58497,36.66075],[-83.58457,36.66066],[-83.58445,36.66057],[-83.58442,36.66045],[-83.58449,36.66012],[-83.58441,36.65994],[-83.58392,36.65936],[-83.58343,36.65911],[-83.58339,36.65888],[-83.58344,36.65855],[-83.58316,36.65792],[-83.58294,36.65846],[-83.58286,36.65891],[-83.58246,36.65975],[-83.58242,36.66016],[-83.58228,36.66026],[-83.5821,36.66026],[-83.58192,36.66016],[-83.58178,36.65995],[-83.58172,36.65975],[-83.58175,36.65888],[-83.58164,36.65863],[-83.58165,36.6583],[-83.58139,36.65791],[-83.58141,36.65744],[-83.58085,36.65655],[-83.58082,36.65613],[-83.58073,36.65595],[-83.58078,36.65574],[-83.5811,36.6555],[-83.58124,36.65528],[-83.58125,36.65481],[-83.58137,36.65464],[-83.58156,36.65376],[-83.58134,36.65264],[-83.58136,36.65211],[-83.58122,36.65196],[-83.58118,36.65156],[-83.58109,36.65146],[-83.57992,36.65271],[-83.57866,36.65369],[-83.5784,36.65409],[-83.57761,36.65471],[-83.57699,36.65495],[-83.57671,36.6553],[-83.57637,36.65548],[-83.57601,36.65552],[-83.57562,36.65546],[-83.57492,36.65519],[-83.57426,36.65509],[-83.57375,36.65482],[-83.57341,36.65481],[-83.57199,36.65524],[-83.57114,36.6553],[-83.57025,36.65528],[-83.5687,36.65575],[-83.56787,36.65636],[-83.56745,36.65688],[-83.56741,36.65729],[-83.56708,36.65772],[-83.56677,36.65793],[-83.56642,36.65884],[-83.56583,36.65939],[-83.56579,36.65964],[-83.56628,36.65974],[-83.56719,36.66028],[-83.5669,36.66112],[-83.56593,36.6619],[-83.5651,36.66229],[-83.56371,36.66325],[-83.56254,36.66389],[-83.56165,36.6641],[-83.56136,36.66411],[-83.5608,36.6643],[-83.55927,36.66464],[-83.55865,36.66496],[-83.55781,36.6652],[-83.55583,36.66514],[-83.55484,36.66471],[-83.5543,36.66503],[-83.55257,36.66438],[-83.55181,36.66421],[-83.55114,36.66476],[-83.54959,36.66468],[-83.54911,36.66445],[-83.54736,36.66486],[-83.54711,36.66513],[-83.54733,36.66559],[-83.547,36.66699],[-83.5461,36.66782],[-83.54551,36.66859],[-83.54467,36.66917],[-83.54403,36.67013],[-83.54266,36.67038],[-83.54187,36.67065],[-83.54138,36.67072],[-83.53967,36.6714],[-83.53909,36.67055],[-83.5383,36.67117],[-83.53466,36.67198],[-83.53449,36.67518],[-83.52548,36.67441],[-83.5218,36.67571],[-83.52083,36.67588],[-83.52007,36.67619],[-83.51796,36.67595],[-83.51338,36.674],[-83.51264,36.67459],[-83.51156,36.67486],[-83.51052,36.6746],[-83.50933,36.67477],[-83.50885,36.67517],[-83.50881,36.67622],[-83.50862,36.67704],[-83.50789,36.67738],[-83.50722,36.67738],[-83.5056,36.67851],[-83.50392,36.67917],[-83.50303,36.67999],[-83.49809,36.68028],[-83.498,36.68101],[-83.49715,36.68184],[-83.49605,36.68165],[-83.49403,36.68193],[-83.49299,36.68232],[-83.49235,36.68232],[-83.48739,36.68382],[-83.47321,36.68738],[-83.46002,36.68895],[-83.44859,36.68945],[-83.43049,36.67289],[-83.43043,36.66662],[-83.42456,36.66736],[-83.42434,36.66025],[-83.43119,36.65685],[-83.43457,36.65595],[-83.43441,36.65351],[-83.43407,36.65355],[-83.43438,36.65173],[-83.43391,36.65094],[-83.43462,36.65147],[-83.4347,36.65139],[-83.43408,36.65093],[-83.43428,36.65079],[-83.43408,36.65038],[-83.43354,36.64981],[-83.43334,36.6499],[-83.43314,36.64856],[-83.43371,36.64956],[-83.43494,36.65073],[-83.43518,36.65086],[-83.43618,36.65111],[-83.43747,36.65181],[-83.43792,36.65214],[-83.43752,36.65198],[-83.44002,36.65373],[-83.44131,36.65349],[-83.44179,36.65301],[-83.44283,36.65311],[-83.44653,36.65138],[-83.4651,36.6546],[-83.46842,36.65603],[-83.47116,36.65638],[-83.47267,36.65543],[-83.47374,36.65506],[-83.47416,36.65525],[-83.47475,36.65572],[-83.47581,36.65596],[-83.47621,36.65617],[-83.47772,36.65642],[-83.48015,36.65606],[-83.48411,36.65688],[-83.49469,36.65678],[-83.496,36.65633],[-83.49529,36.6546],[-83.49539,36.65456],[-83.49498,36.65358],[-83.49592,36.65343],[-83.49629,36.65345],[-83.49722,36.65374],[-83.49703,36.65417],[-83.4968,36.65606],[-83.49829,36.65556],[-83.50151,36.65866],[-83.50664,36.65784],[-83.50813,36.6575],[-83.50786,36.65688],[-83.51023,36.65629],[-83.51362,36.65678],[-83.52199,36.65531],[-83.52827,36.65345],[-83.53233,36.65247],[-83.53613,36.65209],[-83.5365,36.652],[-83.53677,36.65144],[-83.5501,36.64345],[-83.55282,36.64267],[-83.55018,36.64011],[-83.55083,36.63913],[-83.54986,36.6378],[-83.54817,36.63489],[-83.55035,36.63356],[-83.55171,36.63552],[-83.5521,36.63679],[-83.55141,36.63707],[-83.55214,36.63873],[-83.55543,36.64191],[-83.55658,36.64157],[-83.55666,36.64224],[-83.57471,36.63692],[-83.58049,36.63473],[-83.58461,36.63342],[-83.58317,36.63089],[-83.59822,36.62119],[-83.59884,36.62203],[-83.59964,36.62219],[-83.60285,36.62123],[-83.60556,36.61986],[-83.60946,36.61804],[-83.61388,36.61642],[-83.62046,36.61676],[-83.62835,36.61201],[-83.62653,36.60591],[-83.62636,36.60452],[-83.62466,36.59979],[-83.62686,36.59987],[-83.62691,36.59852],[-83.6335,36.59899],[-83.63496,36.59964],[-83.63624,36.60094],[-83.63726,36.60248],[-83.63944,36.60345],[-83.64111,36.60401],[-83.64274,36.60392],[-83.64309,36.60449],[-83.64368,36.60457],[-83.64379,36.60246],[-83.64323,36.60265],[-83.64147,36.60123],[-83.64443,36.60218],[-83.64685,36.60213],[-83.64742,36.60203],[-83.64769,36.60154],[-83.64831,36.60149],[-83.64877,36.60053],[-83.64913,36.60024],[-83.6497,36.60015],[-83.6498,36.59988],[-83.6506,36.59958],[-83.65072,36.59897],[-83.65148,36.59888],[-83.65198,36.59826],[-83.65194,36.5976],[-83.6521,36.59739],[-83.65258,36.59712],[-83.65285,36.59658],[-83.65483,36.59506],[-83.65591,36.59479],[-83.6562,36.59431],[-83.65697,36.59387],[-83.65758,36.59383],[-83.65897,36.5926],[-83.65978,36.59297],[-83.66078,36.59294],[-83.6624,36.59327],[-83.66263,36.59321],[-83.66205,36.59376],[-83.66198,36.59411],[-83.66179,36.59457],[-83.66153,36.59496],[-83.6612,36.5953],[-83.66,36.59617],[-83.65986,36.59594],[-83.65723,36.5981],[-83.65912,36.59898],[-83.65992,36.60041],[-83.673,36.60072],[-83.67316,36.59867],[-83.67266,36.5983],[-83.67037,36.59619],[-83.67017,36.59718],[-83.66914,36.59761],[-83.66932,36.5972],[-83.66928,36.59697],[-83.66916,36.5968],[-83.66964,36.59676],[-83.66987,36.59573],[-83.66797,36.59399],[-83.66712,36.59402],[-83.66699,36.59373],[-83.66677,36.59378],[-83.66719,36.59474],[-83.66703,36.59484],[-83.66619,36.59397],[-83.66577,36.59423],[-83.66554,36.59429],[-83.66556,36.5944],[-83.66513,36.59445],[-83.66539,36.59465],[-83.66506,36.59493],[-83.66454,36.59454],[-83.66447,36.5946],[-83.66397,36.59422],[-83.66367,36.59447],[-83.66329,36.5946],[-83.66279,36.5952],[-83.66277,36.59545],[-83.66303,36.59553],[-83.66303,36.59569],[-83.66214,36.59586],[-83.66187,36.59584],[-83.6616,36.59566],[-83.66143,36.59578],[-83.66138,36.59575],[-83.6617,36.59548],[-83.66183,36.59559],[-83.66206,36.59565],[-83.6623,36.59564],[-83.66249,36.59548],[-83.66251,36.59486],[-83.66229,36.59479],[-83.66258,36.59408],[-83.66264,36.59331]],[[-83.68098,36.58822],[-83.68302,36.58175],[-83.683,36.5815],[-83.68336,36.5786],[-83.68414,36.57869],[-83.68423,36.57797],[-83.68477,36.57748],[-83.68459,36.57673],[-83.68164,36.57642],[-83.68109,36.57664],[-83.68034,36.57628],[-83.67964,36.57732],[-83.67927,36.57773],[-83.67927,36.57793],[-83.67893,36.57852],[-83.67854,36.57998],[-83.67861,36.58016],[-83.67842,36.58055],[-83.67799,36.58049],[-83.67776,36.58145],[-83.6782,36.58148],[-83.67803,36.58197],[-83.67198,36.58505],[-83.68098,36.58822]]],[[[-83.70037,36.59967],[-83.70013,36.59926],[-83.70273,36.59682],[-83.70442,36.59846],[-83.70384,36.5999],[-83.7037,36.60065],[-83.70309,36.60204],[-83.70151,36.60205],[-83.7009,36.60107],[-83.70061,36.60014],[-83.70037,36.59967]]]]}},{"type":"Feature","properties":{"NAME":"Fort Donelson National Battlefield","TYPE":"National Park Service unit","STATES":"TN-KY","URL":"https://www.nps.gov/fodo/"},"geometry":{"type":"MultiPolygon","coordinates":[[[[-87.85821,36.49623],[-87.85674,36.49561],[-87.85638,36.49595],[-87.85505,36.49504],[-87.85523,36.49483],[-87.85096,36.49252],[-87.8503,36.49238],[-87.84995,36.49208],[-87.85009,36.49165],[-87.8504,36.49168],[-87.85053,36.49202],[-87.85128,36.49201],[-87.85212,36.49218],[-87.85218,36.49173],[-87.85186,36.49147],[-87.85219,36.48863],[-87.85258,36.48838],[-87.85234,36.48801],[-87.85256,36.48727],[-87.85277,36.48622],[-87.85261,36.48508],[-87.85241,36.48528],[-87.8522,36.4851],[-87.85164,36.48517],[-87.85137,36.4868],[-87.85102,36.48729],[-87.85077,36.48736],[-87.85093,36.48796],[-87.85017,36.48932],[-87.84946,36.49232],[-87.84938,36.49235],[-87.84796,36.49191],[-87.84782,36.49182],[-87.84781,36.49175],[-87.84772,36.49181],[-87.84747,36.49172],[-87.84676,36.49171],[-87.84629,36.49161],[-87.8469,36.48599],[-87.84595,36.4859],[-87.84688,36.48556],[-87.84859,36.48559],[-87.84929,36.48588],[-87.8495,36.48582],[-87.8493,36.48579],[-87.84932,36.48529],[-87.84978,36.48526],[-87.8513,36.4848],[-87.85163,36.48406],[-87.85381,36.48144],[-87.85365,36.48124],[-87.85205,36.48058],[-87.8502,36.47964],[-87.84998,36.48026],[-87.84815,36.48141],[-87.84694,36.48153],[-87.84544,36.48069],[-87.84483,36.48057],[-87.84425,36.48096],[-87.84401,36.48101],[-87.8441,36.48161],[-87.84283,36.48117],[-87.84283,36.48091],[-87.84174,36.48089],[-87.84172,36.48103],[-87.84159,36.48089],[-87.84125,36.48088],[-87.84125,36.48077],[-87.84079,36.48078],[-87.8408,36.48089],[-87.84025,36.48094],[-87.83996,36.48129],[-87.83875,36.48024],[-87.83935,36.48051],[-87.84033,36.4791],[-87.84131,36.47931],[-87.84096,36.47987],[-87.8418,36.4798],[-87.84347,36.47947],[-87.84315,36.47862],[-87.84314,36.47814],[-87.84308,36.478],[-87.84327,36.4769],[-87.84345,36.47663],[-87.8441,36.47687],[-87.84378,36.47729],[-87.84558,36.47785],[-87.84559,36.47717],[-87.84514,36.47704],[-87.84527,36.47574],[-87.84708,36.47538],[-87.84709,36.47556],[-87.84845,36.47521],[-87.84777,36.47605],[-87.84713,36.4763],[-87.84726,36.4771],[-87.84706,36.47803],[-87.84922,36.47798],[-87.84875,36.47846],[-87.85027,36.47859],[-87.85089,36.47858],[-87.85322,36.47995],[-87.85358,36.47978],[-87.85473,36.4802],[-87.85928,36.48154],[-87.86074,36.48141],[-87.86142,36.48127],[-87.8628,36.48149],[-87.864,36.48122],[-87.86487,36.48089],[-87.86411,36.48138],[-87.86427,36.48162],[-87.86477,36.48129],[-87.86553,36.48166],[-87.86651,36.48167],[-87.86674,36.48118],[-87.86668,36.4808],[-87.8668,36.48079],[-87.86702,36.48057],[-87.86749,36.48141],[-87.86797,36.48469],[-87.86736,36.48482],[-87.86827,36.48598],[-87.86816,36.48932],[-87.86688,36.48995],[-87.86647,36.49073],[-87.86771,36.49048],[-87.86731,36.49076],[-87.86582,36.49092],[-87.86417,36.49146],[-87.86357,36.49134],[-87.86349,36.49192],[-87.86308,36.49241],[-87.86037,36.49339],[-87.85927,36.49242],[-87.85977,36.49388],[-87.85897,36.49509],[-87.85892,36.49563],[-87.85861,36.49547],[-87.85882,36.49587],[-87.8586,36.49614],[-87.85821,36.49623]]],[[[-87.83591,36.48888],[-87.83594,36.48866],[-87.83669,36.48873],[-87.8368,36.48851],[-87.83717,36.48855],[-87.83704,36.48922],[-87.83605,36.48917],[-87.83591,36.48888]]],[[[-87.85318,36.47363],[-87.85304,36.47283],[-87.85327,36.47283],[-87.85326,36.47219],[-87.85366,36.4722],[-87.85369,36.47344],[-87.85318,36.47363]]],[[[-87.85321,36.47027],[-87.85397,36.47027],[-87.85391,36.47094],[-87.8537,36.47178],[-87.85325,36.47179],[-87.85321,36.47027]]],[[[-87.85433,36.4731],[-87.85419,36.47249],[-87.85386,36.47261],[-87.85388,36.47179],[-87.85414,36.47067],[-87.85416,36.47026],[-87.85407,36.46944],[-87.85424,36.46853],[-87.85456,36.46841],[-87.85642,36.4684],[-87.85682,36.46849],[-87.85686,36.46866],[-87.85675,36.46978],[-87.85647,36.47031],[-87.85638,36.47069],[-87.85615,36.4706],[-87.85577,36.4706],[-87.8556,36.46945],[-87.8546,36.46964],[-87.85478,36.47085],[-87.85558,36.47065],[-87.85563,36.47078],[-87.85611,36.47073],[-87.85626,36.4708],[-87.85714,36.47164],[-87.85619,36.47224],[-87.85433,36.4731]]],[[[-87.85591,36.46826],[-87.85598,36.4675],[-87.85554,36.4675],[-87.8555,36.46788],[-87.85533,36.46787],[-87.8553,36.4683],[-87.85456,36.46828],[-87.85426,36.46834],[-87.8541,36.46846],[-87.85403,36.4686],[-87.8539,36.46943],[-87.85394,36.46983],[-87.85329,36.46981],[-87.85387,36.46526],[-87.85754,36.46568],[-87.85718,36.46834],[-87.85769,36.46837],[-87.85776,36.46975],[-87.85764,36.47057],[-87.8581,36.471],[-87.85727,36.47156],[-87.8566,36.4709],[-87.85655,36.47072],[-87.85663,36.47037],[-87.85692,36.46981],[-87.85702,36.46851],[-87.85673,36.46831],[-87.85591,36.46826]]],[[[-87.83145,36.4776],[-87.82989,36.47726],[-87.82915,36.47757],[-87.82768,36.47801],[-87.8275,36.47801],[-87.82857,36.47722],[-87.82946,36.47525],[-87.82954,36.47476],[-87.8298,36.47442],[-87.83029,36.47415],[-87.83048,36.47387],[-87.83228,36.47356],[-87.83212,36.47312],[-87.83504,36.47003],[-87.83691,36.46999],[-87.83667,36.4719],[-87.84052,36.47211],[-87.84017,36.47362],[-87.84167,36.47385],[-87.84202,36.47235],[-87.8438,36.47263],[-87.84279,36.47627],[-87.84214,36.47719],[-87.84161,36.47708],[-87.84221,36.47626],[-87.84015,36.47613],[-87.83994,36.47702],[-87.83888,36.47698],[-87.83887,36.47587],[-87.83738,36.47587],[-87.83738,36.47696],[-87.83624,36.4773],[-87.83635,36.47755],[-87.83378,36.47814],[-87.83145,36.4776]]],[[[-88.05259,36.51016],[-88.05283,36.50984],[-88.05291,36.50934],[-88.05301,36.50926],[-88.05344,36.50935],[-88.05353,36.50947],[-88.0542,36.50933],[-88.05546,36.50939],[-88.05577,36.50934],[-88.05572,36.50922],[-88.05548,36.5091],[-88.05436,36.50876],[-88.05379,36.50846],[-88.05335,36.50804],[-88.05326,36.50785],[-88.05321,36.5077],[-88.05331,36.50731],[-88.0533,36.50678],[-88.05354,36.50621],[-88.05381,36.50602],[-88.05434,36.50599],[-88.05434,36.50591],[-88.05405,36.50572],[-88.05397,36.5056],[-88.05364,36.50487],[-88.05363,36.50451],[-88.05367,36.50442],[-88.05413,36.50424],[-88.05422,36.50415],[-88.05437,36.50414],[-88.05462,36.50455],[-88.0548,36.50455],[-88.05552,36.50428],[-88.05627,36.50426],[-88.05654,36.50412],[-88.05651,36.50401],[-88.056,36.5037],[-88.05527,36.50351],[-88.05504,36.50332],[-88.05499,36.50302],[-88.05512,36.50281],[-88.05533,36.50268],[-88.05556,36.50231],[-88.05515,36.50192],[-88.05482,36.50203],[-88.0546,36.50202],[-88.05443,36.5018],[-88.05426,36.5013],[-88.05428,36.50105],[-88.05437,36.50074],[-88.05461,36.50041],[-88.05531,36.49979],[-88.05547,36.49927],[-88.0561,36.49864],[-88.05688,36.49809],[-88.05729,36.49769],[-88.05751,36.49732],[-88.05778,36.49652],[-88.05834,36.49632],[-88.05871,36.49646],[-88.05868,36.49751],[-88.05877,36.49764],[-88.05917,36.49792],[-88.05936,36.49846],[-88.05932,36.49874],[-88.05916,36.49894],[-88.05877,36.49922],[-88.05828,36.49977],[-88.0582,36.49989],[-88.05823,36.50005],[-88.05815,36.50022],[-88.05779,36.50042],[-88.05745,36.50052],[-88.05738,36.50057],[-88.0574,36.50065],[-88.05839,36.50129],[-88.05907,36.50132],[-88.05966,36.50188],[-88.06005,36.50208],[-88.06071,36.50209],[-88.06078,36.50203],[-88.06053,36.50148],[-88.06068,36.50102],[-88.0606,36.50086],[-88.06108,36.50056],[-88.06091,36.50042],[-88.06037,36.50025],[-88.06027,36.50013],[-88.06038,36.49964],[-88.06081,36.49922],[-88.06088,36.49885],[-88.06088,36.49816],[-88.06103,36.4979],[-88.06186,36.49758],[-88.06222,36.49762],[-88.06241,36.49773],[-88.06203,36.49854],[-88.06317,36.4979],[-88.06349,36.49779],[-88.06397,36.49782],[-88.06434,36.49801],[-88.06473,36.49768],[-88.06485,36.4977],[-88.06492,36.49794],[-88.06481,36.4988],[-88.06493,36.49906],[-88.06489,36.49934],[-88.06474,36.49963],[-88.06495,36.50022],[-88.06501,36.50034],[-88.0651,36.50037],[-88.06507,36.50061],[-88.06515,36.50068],[-88.06541,36.50062],[-88.06585,36.49942],[-88.06611,36.49944],[-88.06638,36.49962],[-88.06653,36.49962],[-88.06709,36.49937],[-88.06766,36.4994],[-88.06788,36.49947],[-88.06815,36.49973],[-88.06822,36.49987],[-88.06828,36.50055],[-88.06861,36.50063],[-88.06895,36.5008],[-88.06935,36.50075],[-88.07018,36.50089],[-88.07031,36.50106],[-88.07032,36.50165],[-88.07039,36.50167],[-88.07075,36.5017],[-88.07094,36.50164],[-88.07145,36.50107],[-88.07166,36.50058],[-88.07193,36.49956],[-88.07316,36.49898],[-88.07339,36.49902],[-88.07356,36.49921],[-88.07358,36.49967],[-88.07322,36.50018],[-88.07299,36.50038],[-88.07296,36.50055],[-88.07306,36.50056],[-88.07288,36.50513],[-88.07274,36.50527],[-88.07273,36.50554],[-88.07286,36.50552],[-88.07277,36.50766],[-88.06416,36.50764],[-88.06359,36.50844],[-88.06278,36.50989],[-88.06246,36.51065],[-88.06214,36.51061],[-88.06199,36.5105],[-88.06192,36.51026],[-88.06097,36.51023],[-88.06086,36.51029],[-88.06075,36.51068],[-88.06051,36.51099],[-88.0599,36.51132],[-88.05827,36.51076],[-88.05574,36.51049],[-88.05415,36.51004],[-88.05379,36.51008],[-88.05338,36.51071],[-88.05289,36.51091],[-88.05227,36.5119],[-88.05215,36.51175],[-88.05211,36.51145],[-88.05259,36.51016]]]]}},{"type":"Feature","properties":{"NAME":"Mammoth Cave National Park","TYPE":"National Park Service unit","STATES":"KY","URL":"https://www.nps.gov/maca/"},"geometry":{"type":"Polygon","coordinates":[[[-86.17425,37.27715],[-86.17421,37.27679],[-86.17338,37.27648],[-86.1725,37.27595],[-86.16672,37.27141],[-86.16623,37.2711],[-86.16527,37.27069],[-86.16277,37.27017],[-86.16198,37.26994],[-86.16093,37.26946],[-86.16016,37.26893],[-86.15937,37.26817],[-86.15448,37.26165],[-86.15364,37.26027],[-86.15313,37.25989],[-86.1527,37.25975],[-86.15212,37.25971],[-86.15036,37.26006],[-86.14908,37.2601],[-86.14814,37.26002],[-86.14329,37.25934],[-86.14191,37.2589],[-86.13893,37.2574],[-86.13435,37.25564],[-86.1324,37.25468],[-86.13177,37.25446],[-86.13125,37.25437],[-86.1304,37.25438],[-86.12988,37.25448],[-86.12793,37.25508],[-86.12711,37.25517],[-86.12601,37.25509],[-86.12279,37.25443],[-86.12158,37.25412],[-86.12063,37.25375],[-86.11996,37.2534],[-86.11849,37.25241],[-86.11797,37.25214],[-86.11718,37.25189],[-86.11645,37.2518],[-86.11548,37.25187],[-86.10841,37.25341],[-86.10347,37.25485],[-86.10273,37.25531],[-86.1019,37.25623],[-86.10129,37.2567],[-86.09802,37.25827],[-86.09528,37.25935],[-86.09454,37.25983],[-86.09364,37.26072],[-86.09301,37.2612],[-86.09229,37.26158],[-86.09011,37.2624],[-86.08951,37.26275],[-86.08916,37.26313],[-86.08904,37.26335],[-86.08867,37.26449],[-86.0883,37.26524],[-86.08628,37.26805],[-86.086,37.26829],[-86.08549,37.26852],[-86.08498,37.2686],[-86.08446,37.26855],[-86.08308,37.26821],[-86.08267,37.2682],[-86.08187,37.26835],[-86.08118,37.26871],[-86.07945,37.27015],[-86.07862,37.2705],[-86.07778,37.27058],[-86.07547,37.27046],[-86.07486,37.27048],[-86.07412,37.27061],[-86.07248,37.27106],[-86.07139,37.27129],[-86.07062,37.27134],[-86.06901,37.27123],[-86.06897,37.27114],[-86.06938,37.27025],[-86.06958,37.26957],[-86.06958,37.26915],[-86.06946,37.26879],[-86.06907,37.26831],[-86.06764,37.26726],[-86.06671,37.26588],[-86.06648,37.26529],[-86.06639,37.26445],[-86.06609,37.26341],[-86.06548,37.26231],[-86.06345,37.259],[-86.06336,37.25897],[-86.06068,37.25942],[-86.05916,37.26005],[-86.05899,37.26022],[-86.05634,37.26099],[-86.05563,37.26105],[-86.05378,37.26152],[-86.05307,37.2619],[-86.0523,37.26243],[-86.05206,37.26288],[-86.0513,37.26318],[-86.05095,37.26369],[-86.05088,37.26396],[-86.04301,37.26642],[-86.04322,37.26443],[-86.03932,37.26589],[-86.03719,37.26727],[-86.03783,37.26812],[-86.03386,37.26953],[-86.03382,37.26942],[-86.02726,37.27172],[-86.02499,37.27039],[-86.02512,37.26905],[-86.02489,37.26903],[-86.02368,37.2692],[-86.02268,37.26956],[-86.01924,37.27042],[-86.01619,37.27212],[-86.01504,37.2725],[-86.0149,37.27245],[-86.01473,37.26921],[-86.01481,37.269],[-86.01433,37.25735],[-86.01803,37.25601],[-86.02053,37.24756],[-86.02096,37.24828],[-86.02134,37.24866],[-86.02199,37.24909],[-86.02307,37.24948],[-86.02658,37.25042],[-86.02664,37.24934],[-86.02774,37.2497],[-86.02751,37.24913],[-86.02805,37.24359],[-86.02951,37.24172],[-86.03001,37.24123],[-86.03037,37.24071],[-86.03132,37.23753],[-86.03133,37.23716],[-86.03102,37.23656],[-86.03105,37.23619],[-86.03092,37.23546],[-86.03013,37.2346],[-86.03009,37.23432],[-86.03051,37.23414],[-86.03085,37.23383],[-86.03117,37.23321],[-86.03113,37.23283],[-86.03076,37.23223],[-86.03066,37.23134],[-86.0305,37.23071],[-86.03049,37.23033],[-86.03078,37.22978],[-86.03073,37.22925],[-86.03092,37.22915],[-86.03136,37.22931],[-86.03166,37.22917],[-86.03179,37.2288],[-86.03156,37.22837],[-86.03145,37.22748],[-86.03105,37.22614],[-86.03103,37.22351],[-86.03109,37.22269],[-86.031,37.22239],[-86.02914,37.22206],[-86.02829,37.22059],[-86.02637,37.21928],[-86.02664,37.2179],[-86.02584,37.2164],[-86.0251,37.21561],[-86.02351,37.21431],[-86.02374,37.21385],[-86.02469,37.2136],[-86.02454,37.21217],[-86.02463,37.21091],[-86.02477,37.2103],[-86.02515,37.20996],[-86.02566,37.20839],[-86.02625,37.20726],[-86.02664,37.20674],[-86.02792,37.2062],[-86.0278,37.20568],[-86.02787,37.20473],[-86.02777,37.20425],[-86.02792,37.20387],[-86.02801,37.20329],[-86.02743,37.20337],[-86.02612,37.2031],[-86.02584,37.20311],[-86.02306,37.20414],[-86.0229,37.20413],[-86.02247,37.20387],[-86.02154,37.20361],[-86.02122,37.20343],[-86.02059,37.20286],[-86.01995,37.20272],[-86.01957,37.20255],[-86.0184,37.20173],[-86.01776,37.20106],[-86.01573,37.20003],[-86.01563,37.19989],[-86.0157,37.19942],[-86.01558,37.19894],[-86.01548,37.19872],[-86.01529,37.19852],[-86.01357,37.19744],[-86.01294,37.19735],[-86.01179,37.19659],[-86.01169,37.1964],[-86.01155,37.19524],[-86.01161,37.19484],[-86.01177,37.1946],[-86.01241,37.19408],[-86.01325,37.19258],[-86.014,37.1915],[-86.01441,37.19108],[-86.01442,37.19077],[-86.01401,37.19034],[-86.01353,37.19015],[-86.01323,37.18991],[-86.01284,37.18921],[-86.01262,37.18804],[-86.01178,37.18735],[-86.01169,37.18715],[-86.01161,37.18632],[-86.01151,37.18594],[-86.01084,37.1846],[-86.01015,37.18368],[-86.00974,37.18204],[-86.00961,37.18181],[-86.0087,37.18097],[-86.00745,37.18022],[-86.0071,37.17963],[-86.00695,37.17918],[-86.0064,37.17857],[-86.00607,37.17835],[-86.00466,37.17769],[-86.00269,37.17654],[-86.00231,37.17625],[-86.00197,37.17579],[-86.00144,37.17468],[-86.00133,37.17427],[-86.0014,37.17421],[-86.00195,37.17417],[-86.00237,37.17423],[-86.00298,37.17444],[-86.00319,37.17438],[-86.00333,37.1739],[-86.00347,37.17229],[-86.0038,37.17031],[-86.00392,37.17021],[-86.00479,37.16988],[-86.00695,37.16976],[-86.00708,37.16971],[-86.00716,37.1696],[-86.0073,37.16846],[-86.00778,37.16647],[-86.00795,37.16609],[-86.00824,37.16576],[-86.00937,37.16479],[-86.01271,37.16207],[-86.01274,37.16193],[-86.0124,37.15984],[-86.01231,37.15965],[-86.0119,37.15928],[-86.01177,37.15904],[-86.01143,37.15684],[-86.01143,37.15637],[-86.01133,37.15625],[-86.00995,37.1556],[-86.00984,37.15547],[-86.00985,37.15537],[-86.01045,37.15493],[-86.01468,37.15238],[-86.01472,37.15211],[-86.01428,37.15156],[-86.0137,37.14952],[-86.0141,37.14889],[-86.01453,37.14804],[-86.01532,37.14757],[-86.01552,37.14736],[-86.01654,37.14408],[-86.01668,37.14392],[-86.01702,37.14382],[-86.01841,37.14408],[-86.01879,37.14409],[-86.02153,37.14362],[-86.02157,37.14355],[-86.02131,37.14265],[-86.02142,37.14244],[-86.02168,37.14238],[-86.02225,37.14267],[-86.02266,37.14268],[-86.02377,37.14221],[-86.02406,37.14167],[-86.02461,37.14136],[-86.02378,37.13917],[-86.0251,37.13907],[-86.02533,37.13793],[-86.02524,37.13767],[-86.02438,37.13674],[-86.02421,37.13639],[-86.02419,37.13605],[-86.0243,37.13546],[-86.02428,37.13419],[-86.02451,37.13314],[-86.02466,37.13285],[-86.02547,37.13211],[-86.02602,37.1315],[-86.02704,37.13127],[-86.02794,37.13126],[-86.02996,37.1316],[-86.03106,37.13193],[-86.03448,37.13323],[-86.03536,37.13364],[-86.03653,37.13442],[-86.03801,37.13591],[-86.0382,37.1358],[-86.03835,37.13596],[-86.05391,37.12732],[-86.05475,37.127],[-86.05578,37.12687],[-86.05653,37.12695],[-86.06364,37.12871],[-86.06414,37.12876],[-86.06491,37.12873],[-86.0643,37.12428],[-86.06407,37.12336],[-86.06372,37.12245],[-86.06157,37.11778],[-86.06302,37.11735],[-86.06183,37.11478],[-86.06038,37.1152],[-86.05991,37.11411],[-86.05948,37.11253],[-86.05932,37.11133],[-86.05913,37.10847],[-86.05906,37.10806],[-86.05888,37.10757],[-86.05847,37.10694],[-86.05678,37.10497],[-86.05556,37.10305],[-86.05391,37.10295],[-86.05353,37.09988],[-86.05367,37.09987],[-86.05345,37.09952],[-86.05485,37.09881],[-86.05524,37.09944],[-86.05568,37.09927],[-86.0554,37.09873],[-86.05552,37.09846],[-86.05606,37.09813],[-86.05651,37.09768],[-86.05726,37.09887],[-86.05819,37.09894],[-86.05807,37.10024],[-86.05872,37.10134],[-86.05904,37.10135],[-86.0606,37.10113],[-86.06093,37.10448],[-86.06181,37.10552],[-86.06217,37.10604],[-86.06254,37.10677],[-86.06278,37.10753],[-86.06294,37.1089],[-86.06312,37.11147],[-86.06327,37.11237],[-86.06344,37.11296],[-86.06456,37.11558],[-86.06752,37.12202],[-86.06789,37.12318],[-86.06825,37.12537],[-86.06861,37.12529],[-86.06938,37.1253],[-86.07034,37.12458],[-86.0707,37.12447],[-86.0711,37.12451],[-86.07257,37.12507],[-86.07324,37.12521],[-86.07413,37.12504],[-86.07587,37.12501],[-86.07767,37.12481],[-86.07835,37.12481],[-86.07918,37.1249],[-86.08023,37.12461],[-86.08182,37.12448],[-86.0825,37.1246],[-86.08347,37.12496],[-86.08498,37.12534],[-86.08692,37.1251],[-86.08988,37.12521],[-86.0899,37.12484],[-86.09427,37.12547],[-86.09473,37.12537],[-86.09509,37.12538],[-86.09586,37.12561],[-86.0976,37.12589],[-86.09776,37.12577],[-86.09779,37.12448],[-86.09787,37.12417],[-86.09807,37.12386],[-86.09837,37.1236],[-86.0999,37.12286],[-86.10181,37.12225],[-86.10358,37.12143],[-86.10405,37.12111],[-86.10541,37.11982],[-86.10611,37.11931],[-86.10689,37.11886],[-86.10857,37.11804],[-86.10903,37.11783],[-86.10932,37.11777],[-86.10964,37.1178],[-86.11035,37.11808],[-86.11115,37.11858],[-86.11285,37.11937],[-86.11371,37.1196],[-86.11448,37.11941],[-86.11527,37.11965],[-86.11615,37.11981],[-86.11641,37.12003],[-86.11652,37.1206],[-86.11683,37.1208],[-86.11811,37.12086],[-86.1209,37.12135],[-86.1213,37.12136],[-86.12437,37.12107],[-86.12693,37.12052],[-86.12769,37.12013],[-86.12806,37.12005],[-86.12834,37.12007],[-86.12985,37.1205],[-86.13097,37.12047],[-86.13124,37.12037],[-86.13178,37.11999],[-86.13258,37.11971],[-86.13452,37.1196],[-86.13503,37.11974],[-86.13569,37.12032],[-86.13752,37.12102],[-86.13768,37.12097],[-86.13797,37.12055],[-86.13843,37.12018],[-86.13867,37.12012],[-86.13892,37.12015],[-86.13919,37.12033],[-86.1395,37.12103],[-86.13972,37.12136],[-86.14033,37.1219],[-86.14182,37.1222],[-86.14303,37.12215],[-86.14601,37.12223],[-86.14917,37.12204],[-86.15263,37.12208],[-86.15394,37.12196],[-86.15503,37.12323],[-86.15602,37.12403],[-86.16671,37.13111],[-86.1676,37.13158],[-86.17,37.13263],[-86.1701,37.13274],[-86.17003,37.13293],[-86.1687,37.13383],[-86.16803,37.13438],[-86.1676,37.13489],[-86.16671,37.13637],[-86.16603,37.13711],[-86.16529,37.13763],[-86.16374,37.13843],[-86.16301,37.13909],[-86.16263,37.13983],[-86.1621,37.14215],[-86.16077,37.1451],[-86.16024,37.14596],[-86.15951,37.14677],[-86.16084,37.1483],[-86.16103,37.14878],[-86.16109,37.1494],[-86.16253,37.14896],[-86.16215,37.15284],[-86.16237,37.1537],[-86.16222,37.15396],[-86.16187,37.1542],[-86.16132,37.15491],[-86.16103,37.15549],[-86.16085,37.15612],[-86.16084,37.15786],[-86.16064,37.15804],[-86.15976,37.15845],[-86.15911,37.15895],[-86.15861,37.15962],[-86.15847,37.16004],[-86.15857,37.1604],[-86.15922,37.16109],[-86.1597,37.16127],[-86.1602,37.16135],[-86.16034,37.16094],[-86.16032,37.16136],[-86.16086,37.16149],[-86.16111,37.16167],[-86.16169,37.16234],[-86.16186,37.16275],[-86.16501,37.16276],[-86.16557,37.16263],[-86.1659,37.16274],[-86.16617,37.16314],[-86.1669,37.16341],[-86.16708,37.16357],[-86.16688,37.16432],[-86.16545,37.16472],[-86.16601,37.16568],[-86.16762,37.16641],[-86.16928,37.16696],[-86.17214,37.1675],[-86.17252,37.16752],[-86.17369,37.16729],[-86.17511,37.16737],[-86.17585,37.16751],[-86.1788,37.16828],[-86.18311,37.16859],[-86.18736,37.16871],[-86.18949,37.16791],[-86.18989,37.16769],[-86.19038,37.16801],[-86.19568,37.16899],[-86.19679,37.16933],[-86.19741,37.16966],[-86.19804,37.17016],[-86.19839,37.17055],[-86.19891,37.17142],[-86.19919,37.17177],[-86.19986,37.17228],[-86.20838,37.17618],[-86.20926,37.17651],[-86.21292,37.17736],[-86.21316,37.17717],[-86.21562,37.1758],[-86.21609,37.17579],[-86.21628,37.17591],[-86.21744,37.17726],[-86.2174,37.17739],[-86.21625,37.17819],[-86.21685,37.17848],[-86.21739,37.17884],[-86.21817,37.1796],[-86.22182,37.18551],[-86.22275,37.18651],[-86.2237,37.18721],[-86.22479,37.18778],[-86.22598,37.18819],[-86.2304,37.18916],[-86.23206,37.18945],[-86.23375,37.18961],[-86.23808,37.18987],[-86.23864,37.18981],[-86.23917,37.18967],[-86.24088,37.18896],[-86.24229,37.18855],[-86.24701,37.18764],[-86.24844,37.18757],[-86.2507,37.18787],[-86.25147,37.18771],[-86.25192,37.18747],[-86.25215,37.18727],[-86.25463,37.18964],[-86.25499,37.18987],[-86.25606,37.1903],[-86.25503,37.19175],[-86.25436,37.19303],[-86.25385,37.19435],[-86.25359,37.19451],[-86.25182,37.19471],[-86.25263,37.19657],[-86.25288,37.19744],[-86.25289,37.19821],[-86.25305,37.19853],[-86.25325,37.19869],[-86.25463,37.19929],[-86.25514,37.19969],[-86.25541,37.20006],[-86.25541,37.2002],[-86.25515,37.20055],[-86.25515,37.20069],[-86.25555,37.20129],[-86.25614,37.20198],[-86.2573,37.20174],[-86.25778,37.20182],[-86.25811,37.20199],[-86.25822,37.20229],[-86.2581,37.20294],[-86.25797,37.20315],[-86.25807,37.20357],[-86.25809,37.20421],[-86.25827,37.20484],[-86.25894,37.20478],[-86.25933,37.20576],[-86.25963,37.20626],[-86.26004,37.20666],[-86.2598,37.20682],[-86.26038,37.20744],[-86.26071,37.20721],[-86.2634,37.20888],[-86.26543,37.20986],[-86.26633,37.21068],[-86.26693,37.21145],[-86.26728,37.21212],[-86.2675,37.21291],[-86.26742,37.21336],[-86.26699,37.2146],[-86.26657,37.21525],[-86.26628,37.21554],[-86.26548,37.21614],[-86.2644,37.21663],[-86.26362,37.21671],[-86.26371,37.21738],[-86.26443,37.21723],[-86.26595,37.21642],[-86.26703,37.21568],[-86.26808,37.21791],[-86.27096,37.21874],[-86.27146,37.21929],[-86.27203,37.2196],[-86.27147,37.22054],[-86.27129,37.22073],[-86.27051,37.22127],[-86.2704,37.2215],[-86.27043,37.22166],[-86.27093,37.22259],[-86.27113,37.22319],[-86.27126,37.22329],[-86.2715,37.22329],[-86.27172,37.22348],[-86.27121,37.22384],[-86.27,37.22496],[-86.26985,37.22525],[-86.26951,37.22691],[-86.26957,37.22707],[-86.27033,37.22785],[-86.27129,37.22842],[-86.27183,37.22885],[-86.27214,37.22933],[-86.27259,37.22978],[-86.27262,37.23004],[-86.27176,37.23104],[-86.27122,37.23127],[-86.26964,37.23121],[-86.26886,37.23125],[-86.26621,37.23174],[-86.26581,37.23173],[-86.26675,37.23504],[-86.26664,37.23506],[-86.26595,37.23566],[-86.26563,37.23722],[-86.26621,37.23746],[-86.26714,37.2376],[-86.27341,37.23739],[-86.27422,37.2374],[-86.27543,37.2376],[-86.27585,37.23784],[-86.27604,37.23815],[-86.27601,37.2387],[-86.27575,37.24017],[-86.27582,37.24054],[-86.27614,37.24111],[-86.27761,37.24252],[-86.2781,37.24287],[-86.27878,37.24312],[-86.28018,37.24327],[-86.28,37.24346],[-86.27923,37.24389],[-86.27881,37.24432],[-86.2786,37.24469],[-86.27849,37.24522],[-86.27808,37.2465],[-86.27819,37.24697],[-86.27879,37.24781],[-86.27884,37.24814],[-86.27877,37.24882],[-86.27888,37.24906],[-86.27761,37.25048],[-86.27742,37.25094],[-86.27736,37.25136],[-86.27686,37.25128],[-86.27535,37.25073],[-86.27193,37.25035],[-86.27163,37.25036],[-86.27089,37.25054],[-86.26978,37.2509],[-86.26802,37.25105],[-86.2675,37.25155],[-86.26723,37.25201],[-86.26621,37.25249],[-86.2656,37.2529],[-86.2653,37.25416],[-86.26519,37.25432],[-86.26408,37.2546],[-86.26359,37.25449],[-86.26288,37.25415],[-86.26252,37.25406],[-86.26215,37.25404],[-86.26121,37.25415],[-86.25967,37.25383],[-86.25839,37.2534],[-86.25755,37.25294],[-86.25729,37.25287],[-86.25696,37.25289],[-86.25634,37.25311],[-86.25551,37.25316],[-86.25405,37.253],[-86.25359,37.25308],[-86.25286,37.25301],[-86.25248,37.25321],[-86.25222,37.25325],[-86.25003,37.25266],[-86.24883,37.25256],[-86.24797,37.25459],[-86.2488,37.25486],[-86.24918,37.25461],[-86.25058,37.25481],[-86.25159,37.25562],[-86.25143,37.25665],[-86.25354,37.25571],[-86.25331,37.25798],[-86.25455,37.2582],[-86.25502,37.25857],[-86.25518,37.25899],[-86.25519,37.25943],[-86.25565,37.26079],[-86.25528,37.26101],[-86.25506,37.2613],[-86.2548,37.26218],[-86.25424,37.26312],[-86.25423,37.26327],[-86.25544,37.26433],[-86.25555,37.26451],[-86.25558,37.26485],[-86.25525,37.26558],[-86.25527,37.26578],[-86.25537,37.26596],[-86.25561,37.26613],[-86.25779,37.26707],[-86.25816,37.2674],[-86.25831,37.26771],[-86.25829,37.26823],[-86.25758,37.27002],[-86.25753,37.27028],[-86.25758,37.27054],[-86.25792,37.27107],[-86.25804,37.27142],[-86.25691,37.27149],[-86.25678,37.27235],[-86.25778,37.27242],[-86.25728,37.27355],[-86.25714,37.2737],[-86.25679,37.27384],[-86.25559,37.2738],[-86.25543,37.27456],[-86.25509,37.27545],[-86.25614,37.27595],[-86.25555,37.27582],[-86.25471,37.27587],[-86.25346,37.2764],[-86.25331,37.27662],[-86.2513,37.27398],[-86.2508,37.27353],[-86.24624,37.27456],[-86.24498,37.2735],[-86.24193,37.27475],[-86.24075,37.27396],[-86.23966,37.2731],[-86.23972,37.27294],[-86.24007,37.27287],[-86.24005,37.27253],[-86.24015,37.27219],[-86.24011,37.27181],[-86.24035,37.27152],[-86.24009,37.27101],[-86.24014,37.27043],[-86.23976,37.27012],[-86.23839,37.27046],[-86.23674,37.27054],[-86.2365,37.27066],[-86.23635,37.27066],[-86.23459,37.26963],[-86.23387,37.2693],[-86.2328,37.26905],[-86.23066,37.26901],[-86.22956,37.26883],[-86.22891,37.2686],[-86.22617,37.26715],[-86.2254,37.26694],[-86.2247,37.2669],[-86.22391,37.26702],[-86.22335,37.26723],[-86.2228,37.26757],[-86.22235,37.26803],[-86.22199,37.26878],[-86.22158,37.2709],[-86.22123,37.27149],[-86.2207,37.27198],[-86.2202,37.27226],[-86.21973,37.27243],[-86.21447,37.27367],[-86.21337,37.27373],[-86.21277,37.27365],[-86.21219,37.27349],[-86.20669,37.27074],[-86.20548,37.27043],[-86.20468,37.27037],[-86.20403,37.2704],[-86.20307,37.27058],[-86.20218,37.27091],[-86.20178,37.27113],[-86.19695,37.27454],[-86.19592,37.27511],[-86.19495,37.27546],[-86.19207,37.27607],[-86.1904,37.27679],[-86.18936,37.27711],[-86.18797,37.27729],[-86.18064,37.27715],[-86.1805,37.27732],[-86.17974,37.27763],[-86.17656,37.27947],[-86.17637,37.27938],[-86.17432,37.27729],[-86.17425,37.27715]]]}},{"type":"Feature","properties":{"NAME":"Mill Springs Battlefield National Monument","TYPE":"National Park Service unit","STATES":"KY","URL":"https://www.nps.gov/misp/"},"geometry":{"type":"MultiPolygon","coordinates":[[[[-84.73291,37.07201],[-84.73576,37.06785],[-84.73086,37.06635],[-84.72945,37.06579],[-84.72838,37.06513],[-84.7262,37.06333],[-84.72543,37.06281],[-84.72583,37.06195],[-84.72792,37.06226],[-84.72811,37.06216],[-84.72842,37.06169],[-84.72929,37.0611],[-84.73047,37.06094],[-84.73106,37.06051],[-84.73113,37.05985],[-84.73063,37.05874],[-84.73067,37.05822],[-84.73048,37.05779],[-84.72991,37.05768],[-84.72999,37.05744],[-84.72959,37.05729],[-84.72974,37.05696],[-84.72967,37.0569],[-84.72933,37.05691],[-84.72922,37.05672],[-84.7289,37.05669],[-84.72901,37.0551],[-84.72787,37.0541],[-84.72753,37.0539],[-84.7268,37.05328],[-84.72639,37.05231],[-84.72826,37.05148],[-84.72789,37.05076],[-84.72794,37.05018],[-84.73084,37.04776],[-84.73102,37.04775],[-84.73144,37.04818],[-84.735,37.04722],[-84.73467,37.04636],[-84.73555,37.0456],[-84.73566,37.04531],[-84.73866,37.04608],[-84.73859,37.04662],[-84.7393,37.04635],[-84.74125,37.04481],[-84.74289,37.04278],[-84.746,37.04431],[-84.74719,37.04471],[-84.74573,37.04608],[-84.74577,37.0465],[-84.74255,37.04973],[-84.74342,37.05007],[-84.74416,37.05057],[-84.74462,37.05017],[-84.74494,37.0503],[-84.74537,37.05147],[-84.74557,37.05232],[-84.74527,37.05257],[-84.74769,37.05537],[-84.74738,37.05576],[-84.74696,37.05605],[-84.74608,37.05651],[-84.748,37.05774],[-84.74845,37.05753],[-84.74952,37.05954],[-84.74622,37.06112],[-84.74709,37.0626],[-84.74461,37.06368],[-84.7444,37.06383],[-84.74329,37.06527],[-84.74309,37.06593],[-84.7417,37.06873],[-84.74064,37.06859],[-84.73831,37.06843],[-84.73647,37.06805],[-84.73644,37.06816],[-84.73654,37.06826],[-84.73634,37.06955],[-84.73429,37.07252],[-84.73291,37.07201]]],[[[-84.77822,36.91738],[-84.77823,36.91697],[-84.77874,36.91698],[-84.77873,36.91739],[-84.77822,36.91738]]],[[[-84.7793,36.93453],[-84.77853,36.93442],[-84.77823,36.93539],[-84.77792,36.93525],[-84.77761,36.93486],[-84.77693,36.93476],[-84.77642,36.93418],[-84.77603,36.93401],[-84.77695,36.93214],[-84.77825,36.93276],[-84.78021,36.93309],[-84.77989,36.93317],[-84.77959,36.93314],[-84.7795,36.93341],[-84.77963,36.93368],[-84.78054,36.93396],[-84.78026,36.93437],[-84.78011,36.93489],[-84.7801,36.9363],[-84.77982,36.93641],[-84.77945,36.93641],[-84.7793,36.93453]]],[[[-84.77329,36.96369],[-84.77293,36.96169],[-84.77212,36.96177],[-84.77539,36.95939],[-84.77735,36.95583],[-84.77872,36.95274],[-84.77942,36.94634],[-84.78517,36.94714],[-84.78554,36.94542],[-84.78709,36.9456],[-84.78866,36.94606],[-84.7898,36.94615],[-84.79086,36.94662],[-84.79067,36.94678],[-84.79014,36.94761],[-84.79005,36.94824],[-84.79008,36.9488],[-84.78973,36.94902],[-84.7901,36.94957],[-84.78868,36.95112],[-84.78888,36.95307],[-84.78852,36.95421],[-84.78791,36.95418],[-84.78798,36.95434],[-84.7874,36.95544],[-84.78724,36.95722],[-84.78729,36.9582],[-84.78462,36.95825],[-84.78454,36.95821],[-84.78409,36.95923],[-84.78298,36.96007],[-84.78278,36.96113],[-84.78124,36.95962],[-84.78103,36.9601],[-84.78049,36.96091],[-84.78062,36.96154],[-84.7806,36.96176],[-84.7799,36.96266],[-84.77947,36.96339],[-84.77931,36.9638],[-84.7793,36.96465],[-84.77946,36.96617],[-84.77962,36.96644],[-84.78058,36.96733],[-84.78086,36.96775],[-84.78116,36.97088],[-84.78112,36.9711],[-84.78095,36.97134],[-84.78011,36.97174],[-84.77238,36.9699],[-84.77346,36.96726],[-84.77388,36.9671],[-84.77329,36.96369]]]]}}]}