{"type":"FeatureCollection","features":[{"type":"Feature","properties":{"NAME":"Pine Mountain State Scenic Trail","MANAGER":"Kentucky State Parks","URL":"https://parks.ky.gov/parks/find-a-park/pine-mountain-state-scenic-trail-7826"},"geometry":{"type":"MultiLineString","coordinates":[[[-82.63272,37.15496],[-82.63202,37.15444],[-82.63193,37.15425],[-82.63306,37.15278],[-82.63348,37.15239],[-82.63423,37.15211],[-82.63528,37.15195],[-82.64056,37.15278],[-82.64139,37.15278],[-82.64204,37.15246],[-82.6425,37.15195],[-82.6425,37.1514],[-82.64362,37.14945],[-82.64389,37.14945],[-82.64584,37.14862],[-82.64729,37.14853],[-82.64779,37.14866],[-82.64814,37.1489],[-82.6486,37.14942],[-82.64873,37.14967],[-82.64889,37.15056],[-82.65002,37.15178],[-82.65056,37.15195],[-82.65242,37.15165],[-82.65334,37.1514],[-82.65386,37.15086],[-82.65444,37.15048],[-82.65475,37.15017],[-82.655,37.14973],[-82.65498,37.14937],[-82.65486,37.14925],[-82.65459,37.14912],[-82.6544,37.14879],[-82.65437,37.14855],[-82.65446,37.14796],[-82.65455,37.14771],[-82.65477,37.14722],[-82.65532,37.14637],[-82.65546,37.14602],[-82.65547,37.1457],[-82.65536,37.14545],[-82.65484,37.14491],[-82.65474,37.14473],[-82.65479,37.14369],[-82.65499,37.14324],[-82.65528,37.14306],[-82.65569,37.14292],[-82.65653,37.14273],[-82.65691,37.14271],[-82.65725,37.14281],[-82.65754,37.14301],[-82.6584,37.14413],[-82.65859,37.14423],[-82.65881,37.14427],[-82.66109,37.14385],[-82.66146,37.1439],[-82.66164,37.14399],[-82.66232,37.14365],[-82.66282,37.14362],[-82.66322,37.1435],[-82.66345,37.14332],[-82.66358,37.14303],[-82.6636,37.14212],[-82.66365,37.14193],[-82.66381,37.14185],[-82.66612,37.14195],[-82.66687,37.14222],[-82.66723,37.14223],[-82.6677,37.14198],[-82.66828,37.14148],[-82.66895,37.14081],[-82.6702,37.13908],[-82.67065,37.13882],[-82.6713,37.13826],[-82.67158,37.13817],[-82.67179,37.13798],[-82.67181,37.13689],[-82.67187,37.13654],[-82.67209,37.1364],[-82.67285,37.13647],[-82.67358,37.13635],[-82.67476,37.13566],[-82.67581,37.13546],[-82.67612,37.13526],[-82.67637,37.13501],[-82.6765,37.13473],[-82.67671,37.13449],[-82.67697,37.13448],[-82.67827,37.13464],[-82.67888,37.13479],[-82.67948,37.13521],[-82.67994,37.13575],[-82.68023,37.13588],[-82.68067,37.13599],[-82.68168,37.13586],[-82.68219,37.13555],[-82.68274,37.13532],[-82.68363,37.13517],[-82.68491,37.13503],[-82.68584,37.13473],[-82.68639,37.13417],[-82.68694,37.13383],[-82.68735,37.13351],[-82.68766,37.13318],[-82.68801,37.13266],[-82.68823,37.13251],[-82.68852,37.13242],[-82.68887,37.13246],[-82.68936,37.1327],[-82.68962,37.13291],[-82.68979,37.13312],[-82.69002,37.13326],[-82.69061,37.13325],[-82.69438,37.13223],[-82.69475,37.13199],[-82.69505,37.13156],[-82.69514,37.13129],[-82.69569,37.13068],[-82.69608,37.13033],[-82.69694,37.12988],[-82.69802,37.12946],[-82.69892,37.12925],[-82.69955,37.1292],[-82.70001,37.12904],[-82.70139,37.12834],[-82.70167,37.12806],[-82.70278,37.12806],[-82.70342,37.12817],[-82.70411,37.12816],[-82.70473,37.12806],[-82.70497,37.12769],[-82.70528,37.12667],[-82.70917,37.12501],[-82.71011,37.12451],[-82.71115,37.12421],[-82.71176,37.12385],[-82.71175,37.12341],[-82.71166,37.1229],[-82.71169,37.12281],[-82.71179,37.12274],[-82.71215,37.12266],[-82.7126,37.12268],[-82.71306,37.12259],[-82.71339,37.12263],[-82.71366,37.12254],[-82.71375,37.12243],[-82.71381,37.12246],[-82.71389,37.12239],[-82.71397,37.12242],[-82.71432,37.12238],[-82.71487,37.12218],[-82.71501,37.12198],[-82.71513,37.12162],[-82.71563,37.12094],[-82.71582,37.12054],[-82.71603,37.12024],[-82.71629,37.12002],[-82.71641,37.11971],[-82.71661,37.1196],[-82.71697,37.11922],[-82.71699,37.11896],[-82.7172,37.1187],[-82.7173,37.11844],[-82.71748,37.1182],[-82.71755,37.11789],[-82.71783,37.11762],[-82.71798,37.11764],[-82.71831,37.1179],[-82.71865,37.11846],[-82.71906,37.11883],[-82.71922,37.11885],[-82.71944,37.11933],[-82.71977,37.11976],[-82.72017,37.12008],[-82.7204,37.12016],[-82.72057,37.12029],[-82.72068,37.12027],[-82.72105,37.11999],[-82.72109,37.1199],[-82.72129,37.11974],[-82.7213,37.11963],[-82.72141,37.11958],[-82.72144,37.11949],[-82.72125,37.11935],[-82.72122,37.11925],[-82.7213,37.11907],[-82.72132,37.11887],[-82.7214,37.1188],[-82.7215,37.11875],[-82.72189,37.1188],[-82.72248,37.11872],[-82.72282,37.11859],[-82.72292,37.11863],[-82.72347,37.11826],[-82.72361,37.11826],[-82.72369,37.11833],[-82.72385,37.1182],[-82.7241,37.11786],[-82.72429,37.11743],[-82.72494,37.11718],[-82.72521,37.11688],[-82.72531,37.1167],[-82.7255,37.11658],[-82.7257,37.11635],[-82.72613,37.11617],[-82.72629,37.11591],[-82.72614,37.11576],[-82.72599,37.11549],[-82.72607,37.11543],[-82.72603,37.11534],[-82.72606,37.11525],[-82.7262,37.11511],[-82.72641,37.11514],[-82.72686,37.11501],[-82.72721,37.11505],[-82.72815,37.11563],[-82.72826,37.11547],[-82.72883,37.11531],[-82.72928,37.11504],[-82.72936,37.11497],[-82.72947,37.11471],[-82.73007,37.11453],[-82.73036,37.11436],[-82.73062,37.11434],[-82.73084,37.11418],[-82.73095,37.11419],[-82.73116,37.11406],[-82.7313,37.11405],[-82.732,37.11362],[-82.73201,37.11324],[-82.73207,37.11316],[-82.73237,37.11303],[-82.73264,37.11304],[-82.73311,37.11278],[-82.73339,37.11251],[-82.73381,37.11234],[-82.73427,37.11232],[-82.73447,37.11218],[-82.73495,37.11219],[-82.73505,37.11213],[-82.73541,37.11207],[-82.73557,37.1119],[-82.73576,37.11153],[-82.73632,37.1115],[-82.73641,37.11147],[-82.73641,37.11139],[-82.73664,37.11131],[-82.73707,37.11136],[-82.73729,37.11131],[-82.73766,37.11089],[-82.73806,37.11067],[-82.73829,37.11067],[-82.73849,37.11057],[-82.7386,37.11054],[-82.73873,37.11057],[-82.73882,37.11052],[-82.73906,37.1106],[-82.73962,37.11055],[-82.74023,37.11005],[-82.74051,37.1097],[-82.74087,37.10947],[-82.7412,37.10939],[-82.74125,37.10932],[-82.74149,37.10931],[-82.74212,37.10912],[-82.74233,37.10912],[-82.74262,37.10893],[-82.74326,37.1088],[-82.74357,37.10844],[-82.74368,37.10838],[-82.74388,37.10836],[-82.74419,37.10853],[-82.74431,37.10854],[-82.7452,37.10824],[-82.74576,37.10793],[-82.74611,37.10788],[-82.74638,37.10777],[-82.74672,37.10778],[-82.74704,37.10792],[-82.74737,37.10773],[-82.74745,37.10759],[-82.74825,37.10703],[-82.7485,37.10709],[-82.74871,37.10704],[-82.74882,37.1071],[-82.74905,37.10711],[-82.74929,37.10724],[-82.74965,37.10708],[-82.74971,37.107],[-82.74967,37.10691],[-82.74974,37.10681],[-82.74996,37.10671],[-82.75005,37.10653],[-82.75074,37.10655],[-82.75107,37.10628],[-82.75116,37.10626],[-82.75134,37.10586],[-82.75163,37.10568],[-82.75166,37.10559],[-82.752,37.1054],[-82.75252,37.10536],[-82.75312,37.10509],[-82.7534,37.10526],[-82.75359,37.10523],[-82.75373,37.10508],[-82.75473,37.10465],[-82.75501,37.10464],[-82.75595,37.10405],[-82.75633,37.10403],[-82.75653,37.10394],[-82.75664,37.10401],[-82.75644,37.10416],[-82.75693,37.10428],[-82.7574,37.10407],[-82.75753,37.10407],[-82.75768,37.10414],[-82.75799,37.10415],[-82.7582,37.10427],[-82.75855,37.1043],[-82.75869,37.10429],[-82.75899,37.10415],[-82.75937,37.10416],[-82.75943,37.10425],[-82.75961,37.10436],[-82.76014,37.10463],[-82.76038,37.10466],[-82.76046,37.10474],[-82.76076,37.10477],[-82.76098,37.10491],[-82.76125,37.10478],[-82.76157,37.10473],[-82.76182,37.10475],[-82.76205,37.10463],[-82.76222,37.10465],[-82.76221,37.10452],[-82.76241,37.10425],[-82.76239,37.10406],[-82.76226,37.10379],[-82.76266,37.10376],[-82.76273,37.10368],[-82.76316,37.10352],[-82.76339,37.10348],[-82.7635,37.10353],[-82.76362,37.10337],[-82.76383,37.10328],[-82.76384,37.10319],[-82.76404,37.10309],[-82.76408,37.103],[-82.76425,37.10286],[-82.76458,37.10278],[-82.76523,37.10241],[-82.76539,37.10228],[-82.76538,37.1022],[-82.76554,37.10215],[-82.7656,37.10202],[-82.76573,37.10191],[-82.76605,37.10174],[-82.7663,37.10189],[-82.76664,37.1019],[-82.76696,37.10179],[-82.76716,37.10183],[-82.76732,37.10178],[-82.76757,37.10141],[-82.76777,37.1013],[-82.76776,37.10122],[-82.76782,37.10114],[-82.76779,37.10095],[-82.76795,37.10081],[-82.76805,37.10054],[-82.76828,37.10044],[-82.7683,37.1003],[-82.76865,37.10024],[-82.76891,37.10005],[-82.76899,37.09987],[-82.76894,37.09959],[-82.76912,37.09906],[-82.76948,37.09848],[-82.76964,37.09834],[-82.76967,37.09818],[-82.76992,37.0984],[-82.77013,37.09849],[-82.77004,37.09827],[-82.77007,37.09802],[-82.76983,37.09768],[-82.76989,37.09752],[-82.76978,37.09691],[-82.76954,37.09674],[-82.76953,37.09653],[-82.76945,37.09637],[-82.76909,37.09606],[-82.76895,37.09604],[-82.76888,37.09609],[-82.76868,37.09602],[-82.76824,37.09544],[-82.76788,37.09518],[-82.76773,37.09464],[-82.76735,37.09403],[-82.76728,37.09338],[-82.76728,37.09283],[-82.76737,37.09221],[-82.76751,37.0922],[-82.76787,37.0927],[-82.76817,37.09278],[-82.76855,37.09278],[-82.76882,37.09238],[-82.76938,37.09247],[-82.77016,37.09238],[-82.77083,37.09249],[-82.77105,37.09267],[-82.77125,37.09319],[-82.77132,37.09343],[-82.77141,37.09417],[-82.77174,37.09431],[-82.77246,37.09437],[-82.77307,37.09409],[-82.77375,37.09362],[-82.77419,37.09363],[-82.77555,37.09252],[-82.77695,37.09112],[-82.77806,37.09084],[-82.77834,37.09056],[-82.78195,37.08973],[-82.78306,37.08917],[-82.78334,37.0889],[-82.785,37.08778],[-82.78584,37.08778],[-82.78723,37.08723],[-82.78862,37.08751],[-82.78864,37.0877],[-82.78889,37.08778],[-82.7893,37.08765],[-82.79028,37.08695],[-82.79223,37.08612],[-82.79306,37.08501],[-82.79445,37.08362],[-82.79528,37.08251],[-82.79556,37.08195],[-82.79624,37.08152],[-82.79667,37.0814],[-82.79695,37.0814],[-82.79768,37.08164],[-82.79806,37.08167],[-82.79862,37.0814],[-82.8,37.08056],[-82.80027,37.08023],[-82.80056,37.08001],[-82.80072,37.07995],[-82.80112,37.08001],[-82.80118,37.08019],[-82.80139,37.08028],[-82.80158,37.0802],[-82.80223,37.0794],[-82.80267,37.07877],[-82.80411,37.07728],[-82.80441,37.07707],[-82.80473,37.07695],[-82.80528,37.07695],[-82.80558,37.07706],[-82.80584,37.07723],[-82.80597,37.07756],[-82.80613,37.0782],[-82.80622,37.07842],[-82.80639,37.07862],[-82.8071,37.07886],[-82.80778,37.0789],[-82.80806,37.07872],[-82.80892,37.07787],[-82.80945,37.07751],[-82.80988,37.07714],[-82.81,37.07695],[-82.81006,37.07671],[-82.81,37.0764]],[[-82.63058,37.15692],[-82.63161,37.15669],[-82.63238,37.15598],[-82.63296,37.15506]],[[-82.45958,37.23859],[-82.45958,37.2386]],[[-82.45958,37.2386],[-82.45987,37.23859],[-82.46129,37.23797],[-82.46144,37.23797],[-82.46172,37.23824],[-82.46163,37.23742],[-82.46057,37.23736],[-82.46047,37.23686],[-82.46072,37.23652],[-82.46107,37.23565],[-82.46071,37.23557],[-82.46118,37.23537],[-82.46135,37.23541],[-82.46127,37.23611],[-82.46146,37.2364],[-82.46262,37.23652],[-82.46376,37.23682],[-82.46387,37.23671],[-82.46398,37.23622],[-82.46487,37.2354],[-82.46524,37.23484],[-82.46471,37.23422],[-82.46476,37.23405],[-82.46607,37.23369],[-82.4653,37.23423],[-82.46602,37.23478],[-82.46646,37.23492],[-82.46684,37.23527],[-82.46659,37.23557],[-82.4667,37.23564],[-82.46701,37.23543],[-82.46707,37.23505],[-82.46663,37.23456],[-82.46809,37.23437],[-82.46844,37.23416],[-82.46886,37.23411],[-82.46938,37.23396],[-82.47057,37.2335],[-82.4708,37.2335],[-82.47098,37.23431],[-82.47143,37.2344],[-82.47177,37.23432],[-82.47231,37.23445],[-82.47228,37.23517],[-82.47242,37.23535],[-82.47285,37.23532],[-82.47596,37.2338],[-82.47686,37.23367],[-82.47824,37.23321],[-82.47945,37.2324],[-82.4798,37.23207],[-82.48155,37.23126],[-82.4823,37.23072],[-82.48289,37.23058],[-82.48328,37.23036],[-82.48417,37.23019],[-82.48485,37.23036],[-82.48567,37.23038],[-82.48644,37.23032],[-82.48687,37.23019],[-82.48719,37.23015],[-82.48741,37.22996],[-82.48735,37.22973],[-82.48779,37.22963],[-82.48783,37.22923],[-82.48841,37.22851],[-82.48892,37.22807],[-82.48957,37.22772],[-82.4902,37.22748],[-82.49072,37.22688],[-82.49099,37.22649],[-82.49144,37.2255],[-82.49156,37.22541],[-82.49164,37.22565],[-82.49228,37.22559],[-82.49346,37.22636],[-82.49406,37.22667],[-82.49418,37.22699],[-82.49408,37.22707],[-82.49438,37.22743],[-82.49475,37.22749],[-82.49533,37.22736],[-82.49677,37.22661],[-82.49757,37.22577],[-82.49771,37.22542],[-82.49888,37.22449],[-82.49966,37.22406],[-82.50328,37.22354],[-82.50436,37.22318],[-82.50542,37.22303],[-82.50664,37.22279],[-82.50858,37.22203],[-82.50946,37.22132],[-82.51017,37.22129],[-82.5104,37.22119],[-82.51078,37.2206],[-82.51101,37.21988],[-82.51095,37.2192],[-82.51114,37.21844],[-82.51133,37.21834],[-82.51146,37.21839],[-82.51225,37.21899],[-82.51334,37.21874],[-82.51404,37.21829],[-82.51518,37.21806],[-82.51537,37.21771],[-82.51664,37.2164],[-82.51723,37.21543],[-82.51755,37.21517],[-82.51771,37.2148],[-82.51884,37.21409],[-82.51971,37.21459],[-82.52004,37.21501],[-82.52049,37.21503],[-82.52189,37.21526],[-82.52288,37.21527],[-82.52366,37.21512],[-82.52414,37.21495],[-82.52489,37.21486],[-82.52567,37.21469],[-82.52771,37.21399],[-82.52815,37.2139],[-82.52887,37.21332],[-82.52996,37.21293],[-82.53146,37.21218],[-82.53187,37.21194],[-82.53191,37.21172],[-82.53226,37.21103],[-82.53227,37.2109],[-82.53192,37.21068],[-82.53194,37.21045],[-82.53209,37.21016],[-82.53292,37.20953],[-82.53318,37.20911],[-82.53336,37.20853],[-82.53371,37.20798],[-82.53389,37.20787],[-82.53413,37.20784],[-82.53577,37.20823],[-82.53618,37.20838],[-82.53634,37.20833],[-82.53711,37.20834],[-82.53782,37.20806],[-82.53813,37.20799],[-82.53921,37.20801],[-82.53943,37.20824],[-82.53976,37.20833],[-82.54,37.20833],[-82.5402,37.20827],[-82.54063,37.20778],[-82.54071,37.2076],[-82.54088,37.20747],[-82.54114,37.20736],[-82.54177,37.20745],[-82.54198,37.2074],[-82.54222,37.20727],[-82.54251,37.20702],[-82.54276,37.20657],[-82.54304,37.20638],[-82.54319,37.20636],[-82.54395,37.20674],[-82.54428,37.20674],[-82.54452,37.20668],[-82.54467,37.20651],[-82.54468,37.20637],[-82.54452,37.20564],[-82.54452,37.20527],[-82.5447,37.20496],[-82.54527,37.20455],[-82.54586,37.20434],[-82.54649,37.20427],[-82.54697,37.20452],[-82.5474,37.20421],[-82.54773,37.20415],[-82.54829,37.20425],[-82.54878,37.20425],[-82.54936,37.20404],[-82.55023,37.20448],[-82.55054,37.20442],[-82.55176,37.2036],[-82.55207,37.20353],[-82.55289,37.2032],[-82.55343,37.20288],[-82.55352,37.20274],[-82.5533,37.2025],[-82.5534,37.20214],[-82.5539,37.20167],[-82.5543,37.20138],[-82.55461,37.20095],[-82.55495,37.20077],[-82.55581,37.20057],[-82.55641,37.20032],[-82.55836,37.19861],[-82.55895,37.19772],[-82.55941,37.19754],[-82.56008,37.19746],[-82.56049,37.19725],[-82.56088,37.19691],[-82.56105,37.19682],[-82.5617,37.1967],[-82.56198,37.1966],[-82.56315,37.19578],[-82.56413,37.19523],[-82.56434,37.19506],[-82.56453,37.19446],[-82.56474,37.19444],[-82.56523,37.19425],[-82.56572,37.19414],[-82.56592,37.19399],[-82.56622,37.19364],[-82.56634,37.19338],[-82.56638,37.19304],[-82.5663,37.19281],[-82.5664,37.19263],[-82.5666,37.19249],[-82.56728,37.1923],[-82.56772,37.19233],[-82.56807,37.19228],[-82.56832,37.19212],[-82.5685,37.19208],[-82.5687,37.19221],[-82.5697,37.19239],[-82.57008,37.19254],[-82.57064,37.19256],[-82.57082,37.19251],[-82.57129,37.19213],[-82.57201,37.19167],[-82.57226,37.19156],[-82.57368,37.19122],[-82.57478,37.1905],[-82.57502,37.19019],[-82.57511,37.18997],[-82.57528,37.18981],[-82.57568,37.18968],[-82.5763,37.18988],[-82.57672,37.18991],[-82.57699,37.1898],[-82.57725,37.18949],[-82.57738,37.1892],[-82.57773,37.18887],[-82.57828,37.18847],[-82.5793,37.18786],[-82.58047,37.18764],[-82.58153,37.18713],[-82.58184,37.18703],[-82.58217,37.18684],[-82.58239,37.18663],[-82.58283,37.18642],[-82.58315,37.18634],[-82.5841,37.1863],[-82.58449,37.18623],[-82.58492,37.18596],[-82.58532,37.1858],[-82.58577,37.18549],[-82.58666,37.18458],[-82.58706,37.18434],[-82.58773,37.1837],[-82.58829,37.18343],[-82.58837,37.18308],[-82.58909,37.18263],[-82.58954,37.18246],[-82.59069,37.18233],[-82.59152,37.18204],[-82.59279,37.18179],[-82.5929,37.18173],[-82.59297,37.18166],[-82.59262,37.18106],[-82.59217,37.18044],[-82.59219,37.18037],[-82.5925,37.1803],[-82.59279,37.1801],[-82.59301,37.17983],[-82.59266,37.1798],[-82.59269,37.17956],[-82.59306,37.17904],[-82.59363,37.1787],[-82.59371,37.17854],[-82.5936,37.17808],[-82.59309,37.17837],[-82.59304,37.17791],[-82.59367,37.17756],[-82.59405,37.17714],[-82.59423,37.17715],[-82.59485,37.17696],[-82.59533,37.17656],[-82.59549,37.17612],[-82.59626,37.17585],[-82.59684,37.17537],[-82.5972,37.17551],[-82.59804,37.17559],[-82.59758,37.17579],[-82.59726,37.17601],[-82.59718,37.17642],[-82.59689,37.1767],[-82.59645,37.17701],[-82.5965,37.17714],[-82.59667,37.17725],[-82.597,37.17705],[-82.59721,37.17719],[-82.5985,37.17676],[-82.59888,37.17639],[-82.59959,37.17604],[-82.60028,37.17577],[-82.60056,37.17525],[-82.60109,37.17495],[-82.60118,37.17538],[-82.60178,37.17558],[-82.60244,37.17552],[-82.60289,37.17541],[-82.60305,37.17504],[-82.60331,37.17486],[-82.60375,37.17443],[-82.60408,37.17426],[-82.60487,37.17406],[-82.60541,37.174],[-82.60624,37.17346],[-82.60666,37.17308],[-82.60695,37.17294],[-82.6075,37.17296],[-82.60832,37.17277],[-82.60891,37.17238],[-82.609,37.17186],[-82.60886,37.17178],[-82.60965,37.17132],[-82.60915,37.17136],[-82.60928,37.17114],[-82.61051,37.1704],[-82.61172,37.17011],[-82.61226,37.16979],[-82.61271,37.16996],[-82.61297,37.16975],[-82.61297,37.16985],[-82.61327,37.16971],[-82.61334,37.16984],[-82.61368,37.16967],[-82.61423,37.16968],[-82.61422,37.16956],[-82.61503,37.16908],[-82.61577,37.16884],[-82.61622,37.16878],[-82.61659,37.16864],[-82.61715,37.16834],[-82.61787,37.16771],[-82.61889,37.16707],[-82.61983,37.16684],[-82.62002,37.16665],[-82.62053,37.16647],[-82.62096,37.16606],[-82.62228,37.16534],[-82.62252,37.16504],[-82.62306,37.1647],[-82.62352,37.16431],[-82.62431,37.16338],[-82.6261,37.16166],[-82.62668,37.16114],[-82.62738,37.16081],[-82.62822,37.15982],[-82.62922,37.15886],[-82.62974,37.15794],[-82.63058,37.15692]],[[-82.3378,37.29528],[-82.33803,37.29506],[-82.33878,37.29405],[-82.33977,37.29327],[-82.33892,37.29327],[-82.33755,37.29365],[-82.33681,37.29334],[-82.33641,37.29329],[-82.33571,37.29292],[-82.33463,37.29275],[-82.33417,37.29254],[-82.33379,37.29203],[-82.33354,37.29159],[-82.33341,37.29149],[-82.33285,37.29163],[-82.33239,37.29165],[-82.33209,37.29175],[-82.33172,37.29156],[-82.33129,37.29103],[-82.3302,37.29108],[-82.32943,37.29089],[-82.32857,37.29114],[-82.32712,37.29084],[-82.32709,37.29027],[-82.3272,37.29012],[-82.32714,37.2901],[-82.32649,37.29036],[-82.32555,37.29023],[-82.32538,37.29011],[-82.32459,37.28991],[-82.32422,37.28993],[-82.32332,37.28987],[-82.32275,37.28996],[-82.32203,37.29023],[-82.32138,37.29055],[-82.32068,37.29111],[-82.32,37.29126],[-82.31993,37.2904],[-82.31908,37.29086],[-82.3186,37.2908],[-82.31832,37.29015],[-82.31874,37.28979],[-82.31893,37.28969],[-82.31953,37.28907],[-82.32028,37.28868],[-82.32052,37.28796],[-82.32105,37.2876],[-82.32186,37.28715],[-82.32201,37.28686],[-82.32245,37.28668],[-82.32273,37.28637],[-82.32331,37.28594],[-82.32408,37.28586],[-82.32481,37.28555],[-82.32513,37.28529],[-82.3263,37.28519],[-82.32688,37.2849],[-82.32713,37.28471],[-82.32783,37.28484],[-82.32859,37.2848],[-82.3297,37.28497],[-82.3304,37.28479],[-82.33071,37.28453],[-82.33139,37.28447],[-82.33195,37.28425],[-82.33256,37.2839],[-82.33365,37.28275],[-82.33409,37.28253],[-82.3342,37.28234],[-82.33439,37.28218],[-82.33459,37.28183],[-82.33492,37.28147],[-82.33524,37.28138],[-82.3361,37.2814],[-82.33656,37.28119],[-82.33621,37.28029],[-82.33636,37.27983],[-82.33683,37.27958],[-82.3377,37.27968],[-82.33823,37.27998],[-82.33853,37.27981],[-82.33886,37.27978],[-82.33924,37.27963],[-82.33945,37.27981],[-82.33959,37.27977],[-82.33935,37.27923],[-82.33942,37.27907],[-82.33958,37.27899],[-82.33993,37.27867],[-82.3397,37.27814],[-82.33939,37.27782],[-82.33932,37.27759],[-82.33941,37.27731],[-82.33959,37.27729],[-82.33972,37.277],[-82.33957,37.27673],[-82.33948,37.27627],[-82.33967,37.27593],[-82.33945,37.2756],[-82.33974,37.27527],[-82.33983,37.27465],[-82.34055,37.27366],[-82.34126,37.27337],[-82.34155,37.27303],[-82.34157,37.27284],[-82.34218,37.27247],[-82.34245,37.27212],[-82.34258,37.27206],[-82.34349,37.27225],[-82.34363,37.27234],[-82.34372,37.27249],[-82.34383,37.27293],[-82.34406,37.27315],[-82.3441,37.27284],[-82.34425,37.27254],[-82.34441,37.27236],[-82.3446,37.27224],[-82.34496,37.27214],[-82.34548,37.27208],[-82.34668,37.27178],[-82.34747,37.27152],[-82.34839,37.271],[-82.34872,37.27049],[-82.34887,37.26976],[-82.34875,37.26941],[-82.34845,37.26923],[-82.3486,37.26903],[-82.34875,37.26896],[-82.34923,37.2691],[-82.34957,37.26903],[-82.35032,37.26908],[-82.35065,37.2685],[-82.35207,37.26824],[-82.35283,37.26852],[-82.3552,37.26776],[-82.35578,37.26741],[-82.35622,37.2667],[-82.35764,37.2661],[-82.35825,37.26575],[-82.35827,37.26558],[-82.35783,37.26537],[-82.35698,37.26522],[-82.35664,37.26531],[-82.35613,37.26568],[-82.3557,37.26538],[-82.35487,37.26568],[-82.3546,37.26568],[-82.355,37.26539],[-82.3563,37.26499],[-82.35654,37.26504],[-82.35731,37.26498],[-82.35815,37.26476],[-82.35871,37.26474],[-82.35949,37.26484],[-82.36135,37.26462],[-82.36126,37.26453],[-82.36209,37.26464],[-82.36385,37.26415],[-82.36397,37.26419],[-82.3643,37.26412],[-82.36447,37.26415],[-82.36498,37.26382],[-82.36526,37.26359],[-82.36551,37.26326],[-82.36581,37.26309],[-82.36687,37.26287],[-82.36781,37.26258],[-82.3683,37.26237],[-82.36859,37.26231],[-82.36914,37.26231],[-82.36973,37.2624],[-82.37044,37.26229],[-82.37079,37.26201],[-82.37132,37.26173],[-82.37201,37.26153],[-82.37224,37.26134],[-82.37293,37.26119],[-82.37313,37.2611],[-82.37352,37.26105],[-82.37359,37.26082],[-82.37386,37.2607],[-82.37411,37.26071],[-82.37452,37.26052],[-82.37496,37.26047],[-82.37553,37.26033],[-82.37629,37.26005],[-82.37677,37.25997],[-82.37687,37.25991],[-82.37722,37.25993],[-82.37721,37.26006],[-82.37737,37.26015],[-82.37874,37.26014],[-82.379,37.25999],[-82.37994,37.25989],[-82.38059,37.25992],[-82.38093,37.2601],[-82.3816,37.25988],[-82.38173,37.25978],[-82.38188,37.25977],[-82.38223,37.25991],[-82.38258,37.2599],[-82.38327,37.26006],[-82.3835,37.26006],[-82.38371,37.2599],[-82.38378,37.25974],[-82.38395,37.25971],[-82.38418,37.25956],[-82.38487,37.25952],[-82.3856,37.25968],[-82.38589,37.25939],[-82.38624,37.25926],[-82.38653,37.25905],[-82.387,37.25884],[-82.38818,37.25896],[-82.38867,37.25878],[-82.38903,37.25853],[-82.38904,37.25848],[-82.38894,37.25834],[-82.38948,37.25814],[-82.38979,37.25812],[-82.39035,37.25783],[-82.39054,37.25784],[-82.39094,37.25772],[-82.39113,37.2579],[-82.39165,37.25792],[-82.39215,37.258],[-82.39226,37.25794],[-82.3924,37.25801],[-82.3926,37.25797],[-82.39284,37.25778],[-82.39277,37.25776],[-82.39346,37.25742],[-82.39378,37.25718],[-82.39431,37.25733],[-82.39497,37.25686],[-82.39509,37.25687],[-82.39584,37.2564],[-82.397,37.25633],[-82.3969,37.25618],[-82.39705,37.25586],[-82.39711,37.25581],[-82.39767,37.25579],[-82.39778,37.25537],[-82.39867,37.25536],[-82.39965,37.25502],[-82.40092,37.25503],[-82.40155,37.25512],[-82.40181,37.25501],[-82.4024,37.25499],[-82.40259,37.25481],[-82.40359,37.2547],[-82.40394,37.25475],[-82.405,37.25418],[-82.40605,37.25374],[-82.40645,37.25343],[-82.40755,37.2529],[-82.40829,37.25292],[-82.40841,37.25301],[-82.40896,37.25314],[-82.40912,37.25309],[-82.40933,37.25312],[-82.40993,37.25309],[-82.41036,37.25301],[-82.41087,37.25307],[-82.41124,37.253],[-82.41187,37.25282],[-82.41196,37.25272],[-82.41246,37.25244],[-82.41292,37.25233],[-82.41377,37.25201],[-82.4147,37.25148],[-82.41506,37.2516],[-82.41591,37.25135],[-82.41648,37.25127],[-82.41713,37.25093],[-82.41759,37.25077],[-82.41882,37.25071],[-82.41902,37.25063],[-82.41913,37.25046],[-82.42034,37.25002],[-82.42138,37.24981],[-82.42166,37.24942],[-82.42166,37.24933],[-82.42173,37.24924],[-82.42215,37.24902],[-82.42231,37.24902],[-82.42276,37.24853],[-82.42291,37.2486],[-82.42338,37.24857],[-82.4237,37.24861],[-82.42393,37.24878],[-82.42413,37.24879],[-82.42426,37.24888],[-82.4244,37.2488],[-82.42496,37.24873],[-82.42516,37.24865],[-82.42545,37.24866],[-82.42641,37.24846],[-82.42664,37.24855],[-82.42698,37.24822],[-82.42721,37.24815],[-82.4276,37.24781],[-82.42867,37.24741],[-82.42878,37.24728],[-82.42926,37.24725],[-82.43025,37.24686],[-82.4305,37.24686],[-82.43085,37.24675],[-82.43107,37.24681],[-82.43145,37.24677],[-82.43161,37.24663],[-82.43215,37.24645],[-82.43278,37.24658],[-82.43354,37.24639],[-82.43383,37.24655],[-82.43467,37.2466],[-82.43507,37.24657],[-82.43534,37.24645],[-82.43555,37.24647],[-82.43591,37.24672],[-82.43624,37.24683],[-82.43656,37.24704],[-82.43676,37.24712],[-82.43709,37.24717],[-82.43797,37.24703],[-82.43842,37.2471],[-82.43915,37.24703],[-82.43937,37.24695],[-82.44007,37.24618],[-82.43974,37.24606],[-82.43972,37.2456],[-82.43988,37.24502],[-82.44067,37.24453],[-82.44119,37.24464],[-82.4419,37.24454],[-82.44264,37.24412],[-82.44288,37.24408],[-82.44306,37.24399],[-82.44363,37.24365],[-82.4437,37.24375],[-82.44398,37.2439],[-82.44446,37.24399],[-82.44516,37.24389],[-82.44588,37.24403],[-82.44623,37.24389],[-82.44711,37.24365],[-82.44725,37.24373],[-82.44742,37.24406],[-82.4479,37.24386],[-82.4487,37.24376],[-82.44947,37.2436],[-82.45036,37.24315],[-82.4508,37.2428],[-82.45238,37.24215],[-82.4524,37.24144],[-82.453,37.24106],[-82.4534,37.24073],[-82.45433,37.24056],[-82.45484,37.24054],[-82.45537,37.2402],[-82.45561,37.24029],[-82.45605,37.24008],[-82.45646,37.24001],[-82.45691,37.23957],[-82.45759,37.23907],[-82.45795,37.23898],[-82.45891,37.23897],[-82.45957,37.23872],[-82.45958,37.2386]]]}}]}